"Pub Name","Latitude","Longitude","Street","Locality","Region","Postcode","Telephone","Source URL"
"The Crown Hotel","52.0869051","-0.264905","23 High Street","Biggleswade","Bedfordshire","SG18 0JE","01767 310510","https://www.jdwetherspoon.com/pubs/all-pubs/england/bedfordshire/the-crown-hotel"
"The Gary Cooper","51.889702","-0.521186","Unit 2, Grove Park","Dunstable","Bedfordshire","LU5 4GP","01582 471452","https://www.jdwetherspoon.com/pubs/all-pubs/england/bedfordshire/the-gary-cooper-dunstable"
"The Pilgrim’s Progress","52.136021","-0.471718","42 Midland Road","Bedford","Bedfordshire","MK40 1QB","01234 363751","https://www.jdwetherspoon.com/pubs/all-pubs/england/bedfordshire/the-pilgrims-progress-bedford"
"The Swan Hotel","51.915843","-0.663266","50 High Street","Leighton Buzzard","Bedfordshire","LU7 1EA","01525 380170","https://www.jdwetherspoon.com/pubs/all-pubs/england/bedfordshire/the-swan-hotel-leighton-buzzard"
"The White House","51.881703","-0.418472","1 Bridge Street","Luton","Bedfordshire","LU1 1SA","01582 454608","https://www.jdwetherspoon.com/pubs/all-pubs/england/bedfordshire/the-white-house-luton"
"The Back of Beyond","51.454830","-0.963423","104–108 Kings Road","Reading","Berkshire","RG1 3BY","0118 959 5906","https://www.jdwetherspoon.com/pubs/all-pubs/england/berkshire/the-back-of-beyond-reading"
"The Bear","51.523039","-0.717843","8–10 High Street","Maidenhead","Berkshire","SL6 1QJ","01628 763030","https://www.jdwetherspoon.com/pubs/all-pubs/england/berkshire/the-bear-maidenhead"
"The Hatchet Inn","51.400916","-1.322141","12 Market Place","Newbury","Berkshire","RG14 5BD","01635 277560","https://www.jdwetherspoon.com/pubs/all-pubs/england/berkshire/the-hatchet-inn-newbury"
"The Hope Tap","51.456540","-0.975386","99–105 Friar Street","Reading","Berkshire","RG1 1EP","0118 958 2266","https://www.jdwetherspoon.com/pubs/all-pubs/england/berkshire/the-hope-tap-reading"
"The King and Castle","51.483657","-0.608679","15–16 Thames Street","Windsor","Berkshire","SL4 1PL","01753 625120","https://www.jdwetherspoon.com/pubs/all-pubs/england/berkshire/the-king-and-castle-windsor"
"The Moon and Spoon","51.509569","-0.595761","86–88 High Street","Slough","Berkshire","SL1 1EL","01753 531650","https://www.jdwetherspoon.com/pubs/all-pubs/england/berkshire/the-moon-and-spoon-slough"
"The Old Manor","51.416569","-0.745366","Grenville Place","Bracknell","Berkshire","RG12 1BP","01344 304490","https://www.jdwetherspoon.com/pubs/all-pubs/england/berkshire/the-old-manor-bracknell"
"The Windlesora","51.480407","-0.610499","17 William Street","Windsor","Berkshire","SL4 1BB","01753 754050","https://www.jdwetherspoon.com/pubs/all-pubs/england/berkshire/the-windlesora-windsor"
"St Georges Hall","51.459274","-2.555084","203 Church Road","Bristol","Bristol","BS5 9HL","0117 955 1488","https://www.jdwetherspoon.com/pubs/all-pubs/england/bristol/st-georges-hall-bristol"
"The Berkeley","51.455866","-2.605208","15–19 Queens Road","Bristol","Bristol","BS8 1QE","0117 927 9550","https://www.jdwetherspoon.com/pubs/all-pubs/england/bristol/the-berkeley-bristol"
"The Commercial Rooms","51.454454","-2.594428","43–45 Corn Street","Bristol","Bristol","BS1 1HT","0117 927 9681","https://www.jdwetherspoon.com/pubs/all-pubs/england/bristol/the-commercial-rooms-bristol"
"The Jolly Sailor","51.449194","-2.517164","High Street","Bristol","Bristol","BS15 3DQ","0117 947 4010","https://www.jdwetherspoon.com/pubs/all-pubs/england/bristol/the-jolly-sailor-bristol"
"The Kingswood Colliers","51.462386","-2.506893","94–96 Regent Street","Bristol","Bristol","BS15 8HP","0117 967 2247","https://www.jdwetherspoon.com/pubs/all-pubs/england/bristol/the-kingswood-colliers-bristol"
"The Knights Templar","51.450828","-2.582064","1 The Square","Bristol","Bristol","BS1 6DG","0117 930 8710","https://www.jdwetherspoon.com/pubs/all-pubs/england/bristol/the-knights-templar-bristol"
"The Robert Fitzharding","51.441129","-2.600943","24 Cannon Street","Bristol","Bristol","BS3 1BN","0117 966 2757","https://www.jdwetherspoon.com/pubs/all-pubs/england/bristol/the-robert-fitzharding-bristol"
"The Staple Hill Oak","51.481194","-2.510118","84–86 High Street","Bristol","Bristol","BS16 5HN","0117 956 8543","https://www.jdwetherspoon.com/pubs/all-pubs/england/bristol/the-staple-hill-oak-bristol"
"The Van Dyck Forum","51.479661","-2.530289","748–756 Fishponds Road","Bristol","Bristol","BS16 3UA","0117 965 1337","https://www.jdwetherspoon.com/pubs/all-pubs/england/bristol/the-van-dyck-forum-bristol"
"The W. G. Grace","51.462859","-2.608749","71–73 Whiteladies Road","Bristol","Bristol","BS8 2NT","0117 946 9780","https://www.jdwetherspoon.com/pubs/all-pubs/england/bristol/the-w-g-grace-bristol"
"V-Shed","51.449838","-2.598749","The Waterfront","Bristol","Bristol","BS1 5UH","0117 952 9950","https://www.jdwetherspoon.com/pubs/all-pubs/england/bristol/vshed-bristol"
"Captain Ridley’s Shooting Party","51.9955595","-0.7286014","183-185 Queensway","Milton Keynes","Buckinghamshire","MK2 2ED","01908 621020","https://www.jdwetherspoon.com/pubs/all-pubs/england/buckinghamshire/captain-ridleys-shooting-party-milton-keynes"
"The Bell","51.815485","-0.812398","40 Market Square","Aylesbury","Buckinghamshire","HP20 1TX","01296 388080","https://www.jdwetherspoon.com/pubs/all-pubs/england/buckinghamshire/the-bell-aylesbury"
"The Falcon","51.629327","-0.751336","9 Cornmarket","High Wycombe","Buckinghamshire","HP11 2AX","01494 538610","https://www.jdwetherspoon.com/pubs/all-pubs/england/buckinghamshire/the-falcon-high-wycombe"
"The Hope & Champion","51.587677","-0.627520","Unit 1A, Beaconsfield Services, (Junction 2, M40)","Beaconsfield","Buckinghamshire","HP9 2SE","01494 685530","https://www.jdwetherspoon.com/pubs/all-pubs/england/buckinghamshire/the-hope--champion-beaconsfield"
"The Moon Under Water","52.041924","-0.748931","Xscape","Milton Keynes","Buckinghamshire","MK9 3NN","01908 528854","https://www.jdwetherspoon.com/pubs/all-pubs/england/buckinghamshire/the-moon-under-water-milton-keynes"
"The White Hart","51.815398","-0.809839","Unit 4, Exchange Street","Aylesbury","Buckinghamshire","HP20 1UR","01296 468440","https://www.jdwetherspoon.com/pubs/all-pubs/england/buckinghamshire/the-white-hart-aylesbury"
"Wetherspoons","52.037551","-0.767558","201 Midsummer Boulevard","Milton Keynes","Buckinghamshire","MK9 1EA","01908 606074","https://www.jdwetherspoon.com/pubs/all-pubs/england/buckinghamshire/wetherspoons-milton-keynes"
"Sandford House","52.3303101","-0.1870992","George Street","Huntingdon","Cambridgeshire","PE29 3AD","01480 432402","https://www.jdwetherspoon.com/pubs/all-pubs/england/cambridgeshire/sandford-house-huntingdon"
"The College Arms","52.575379","-0.241674","40 The Broadway","Peterborough","Cambridgeshire","PE1 1RS","01733 319745","https://www.jdwetherspoon.com/pubs/all-pubs/england/cambridgeshire/the-college-arms-peterborough"
"The Draper’s Arms","52.572972","-0.246505","29–31 Cowgate","Peterborough","Cambridgeshire","PE1 1LZ","01733 847570","https://www.jdwetherspoon.com/pubs/all-pubs/england/cambridgeshire/the-drapers-arms-peterborough"
"The George Hotel","52.556164","-0.127433","10 Market Place","Whittlesey","Cambridgeshire","PE7 1AB","01733 359970","https://www.jdwetherspoon.com/pubs/all-pubs/england/cambridgeshire/the-george-hotel-whittlesey"
"The Hippodrome","52.551500","0.0873320","Dartford Road","March","Cambridgeshire","PE15 8AQ","01354 602980","https://www.jdwetherspoon.com/pubs/all-pubs/england/cambridgeshire/the-hippodrome-march"
"The Regal","52.202936","0.1238720","38–39 St Andrews Street","Cambridge","Cambridgeshire","CB2 3AR","01223 366459","https://www.jdwetherspoon.com/pubs/all-pubs/england/cambridgeshire/the-regal-cambridge"
"The Swan & Angel","52.3231876","-0.0728005","The Swan & Angel","St Ives","Cambridgeshire","PE27 5AL","01480 499060","https://www.jdwetherspoon.com/pubs/all-pubs/england/cambridgeshire/the-swan-and-angel-st-ives"
"The Weeping Ash","52.228730","-0.269142","15 New Street","St Neots","Cambridgeshire","PE19 1AE","01480 408330","https://www.jdwetherspoon.com/pubs/all-pubs/england/cambridgeshire/the-weeping-ash-st-neots"
"The Wheatsheaf Inn","52.663234","0.1629650","18–22 Church Terrace","Wisbech","Cambridgeshire","PE13 1BL","01945 469890","https://www.jdwetherspoon.com/pubs/all-pubs/england/cambridgeshire/the-wheatsheaf-inn-wisbech"
"The George Inn","53.143343","-2.362178","39 High Street","Sandbach","Cheshire East","CW11 1AL","01270 758180","https://www.jdwetherspoon.com/pubs/all-pubs/england/cheshire-east/the-george-inn-sandbach"
"The Bull and Stirrup Hotel","53.1943124","-2.8931679","The Bull and Stirrup Hotel","Chester","Cheshire","CH1 4EE","01244 394840","https://www.jdwetherspoon.com/pubs/all-pubs/england/cheshire/the-bull-and-stirrup-hotel"
"The Calverts Court","53.410333","-2.157645","13 St Petersgate","Stockport","Cheshire","SK1 1EB","0161 474 6750","https://www.jdwetherspoon.com/pubs/all-pubs/england/cheshire/the-calverts-court-stockport"
"The Counting House","53.163783","-2.214671","18 Swan Bank","Congleton","Cheshire","CW12 1AH","01260 272654","https://www.jdwetherspoon.com/pubs/all-pubs/england/cheshire/the-counting-house-congleton"
"The Ferry Boat","53.342150","-2.731586","10 Church Street","Runcorn","Cheshire","WA7 1LR","01928 583380","https://www.jdwetherspoon.com/pubs/all-pubs/england/cheshire/the-ferry-boat-runcorn"
"The Friar Penketh","53.387163","-2.593436","4 Barbauld Street","Warrington","Cheshire","WA1 1EX","01925 237320","https://www.jdwetherspoon.com/pubs/all-pubs/england/cheshire/the-friar-penketh-warrington"
"The Kingfisher","53.346484","-2.124031","London Road South","Poynton","Cheshire","SK12 1NJ","01625 870990","https://www.jdwetherspoon.com/pubs/all-pubs/england/cheshire/the-kingfisher-poynton"
"The Looking Glass","53.389879","-2.591634","41–43 Buttermarket Street","Warrington","Cheshire","WA1 2LY","01925 405030","https://www.jdwetherspoon.com/pubs/all-pubs/england/cheshire/the-looking-glass-warrington"
"The Penny Black","53.262202","-2.508536","110 Witton Street","Northwich","Cheshire","CW9 5AB","01606 42029","https://www.jdwetherspoon.com/pubs/all-pubs/england/cheshire/the-penny-black-northwich"
"The Premier","53.370400","-2.724383","93–99 Albert Road","Widnes","Cheshire","WA8 6JS","0151 422 4920","https://www.jdwetherspoon.com/pubs/all-pubs/england/cheshire/the-premier-widnes"
"The Queens Arms","53.191311","-2.530204","Dene Drive","Winsford","Cheshire","CW7 1AT","01606 595350","https://www.jdwetherspoon.com/pubs/all-pubs/england/cheshire/the-queens-arms-winsford"
"The Society Rooms","53.256458","-2.124356","Park Green","Macclesfield","Cheshire","SK11 7NA","01625 507320","https://www.jdwetherspoon.com/pubs/all-pubs/england/cheshire/the-society-rooms-macclesfield"
"The Society Rooms","53.481281","-2.057674","49–51 Grosvenor Street","Stalybridge","Cheshire","SK15 2JN","0161 338 9740","https://www.jdwetherspoon.com/pubs/all-pubs/england/cheshire/the-society-rooms-stalybridge"
"The Square Bottle","53.191467","-2.884266","78–92 Foregate Street","Chester","Cheshire","CH1 1HB","01244 312281","https://www.jdwetherspoon.com/pubs/all-pubs/england/cheshire/the-square-bottle-chester"
"The Unicorn","53.384160","-2.352027","1–7 Ashley Road","Altrincham","Cheshire","WA14 2DP","0161 926 4610","https://www.jdwetherspoon.com/pubs/all-pubs/england/cheshire/the-unicorn-altrincham"
"The Wheatsheaf","53.282852","-2.923208","43 Overpool Road","Ellesmere Port","Cheshire","CH66 3LN","0151 356 7454","https://www.jdwetherspoon.com/pubs/all-pubs/england/cheshire/the-wheatsheaf-ellesmere-port"
"The Wilfred Wood","53.379446","-2.120471","204 London Road","Stockport","Cheshire","SK7 4DF","0161 419 2440","https://www.jdwetherspoon.com/pubs/all-pubs/england/cheshire/the-wilfred-wood-stockport"
"Chapel an Gansblydhen","50.471178","-4.723384","Fore Street","Bodmin","Cornwall","PL31 2HR","01208 261730","https://www.jdwetherspoon.com/pubs/all-pubs/england/cornwall/chapel-an-gansblydhen-bodmin"
"The Coinage Hall","50.100822","-5.275214","9–11 Coinagehall Street","Helston","Cornwall","TR13 8ER","01326 565344","https://www.jdwetherspoon.com/pubs/all-pubs/england/cornwall/the-coinage-hall-helston"
"The Green Parrot","50.344363","-5.156051","St George’s Hill","Perranporth","Cornwall","TR6 0JP","01872 574990","https://www.jdwetherspoon.com/pubs/all-pubs/england/cornwall/the-green-parrot-perranporth"
"The Hain Line","50.211435","-5.480804","Tregenna Place","St Ives","Cornwall","TR26 1SD","01736 792920","https://www.jdwetherspoon.com/pubs/all-pubs/england/cornwall/the-hain-line-st-ives"
"The John Francis Basset","50.213624","-5.301041","Commercial Street","Camborne","Cornwall","TR14 8JZ","01209 721720","https://www.jdwetherspoon.com/pubs/all-pubs/england/cornwall/the-john-francis-basset-camborne"
"The King Doniert","50.453967","-4.464954","The King Doniert","Liskeard","Cornwall","PL14 6AB","01579 342 599","https://www.jdwetherspoon.com/pubs/all-pubs/england/cornwall/the-king-doniert-liskeard"
"The Packet Station","50.154786","-5.073068","4 The Moor","Falmouth","Cornwall","TR11 3QA","01326 310110","https://www.jdwetherspoon.com/pubs/all-pubs/england/cornwall/the-packet-station-falmouth"
"The Rann Wartha","50.338748","-4.793412","Biddicks Court","St Austell","Cornwall","PL25 5EW","01726 222940","https://www.jdwetherspoon.com/pubs/all-pubs/england/cornwall/the-rann-wartha-st-austell"
"The Towan Blystra","50.414392","-5.077438","12–16 Cliff Road","Newquay","Cornwall","TR7 1SG","01637 852970","https://www.jdwetherspoon.com/pubs/all-pubs/england/cornwall/the-towan-blystra-newquay"
"The Tremenheere","50.118594","-5.536728","4–8 Market Place","Penzance","Cornwall","TR18 2JA","01736 335350","https://www.jdwetherspoon.com/pubs/all-pubs/england/cornwall/the-tremenheere-penzance"
"Try Dowr","50.262189","-5.050308","Lemon Quay","Truro","Cornwall","TR1 2LW","01872 265840","https://www.jdwetherspoon.com/pubs/all-pubs/england/cornwall/try-dowr-truro"
"The Bishops’ Mill","54.777955","-1.575286","Walkergate Leisure","Durham","County Durham","DH1 1WA","0191 370 8510","https://www.jdwetherspoon.com/pubs/all-pubs/england/county-durham/the-bishops-mill-durham"
"The Company Row","54.852039","-1.830787","The Victoria Centre","Consett","County Durham","DH8 5BQ","01207 585600","https://www.jdwetherspoon.com/pubs/all-pubs/england/county-durham/the-company-row-consett"
"The Five Quarter","54.758237","-1.332725","Units 3b–3c, Hailsham Place","Peterlee","County Durham","SR8 1AB","0191 518 5880","https://www.jdwetherspoon.com/pubs/all-pubs/england/county-durham/the-five-quarter-peterlee"
"The Grand Electric Hall","54.699619","-1.600239","2 Cheapside","Spennymoor","County Durham","DL16 6DJ","01388 825470","https://www.jdwetherspoon.com/pubs/all-pubs/england/county-durham/the-grand-electric-hall-spennymoor"
"The Hat and Feathers","54.837059","-1.333609","57–59 Church Street","Seaham","County Durham","SR7 7HF","0191 513 3040","https://www.jdwetherspoon.com/pubs/all-pubs/england/county-durham/the-hat-and-feathers-seaham"
"The Horse Shoe Inn","54.715016","-1.743100","4 Church Street","Crook","County Durham","DL15 9BG","01388 744980","https://www.jdwetherspoon.com/pubs/all-pubs/england/county-durham/the-horse-shoe-inn-crook"
"The Stanley Jefferson","54.665303","-1.673088","5 Market Place","Bishop Auckland","County Durham","DL14 7NJ","01388 452830","https://www.jdwetherspoon.com/pubs/all-pubs/england/county-durham/the-stanley-jefferson-bishop-auckland"
"The Tanners Hall","54.525580","-1.557235","63–64 Skinnergate","Darlington","County Durham","DL3 7LL","01325 369939","https://www.jdwetherspoon.com/pubs/all-pubs/england/county-durham/the-tanners-hall-darlington"
"The Thomas Sheraton","54.561391","-1.312906","4 Bridge Road","Stockton-on-Tees","County Durham","TS18 1BH","01642 606134","https://www.jdwetherspoon.com/pubs/all-pubs/england/county-durham/the-thomas-sheraton-stocktonontees"
"The Ward Jackson","54.685666","-1.208621","3–9 Church Square","Hartlepool","County Durham","TS24 7EU","01429 850140","https://www.jdwetherspoon.com/pubs/all-pubs/england/county-durham/the-ward-jackson-hartlepool"
"The Water House","54.777233","-1.581100","65 North Road","Durham","County Durham","DH1 4SQ","0191 370 6540","https://www.jdwetherspoon.com/pubs/all-pubs/england/county-durham/the-water-house-durham"
"The Wicket Gate","54.852139","-1.573391","193 Front Street","Chester-le-Street","County Durham","DH3 3AX","0191 387 2960","https://www.jdwetherspoon.com/pubs/all-pubs/england/county-durham/the-wicket-gate-chesterlestreet"
"The William Stead","54.525575","-1.552607","8 Crown Street","Darlington","County Durham","DL1 1LU","01325 341440","https://www.jdwetherspoon.com/pubs/all-pubs/england/county-durham/the-william-stead-darlington"
"The Bransty Arch","54.550938","-3.587175","Bransty Row","Whitehaven","Cumbria","CA28 7XE","01946 517640","https://www.jdwetherspoon.com/pubs/all-pubs/england/cumbria/the-bransty-arch-whitehaven"
"The Chief Justice of the Common Pleas","54.601910","-3.137898","2 Bank Street","Keswick","Cumbria","CA12 5JY","01768 773561","https://www.jdwetherspoon.com/pubs/all-pubs/england/cumbria/the-chief-justice-of-the-common-pleas-keswick"
"The Dog Beck","54.661841","-2.750304","21–22 Southend Road","Penrith","Cumbria","CA11 8JH","01768 840491","https://www.jdwetherspoon.com/pubs/all-pubs/england/cumbria/the-dog-beck-penrith"
"The Furness Railway","54.115776","-3.227954","76–80 Abbey Road","Barrow-in-Furness","Cumbria","LA14 5UB","01229 820818","https://www.jdwetherspoon.com/pubs/all-pubs/england/cumbria/the-furness-railway-barrowinfurness"
"The Henry Bessemer","54.643076","-3.548045","New Oxford Street","Workington","Cumbria","CA14 2NA","01900 734650","https://www.jdwetherspoon.com/pubs/all-pubs/england/cumbria/the-henry-bessemer-workington"
"The Miles Thompson","54.326752","-2.748549","Council Offices, Allhallows Lane","Kendal","Cumbria","LA9 4JH","01539 815710","https://www.jdwetherspoon.com/pubs/all-pubs/england/cumbria/the-miles-thompson-kendal"
"The William Rufus","54.891320","-2.931917","10–16 Botchergate","Carlisle","Cumbria","CA1 1QS","01228 633160","https://www.jdwetherspoon.com/pubs/all-pubs/england/cumbria/the-william-rufus-carlisle"
"Woodrow Wilson","54.890756","-2.930705","48 Botchergate","Carlisle","Cumbria","CA1 1QS","01228 819942","https://www.jdwetherspoon.com/pubs/all-pubs/england/cumbria/woodrow-wilson-carlisle"
"Spa Lane Vaults","53.235225","-1.424153","34 St Mary’s Gate","Chesterfield","Derbyshire","S41 7TH","01246 246300","https://www.jdwetherspoon.com/pubs/all-pubs/england/derbyshire/spa-lane-vaults-chesterfield"
"The Babington Arms","52.919155","-1.476332","11–13 Babington Lane","Derby","Derbyshire","DE1 1TA","01332 383647","https://www.jdwetherspoon.com/pubs/all-pubs/england/derbyshire/the-babington-arms-derby"
"The Crown","53.138854","-1.556066","Crown Square","Matlock","Derbyshire","DE4 3AT","01629 56458","https://www.jdwetherspoon.com/pubs/all-pubs/england/derbyshire/the-crown-matlock"
"The Observatory","52.971521","-1.308167","14a Market Place","Ilkeston","Derbyshire","DE7 5QA","0115 932 8040","https://www.jdwetherspoon.com/pubs/all-pubs/england/derbyshire/the-observatory-ilkeston"
"The Pillar of Rock","53.229884","-1.293819","15 Castle Street","Chesterfield","Derbyshire","S44 6PP","01246 820940","https://www.jdwetherspoon.com/pubs/all-pubs/england/derbyshire/the-pillar-of-rock-chesterfield"
"The Portland Hotel","53.235196","-1.431165","West Bars","Chesterfield","Derbyshire","S40 1AY","01246 245410","https://www.jdwetherspoon.com/pubs/all-pubs/england/derbyshire/the-portland-hotel-chesterfield"
"The Red Lion","53.050784","-1.407357","Market Place","Ripley","Derbyshire","DE5 3BS","01773 512875","https://www.jdwetherspoon.com/pubs/all-pubs/england/derbyshire/the-red-lion-ripley"
"The Sir Nigel Gresley","52.774308","-1.557805","Market Street","Swadlincote","Derbyshire","DE11 0AD","01283 227560","https://www.jdwetherspoon.com/pubs/all-pubs/england/derbyshire/the-sir-nigel-gresley-swadlincote"
"The Smithy Fold","53.442653","-1.948946","Unit 11, Howard Town Shopping Park","Glossop","Derbyshire","SK13 8HS","01457 890070","https://www.jdwetherspoon.com/pubs/all-pubs/england/derbyshire/the-smithy-fold-glossop"
"The Standing Order","52.924163","-1.478165","28–32 Iron Gate","Derby","Derbyshire","DE1 3GL","01332 207591","https://www.jdwetherspoon.com/pubs/all-pubs/england/derbyshire/the-standing-order-derby"
"The Thomas Leaper","52.924163","-1.478165","27 Iron Gate","Derby","Derbyshire","DE1 3GL","01332 867850","https://www.jdwetherspoon.com/pubs/all-pubs/england/derbyshire/the-thomas-leaper-derby"
"The Wye Bridge House","53.259412","-1.905302","Fairfield Road","Buxton","Derbyshire","SK17 7DJ","01298 70932","https://www.jdwetherspoon.com/pubs/all-pubs/england/derbyshire/the-wye-bridge-house-buxton"
"Waggon and Horses","53.097116","-1.390282","9 King Street","Alfreton","Derbyshire","DE55 7AF","01773 545890","https://www.jdwetherspoon.com/pubs/all-pubs/england/derbyshire/waggon-and-horses-alfreton"
"George’s Meeting House","50.720565","-3.530044","38 South Street","Exeter","Devon","EX1 1ED","01392 454250","https://www.jdwetherspoon.com/pubs/all-pubs/england/devon/georges-meeting-house-exeter"
"The Admiral Collingwood","51.210195","-4.119226","Wilder Road","Ilfracombe","Devon","EX34 9AP","01271 862373","https://www.jdwetherspoon.com/pubs/all-pubs/england/devon/the-admiral-collingwood-ilfracombe"
"The Britannia Inn","50.385633","-4.157300","1 Wolseley Road","Plymouth","Devon","PL2 3AA","01752 607596","https://www.jdwetherspoon.com/pubs/all-pubs/england/devon/the-britannia-inn-plymouth"
"The Chevalier Inn","50.722202","-3.532900","81–82 Fore Street","Exeter","Devon","EX4 3HR","01392 457760","https://www.jdwetherspoon.com/pubs/all-pubs/england/devon/the-chevalier-inn-exeter"
"The General Sir Redvers Buller","50.790688","-3.660863","37 High Street","Crediton","Devon","EX17 3JP","01363 774381","https://www.jdwetherspoon.com/pubs/all-pubs/england/devon/the-general-sir-redvers-buller-crediton"
"The Gog and Magog","50.367521","-4.137516","57–59 Southside Street","Plymouth","Devon","PL1 2LA","01752 264160","https://www.jdwetherspoon.com/pubs/all-pubs/england/devon/the-gog-and-magog-plymouth"
"The Green Ginger","50.462146","-3.525525","Lower Ground Floor, Winter Garden","Torquay","Devon","TQ2 5DZ","01803 217960","https://www.jdwetherspoon.com/pubs/all-pubs/england/devon/the-green-ginger-torquay"
"The Imperial","50.730207","-3.539669","New North Road","Exeter","Devon","EX4 4AH","01392 434050","https://www.jdwetherspoon.com/pubs/all-pubs/england/devon/the-imperial-exeter"
"The Jolie Brise","50.547066","-3.494490","9–15 Station Road","Teignmouth","Devon","TQ14 8PE","01626 778853","https://www.jdwetherspoon.com/pubs/all-pubs/england/devon/the-jolie-brise-teignmouth"
"The Mannamead","50.382396","-4.133740","61–63 Mutley Plain","Plymouth","Devon","PL4 6JH","01752 825610","https://www.jdwetherspoon.com/pubs/all-pubs/england/devon/the-mannamead-plymouth"
"The Panniers","51.080760","-4.058120","33–34 Boutport Street","Barnstaple","Devon","EX31 1RX","01271 329720","https://www.jdwetherspoon.com/pubs/all-pubs/england/devon/the-panniers-barnstaple"
"The Powder Monkey","50.620330","-3.413702","2–2a The Parade","Exmouth","Devon","EX8 1RJ","01395 280090","https://www.jdwetherspoon.com/pubs/all-pubs/england/devon/the-powder-monkey-exmouth"
"The Queen's Head Hotel","50.549681","-4.146774","79–80 West Street","Tavistock","Devon","PL19 8AQ","01822 612455","https://www.jdwetherspoon.com/pubs/all-pubs/england/devon/the-queens-head-hotel-tavistock"
"The Richard Hopkins","50.530714","-3.607806","34–42 Queen Street","Newton Abbot","Devon","TQ12 2EW","01626 323930","https://www.jdwetherspoon.com/pubs/all-pubs/england/devon/the-richard-hopkins-newton-abbot"
"The Rose Salterne","51.019901","-4.205854","9–10 Bridgeland Street","Bideford","Devon","EX39 2PZ","01237 426110","https://www.jdwetherspoon.com/pubs/all-pubs/england/devon/the-rose-salterne-bideford"
"The Sawyer’s Arms","50.715339","-3.544117","121 Cowick Street","Exeter","Devon","EX4 1JD","01392 269520","https://www.jdwetherspoon.com/pubs/all-pubs/england/devon/the-sawyers-arms-exeter"
"The Stannary Court","50.387800","-4.051731","95–99 Ridgeway","Plympton","Devon","PL7 2AA","01752 283280","https://www.jdwetherspoon.com/pubs/all-pubs/england/devon/the-stannary-court-plympton"
"The Star Inn","50.798431","-3.188086","33 New Street","Honiton","Devon","EX14 1BS","01404 541940","https://www.jdwetherspoon.com/pubs/all-pubs/england/devon/the-star-inn-honiton"
"The Talk of the Town","50.435163","-3.561503","46–52 Torbay Road","Paignton","Devon","TQ4 6AL","01803 668070","https://www.jdwetherspoon.com/pubs/all-pubs/england/devon/the-talk-of-the-town-paignton"
"The Union Rooms","50.369710","-4.148014","19 Union Street","Plymouth","Devon","PL1 2SU","01752 254520","https://www.jdwetherspoon.com/pubs/all-pubs/england/devon/the-union-rooms-plymouth"
"The Vigilance","50.393704","-3.515982","5 Bolton Street","Brixham","Devon","TQ5 9DE","01803 850489","https://www.jdwetherspoon.com/pubs/all-pubs/england/devon/the-vigilance-brixham"
"The Water Gate","51.078846","-4.060280","7 The Strand","Barnstaple","Devon","EX31 1EU","01271 335410","https://www.jdwetherspoon.com/pubs/all-pubs/england/devon/the-water-gate-barnstaple"
"The White Ball Inn","50.902939","-3.490818","8 Bridge Street","Tiverton","Devon","EX16 5LY","01884 251525","https://www.jdwetherspoon.com/pubs/all-pubs/england/devon/the-white-ball-inn-tiverton"
"The White Hart Hotel","50.739146","-4.0031674","The White Hart Hotel","Okehampton","Devon","EX20 1HD","01837 658533","https://www.jdwetherspoon.com/pubs/all-pubs/england/devon/the-white-hart-hotel-okehampton"
"The Blackwater Stream","50.759362","-1.993428","180 Lower Blandford Road","Poole","Dorset","BH18 8DP","01202 642580","https://www.jdwetherspoon.com/pubs/all-pubs/england/dorset/the-blackwater-stream-poole"
"The Christopher Creeke","50.722382","-1.865798","2 Holdenhurst Road","Bournemouth","Dorset","BH8 8AD","01202 200950","https://www.jdwetherspoon.com/pubs/all-pubs/england/dorset/the-christopher-creeke-bournemouth"
"The Greyhound","50.733496","-2.757899","2 East Street","Bridport","Dorset","DT6 3LF","01308 421905","https://www.jdwetherspoon.com/pubs/all-pubs/england/dorset/the-greyhound-bridport"
"The Lord Wimborne","50.716528","-1.982635","59 Lagland Street","Poole","Dorset","BH15 1QD","01202 493290","https://www.jdwetherspoon.com/pubs/all-pubs/england/dorset/the-lord-wimborne-poole"
"The Man in the Wall","50.800828","-1.988347","10 West Borough","Wimborne","Dorset","BH21 1NF","01202 639800","https://www.jdwetherspoon.com/pubs/all-pubs/england/dorset/the-man-in-the-wall-wimborne"
"The Mary Shelley","50.720638","-1.876100","The Quadrant Centre","Bournemouth","Dorset","BH1 2AD","01202 786510","https://www.jdwetherspoon.com/pubs/all-pubs/england/dorset/the-mary-shelley-bournemouth"
"The Moon in the Square","50.718063","-1.880494","4–8 Exeter Road","Bournemouth","Dorset","BH2 5AQ","01202 652090","https://www.jdwetherspoon.com/pubs/all-pubs/england/dorset/the-moon-in-the-square-bournemouth"
"The Nightjar","50.803373","-1.890665","94 Victoria Road","Ferndown","Dorset","BH22 9JA","01202 855572","https://www.jdwetherspoon.com/pubs/all-pubs/england/dorset/the-nightjar-ferndown"
"The Parkstone and Heatherlands","50.743354","-1.878568","433–437 Wimborne Road","Bournemouth","Dorset","BH9 2AN","01202 853020","https://www.jdwetherspoon.com/pubs/all-pubs/england/dorset/the-parkstone-and-heatherlands-bournemouth"
"The Quay","50.712209","-1.986530","21 The Quay","Poole","Dorset","BH15 1HJ","01202 664380","https://www.jdwetherspoon.com/pubs/all-pubs/england/dorset/the-quay-poole"
"The Royal Oak","50.715187","-2.439143","21–22 High West Street","Dorchester","Dorset","DT1 1UW","01305 755910","https://www.jdwetherspoon.com/pubs/all-pubs/england/dorset/the-royal-oak-dorchester"
"The Swan","50.608135","-2.455106","41–43 St Thomas Street","Weymouth","Dorset","DT4 8EH","01305 750231","https://www.jdwetherspoon.com/pubs/all-pubs/england/dorset/the-swan-weymouth"
"The William Henry","50.611574","-2.454260","1 Frederick Place","Weymouth","Dorset","DT4 8HQ","01305 763730","https://www.jdwetherspoon.com/pubs/all-pubs/england/dorset/the-william-henry-weymouth"
"The Cross Keys","53.843038","-0.433359","6–8 Lairgate","Beverley","East Riding of Yorkshire","HU17 8EE","01482 880388","https://www.jdwetherspoon.com/pubs/all-pubs/england/east-riding-of-yorkshire/the-cross-keys-beverley"
"Cornfield Garage","50.767602","0.2845550","21–23 Cornfield Road","Eastbourne","East Sussex","BN21 4QD","01323 419670","https://www.jdwetherspoon.com/pubs/all-pubs/england/east-sussex/cornfield-garage-eastbourne"
"The Bright Helm","50.822812","-0.144418","20–22a West Street","Brighton","East Sussex","BN1 2RE","01273 224690","https://www.jdwetherspoon.com/pubs/all-pubs/england/east-sussex/the-bright-helm-brighton"
"The Cliftonville Inn","50.828586","-0.174065","98–101 George Street","Hove","East Sussex","BN3 3YE","01273 726969","https://www.jdwetherspoon.com/pubs/all-pubs/england/east-sussex/the-cliftonville-inn-hove"
"The Crowborough Cross","51.060505","0.1616070","Beacon Road","Crowborough","East Sussex","TN6 1AF","01892 662555","https://www.jdwetherspoon.com/pubs/all-pubs/england/east-sussex/the-crowborough-cross-crowborough"
"The George Hotel","50.862122","0.2595960","3 George Street","Hailsham","East Sussex","BN27 1AD","01323 445120","https://www.jdwetherspoon.com/pubs/all-pubs/england/east-sussex/the-george-hotel-hailsham"
"The John Logie Baird","50.855856","0.5796260","29–31 Havelock Road","Hastings","East Sussex","TN34 1BE","01424 448110","https://www.jdwetherspoon.com/pubs/all-pubs/england/east-sussex/the-john-logie-baird-hastings"
"The London & County","50.768832","0.2815490","46 Terminus Road","Eastbourne","East Sussex","BN21 3LX","01323 746310","https://www.jdwetherspoon.com/pubs/all-pubs/england/east-sussex/the-london--county-eastbourne"
"The Picture Playhouse","50.8402323","0.4709064","The Picture Playhouse","Bexhill-on-Sea","East Sussex","TN40 1DY","01424 819500","https://www.jdwetherspoon.com/pubs/all-pubs/england/east-sussex/the-picture-playhouse-bexhill-on-sea"
"The Post & Telegraph","50.822988","-0.140446","155–158 North Street","Brighton","East Sussex","BN1 1EA","01273 827540","https://www.jdwetherspoon.com/pubs/all-pubs/england/east-sussex/the-post--telegraph-brighton"
"The West Quay","50.812150","-0.105217","Brighton Marina Village","Brighton","East Sussex","BN2 5UT","01273 645780","https://www.jdwetherspoon.com/pubs/all-pubs/england/east-sussex/the-west-quay-brighton"
"City and County","53.703530","-0.871177","Market Square","Goole","East Yorkshire","DN14 5DR","01405 722600","https://www.jdwetherspoon.com/pubs/all-pubs/england/east-yorkshire/city-and-county-goole"
"The Admiral of the Humber","53.743197","-0.343746","1 Anlaby Road","Kingston Upon Hull","East Yorkshire","HU1 2NT","01482 381850","https://www.jdwetherspoon.com/pubs/all-pubs/england/east-yorkshire/the-admiral-of-the-humber-kingston-upon-hull"
"The Benjamin Fawcett","54.006331","-0.440338","Middle Street North","Driffield","East Yorkshire","YO25 6SW","01377 249130","https://www.jdwetherspoon.com/pubs/all-pubs/england/east-yorkshire/the-benjamin-fawcett-driffield"
"The Prior John","54.083651","-0.187999","34–36 Promenade","Bridlington","East Yorkshire","YO15 2QD","01262 674256","https://www.jdwetherspoon.com/pubs/all-pubs/england/east-yorkshire/the-prior-john-bridlington"
"The Three John Scotts","53.743981","-0.332747","City Exchange, Alfred Gelder Street","Kingston Upon Hull","East Yorkshire","HU1 1AA","01482 381910","https://www.jdwetherspoon.com/pubs/all-pubs/england/east-yorkshire/the-three-john-scotts-kingston-upon-hull"
"J.J. Moon’s","51.562883","0.2161790","Unit 3, 46–62 High Street","Hornchurch","Essex","RM12 4UN","01708 478410","https://www.jdwetherspoon.com/pubs/all-pubs/england/essex/jj-moons-hornchurch"
"Moon and Starfish","51.787608","1.1542170","1 Marine Parade East","Clacton-on-Sea","Essex","CO15 1PU","01255 222998","https://www.jdwetherspoon.com/pubs/all-pubs/england/essex/moon-and-starfish-clactononsea"
"Rose & Crown","51.731543","0.6777010","109 High Street","Maldon","Essex","CM9 5EP","01621 852255","https://www.jdwetherspoon.com/pubs/all-pubs/england/essex/rose--crown-maldon"
"The Barking Dog","51.539721","0.0813250","61 Station Parade","Barking","Essex","IG11 8TU","020 8507 9109","https://www.jdwetherspoon.com/pubs/all-pubs/england/essex/the-barking-dog-barking"
"The Battesford Court","51.798234","0.6378710","100–102 Newland Street","Witham","Essex","CM8 1AH","01376 504080","https://www.jdwetherspoon.com/pubs/all-pubs/england/essex/the-battesford-court-witham"
"The Blue Boar","51.626914","0.4185190","39 High Street","Billericay","Essex","CM12 9BA","01277 655552","https://www.jdwetherspoon.com/pubs/all-pubs/england/essex/the-blue-boar-billericay"
"The Bottle Kiln","51.9366895","1.2809545","60 Kingsway","Harwich","Essex","CO12 3JR","01255 245400","https://www.jdwetherspoon.com/pubs/all-pubs/england/essex/the-bottle-kiln-harwich"
"The Colley Rowe Inn","51.598880","0.1608980","54–56 Collier Row Road","Collier Row","Essex","RM5 3PA","01708 760633","https://www.jdwetherspoon.com/pubs/all-pubs/england/essex/the-colley-rowe-inn-collier-row"
"The Dairyman","51.620812","0.3044920","16–18 High Street","Brentwood","Essex","CM14 4AB","01277 227788","https://www.jdwetherspoon.com/pubs/all-pubs/england/essex/the-dairyman-brentwood"
"The Elms","51.547698","0.6564600","1060 London Road","Leigh-on-Sea","Essex","SS9 3ND","01702 474687","https://www.jdwetherspoon.com/pubs/all-pubs/england/essex/the-elms-leighonsea"
"The Eva Hart","51.570419","0.1302700","1128 High Road","Chadwell Heath","Essex","RM6 4AH","020 8597 1069","https://www.jdwetherspoon.com/pubs/all-pubs/england/essex/the-eva-hart-chadwell-heath"
"The Great Spoon of Ilford","51.561882","0.0688300","114–116 Cranbrook Road","Ilford","Essex","IG1 4LZ","020 8518 0535","https://www.jdwetherspoon.com/pubs/all-pubs/england/essex/the-great-spoon-of-ilford-ilford"
"The Ivory Peg","51.732532","0.4733020","3–7 New London Road","Chelmsford","Essex","CM2 0SW","01245 253130","https://www.jdwetherspoon.com/pubs/all-pubs/england/essex/the-ivory-peg-chelmsford"
"The Last Post","51.647324","0.0553210","227 High Road","Loughton","Essex","IG10 1BB","020 8532 0751","https://www.jdwetherspoon.com/pubs/all-pubs/england/essex/the-last-post-loughton"
"The Moon on the Square","51.569346","0.4562590","1–15 Market Square","Basildon","Essex","SS14 1DF","01268 520360","https://www.jdwetherspoon.com/pubs/all-pubs/england/essex/the-moon-on-the-square-basildon"
"The New Fairlop Oak","51.594121","0.0851380","Fencepiece Road","Fairlop","Essex","IG6 2JP","020 8500 2217","https://www.jdwetherspoon.com/pubs/all-pubs/england/essex/the-new-fairlop-oak-fairlop"
"The Picture Palace","51.877172","0.5535620","Fairfield Road","Braintree","Essex","CM7 3HA","01376 550255","https://www.jdwetherspoon.com/pubs/all-pubs/england/essex/the-picture-palace-braintree"
"The Playhouse","51.887618","0.8969160","4 St Johns Street","Colchester","Essex","CO2 7AA","01206 571003","https://www.jdwetherspoon.com/pubs/all-pubs/england/essex/the-playhouse-colchester"
"The Roebuck","51.584894","0.6035150","138 High Street","Rayleigh","Essex","SS6 7BU","01268 748430","https://www.jdwetherspoon.com/pubs/all-pubs/england/essex/the-roebuck-rayleigh"
"The Temeraire","52.022184","0.2391060","55 High Street","Saffron Walden","Essex","CB10 1AA","01799 516975","https://www.jdwetherspoon.com/pubs/all-pubs/england/essex/the-temeraire-saffron-walden"
"The William Aylmer","51.771172","0.0920270","Aylmer House","Harlow","Essex","CM20 1DG","01279 620630","https://www.jdwetherspoon.com/pubs/all-pubs/england/essex/the-william-aylmer-harlow"
"The Windmill","51.890528","0.2607480","After Security, Stansted Airport","Stansted","Essex","CM24 1QN","01279 680450","https://www.jdwetherspoon.com/pubs/all-pubs/england/essex/the-windmill-after-security-stansted-airport"
"Wetherspoon Express","51.884915","0.2476640","After Security, Stansted Airport","Stansted","Essex","CM24 1QN","01279 669040","https://www.jdwetherspoon.com/pubs/all-pubs/england/essex/wetherspoon-express-after-security"
"The Bank House","51.900895","-2.075858","15–21 Clarence Street","Cheltenham","Gloucestershire","GL50 3JL","01242 240940","https://www.jdwetherspoon.com/pubs/all-pubs/england/gloucestershire/the-bank-house-cheltenham"
"The Lord High Constable of England","51.861708","-2.253147","Llanthony Warehouse, Llanthony Road, Gloucester Docks","Gloucester","Gloucestershire","GL1 2EH","01452 302890","https://www.jdwetherspoon.com/pubs/all-pubs/england/gloucestershire/the-lord-high-constable-of-england-gloucester"
"The Lord John","51.744793","-2.218125","15–17 Russell Street","Stroud","Gloucestershire","GL5 3AA","01453 767610","https://www.jdwetherspoon.com/pubs/all-pubs/england/gloucestershire/the-lord-john-stroud"
"The Moon Under Water","51.897521","-2.072483","16–28 Bath Road","Cheltenham","Gloucestershire","GL53 7HA","01242 583945","https://www.jdwetherspoon.com/pubs/all-pubs/england/gloucestershire/the-moon-under-water-cheltenham"
"The Regal","51.865810","-2.242722","33 St Aldate Street","Gloucester","Gloucestershire","GL1 1RP","01452 332344","https://www.jdwetherspoon.com/pubs/all-pubs/england/gloucestershire/the-regal-gloucester"
"The Royal Hop Pole","51.991955","-2.158586","94 Church Street","Tewkesbury","Gloucestershire","GL20 5RS","01684 278670","https://www.jdwetherspoon.com/pubs/all-pubs/england/gloucestershire/the-royal-hop-pole-tewkesbury"
"The Art Picture House","53.591450","-2.298262","36 Haymarket Street","Bury","Greater Manchester","BL9 0AY","0161 705 4040","https://www.jdwetherspoon.com/pubs/all-pubs/england/greater-manchester/the-art-picture-house-bury"
"The Bishop Blaize","53.461185","-2.289116","708 Chester Road","Stretford","Greater Manchester","M32 0SF","0161 873 8845","https://www.jdwetherspoon.com/pubs/all-pubs/england/greater-manchester/the-bishop-blaize-stretford"
"The Brocket Arms","53.556931","-2.634421","38 Mesnes Road","Wigan","Greater Manchester","WN1 2DD","01942 403500","https://www.jdwetherspoon.com/pubs/all-pubs/england/greater-manchester/the-brocket-arms-wigan"
"The Bull’s Head Hotel","53.524026","-2.399606","12 High Street","Manchester","Greater Manchester","M28 3NJ","0161 702 5350","https://www.jdwetherspoon.com/pubs/all-pubs/england/greater-manchester/the-bulls-head-hotel-manchester"
"The Gateway","53.408019","-2.220421","882 Wilmslow Road","East Didsbury","Greater Manchester","M20 5PG","0161 438 1700","https://www.jdwetherspoon.com/pubs/all-pubs/england/greater-manchester/the-gateway-east-didsbury"
"The Moon Under Water","53.545905","-2.631714","5–7a Market Place","Wigan","Greater Manchester","WN1 1PE","01942 323437","https://www.jdwetherspoon.com/pubs/all-pubs/england/greater-manchester/the-moon-under-water-wigan"
"The Robert Shaw","53.548867","-2.522385","34–40 Market Street","Westhoughton","Greater Manchester","BL5 3AN","01942 844110","https://www.jdwetherspoon.com/pubs/all-pubs/england/greater-manchester/the-robert-shaw-westhoughton"
"The Shay Wake","53.577836","-2.093059","2–10 Milnrow Road","Oldham","Greater Manchester","OL2 8EQ","01706 889120","https://www.jdwetherspoon.com/pubs/all-pubs/england/greater-manchester/the-shay-wake-oldham"
"The Spinning Mule","53.577473","-2.426830","Unit 2, Nelson Square","Bolton","Greater Manchester","BL1 1JT","01204 533339","https://www.jdwetherspoon.com/pubs/all-pubs/england/greater-manchester/the-spinning-mule-bolton"
"The Admiral Sir Lucius Curtis","50.8969765","-1.3939462","Canute’s Pavilion","Southampton","Hampshire","SO14 3JS","023 8038 8940","https://www.jdwetherspoon.com/pubs/all-pubs/england/hampshire/the-admiral-sir-lucius-curtis-southampton"
"The Angel","51.265567","-1.085469","Unit R6, Lower Ground","Basingstoke","Hampshire","RG21 7BB","01256 854800","https://www.jdwetherspoon.com/pubs/all-pubs/england/hampshire/the-angel-basingstoke"
"The Bright Water Inn","50.919801","-1.430436","370–372 Shirley Road","Shirley","Hampshire","SO15 3HY","023 8077 6717","https://www.jdwetherspoon.com/pubs/all-pubs/england/hampshire/the-bright-water-inn-shirley"
"The Crown Inn","50.852333","-1.176949","40 West Street","Fareham","Hampshire","PO16 0JW","01329 241750","https://www.jdwetherspoon.com/pubs/all-pubs/england/hampshire/the-crown-inn-fareham"
"The Denmead Queen","50.880772","-1.030626","8–9 Queens Parade","Waterlooville","Hampshire","PO7 7EB","023 9224 7430","https://www.jdwetherspoon.com/pubs/all-pubs/england/hampshire/the-denmead-queen-waterlooville"
"The First Post","50.844878","-1.067159","42 High Street","Cosham","Hampshire","PO6 3AG","023 9221 0331","https://www.jdwetherspoon.com/pubs/all-pubs/england/hampshire/the-first-post-cosham"
"The Giddy Bridge","50.911025","-1.404486","10–16 London Road","Southampton","Hampshire","SO15 2AF","023 8033 6346","https://www.jdwetherspoon.com/pubs/all-pubs/england/hampshire/the-giddy-bridge-southampton"
"The Isambard Kingdom Brunel","50.797034","-1.092599","2 Guildhall Walk","Portsmouth","Hampshire","PO1 2DD","023 9229 5112","https://www.jdwetherspoon.com/pubs/all-pubs/england/hampshire/the-isambard-kingdom-brunel-portsmouth"
"The Ivy House","51.146559","-0.978074","Draymans Way","Alton","Hampshire","GU34 1SS","01420 549011","https://www.jdwetherspoon.com/pubs/all-pubs/england/hampshire/the-ivy-house-alton"
"The John Jacques","50.798321","-1.076790","78–82 Fratton Road","Portsmouth","Hampshire","PO1 5BZ","023 9277 9742","https://www.jdwetherspoon.com/pubs/all-pubs/england/hampshire/the-john-jacques-portsmouth"
"The John Russell Fox","51.206874","-1.478963","10 High Street","Andover","Hampshire","SP10 1NY","01264 320920","https://www.jdwetherspoon.com/pubs/all-pubs/england/hampshire/the-john-russell-fox-andover"
"The Lord Arthur Lee","50.852480","-1.181306","100–108 West Street","Fareham","Hampshire","PO16 0EP","01329 280447","https://www.jdwetherspoon.com/pubs/all-pubs/england/hampshire/the-lord-arthur-lee-fareham"
"The Lord Palmerston","50.784198","-1.088961","84–90 Palmerston Road","Southsea","Hampshire","PO5 3PT","023 9272 8000","https://www.jdwetherspoon.com/pubs/all-pubs/england/hampshire/the-lord-palmerston-southsea"
"The Maidenhead Inn","51.262356","-1.087566","17 Winchester Street","Basingstoke","Hampshire","RG21 7ED","01256 316030","https://www.jdwetherspoon.com/pubs/all-pubs/england/hampshire/the-maidenhead-inn-basingstoke"
"The Old Gaolhouse","51.063820","-1.316288","11a Jewry Street","Winchester","Hampshire","SO23 8RZ","01962 850095","https://www.jdwetherspoon.com/pubs/all-pubs/england/hampshire/the-old-gaolhouse-winchester"
"The Parchment Makers","50.851920","-0.984590","1 Park Road North","Havant","Hampshire","PO9 1HE","023 9247 4023","https://www.jdwetherspoon.com/pubs/all-pubs/england/hampshire/the-parchment-makers-havant"
"The Prince Arthur","51.278858","-0.845027","238 Fleet Road","Fleet","Hampshire","GU51 4BX","01252 622660","https://www.jdwetherspoon.com/pubs/all-pubs/england/hampshire/the-prince-arthur-fleet"
"The Queen Hotel","51.249835","-0.767638","1 High Street","Aldershot","Hampshire","GU11 1BH","01252 361770","https://www.jdwetherspoon.com/pubs/all-pubs/england/hampshire/the-queen-hotel-aldershot"
"The Red Lion","51.003835","-0.934238","3 College Street","Petersfield","Hampshire","GU31 4AE","01730 235160","https://www.jdwetherspoon.com/pubs/all-pubs/england/hampshire/the-red-lion-petersfield"
"The Red Lion","50.9144265","-1.3580154","The Red Lion","Southampton","Hampshire","SO18 5EF","023 8043 9910","https://www.jdwetherspoon.com/pubs/all-pubs/england/hampshire/the-red-lion-southampton"
"The Sir Alec Rose","50.840933","-1.097682","32–33 The Boardwalk","Portsmouth","Hampshire","PO6 4TP","023 9231 4800","https://www.jdwetherspoon.com/pubs/all-pubs/england/hampshire/the-sir-alec-rose-portsmouth"
"The Sir John Baker","50.815450","-1.079544","80 London Road","Portsmouth","Hampshire","PO2 0LN","023 9262 7960","https://www.jdwetherspoon.com/pubs/all-pubs/england/hampshire/the-sir-john-baker-portsmouth"
"The Six Bells","50.757491","-1.545543","47–48 St Thomas Street","Lymington","Hampshire","SO41 9ND","01590 689990","https://www.jdwetherspoon.com/pubs/all-pubs/england/hampshire/the-six-bells-lymington"
"The Standing Order","50.900512","-1.403771","30 The High Street","Southampton","Hampshire","SO14 2DF","023 8022 2121","https://www.jdwetherspoon.com/pubs/all-pubs/england/hampshire/the-standing-order-southampton"
"The Star","50.795369","-1.121126","28–29 High Street","Gosport","Hampshire","PO12 1DF","023 9251 2130","https://www.jdwetherspoon.com/pubs/all-pubs/england/hampshire/the-star-gosport"
"The Tilly Shilling","51.293438","-0.756707","Units 2–5, The Meads, Victoria Road","Farnborough","Hampshire","GU14 7PG","01252 893560","https://www.jdwetherspoon.com/pubs/all-pubs/england/hampshire/the-tilly-shilling-farnborough"
"The Wagon Works","50.969443","-1.350602","28 Southampton Road","Eastleigh","Hampshire","SO50 9FJ","023 8062 2670","https://www.jdwetherspoon.com/pubs/all-pubs/england/hampshire/the-wagon-works-eastleigh"
"The Duke’s Head","52.227174","-2.737973","Corn Square","Leominster","Herefordshire","HR6 8LR","01568 618170","https://www.jdwetherspoon.com/pubs/all-pubs/england/herefordshire/the-dukes-head-leominster"
"The Kings Fee","52.058302","-2.710562","49–53 Commercial Road","Hereford","Herefordshire","HR1 2BJ","01432 373240","https://www.jdwetherspoon.com/pubs/all-pubs/england/herefordshire/the-kings-fee-hereford"
"The Mail Rooms","51.913820","-2.582069","Gloucester Road","Ross-on-Wye","Herefordshire","HR9 5BS","01989 760920","https://www.jdwetherspoon.com/pubs/all-pubs/england/herefordshire/the-mail-rooms-rossonwye"
"Colombia Press","51.658455","-0.400775","72–74 The Parade","Watford","Hertfordshire","WD17 1AW","01923 811540","https://www.jdwetherspoon.com/pubs/all-pubs/england/hertfordshire/colombia-press-watford"
"Harpsfield Hall","51.762955","-0.240634","13a Parkhouse Court","Hatfield","Hertfordshire","AL10 9RQ","01707 265840","https://www.jdwetherspoon.com/pubs/all-pubs/england/hertfordshire/harpsfield-hall-hatfield"
"The Admiral Byng","51.699604","-0.190230","186–192 Darkes Lane","Potters Bar","Hertfordshire","EN6 1AF","01707 645484","https://www.jdwetherspoon.com/pubs/all-pubs/england/hertfordshire/the-admiral-byng-potters-bar"
"The Angel Vaults Inn","51.946575","-0.278658","5 Sun Street","Hitchin","Hertfordshire","SG5 1AE","01462 438633","https://www.jdwetherspoon.com/pubs/all-pubs/england/hertfordshire/the-angel-vaults-inn-hitchin"
"The Crown","51.759795","-0.563154","145 High Street","Berkhamsted","Hertfordshire","HP4 3HH","01442 863993","https://www.jdwetherspoon.com/pubs/all-pubs/england/hertfordshire/the-crown-berkhamsted"
"The Full House","51.753486","-0.472611","128 Marlowes","Hemel Hempstead","Hertfordshire","HP1 1EZ","01442 265512","https://www.jdwetherspoon.com/pubs/all-pubs/england/hertfordshire/the-full-house-hemel-hempstead"
"The Hart & Spool","51.657342","-0.272238","148 Shenley Road","Borehamwood","Hertfordshire","WD6 1EQ","020 8953 1883","https://www.jdwetherspoon.com/pubs/all-pubs/england/hertfordshire/the-hart--spool-borehamwood"
"The King James","51.700886","-0.034147","2–3 Lynton Parade","Cheshunt","Hertfordshire","EN8 8LF","01992 781250","https://www.jdwetherspoon.com/pubs/all-pubs/england/hertfordshire/the-king-james-cheshunt"
"The Manor House","52.048273","-0.023027","14 Melbourn Street","Royston","Hertfordshire","SG8 7BZ","01763 250160","https://www.jdwetherspoon.com/pubs/all-pubs/england/hertfordshire/the-manor-house-royston"
"The Moon and Cross","51.684945","-0.032768","104–106 High Street","Waltham Cross","Hertfordshire","EN8 7BX","01992 700761","https://www.jdwetherspoon.com/pubs/all-pubs/england/hertfordshire/the-moon-and-cross-waltham-cross"
"The Moon Under Water","51.656475","-0.397830","44 High Street","Watford","Hertfordshire","WD17 2BS","01923 223559","https://www.jdwetherspoon.com/pubs/all-pubs/england/hertfordshire/the-moon-under-water-watford"
"The Pennsylvanian","51.638871","-0.469790","115–117 High Street","Rickmansworth","Hertfordshire","WD3 1AN","01923 720348","https://www.jdwetherspoon.com/pubs/all-pubs/england/hertfordshire/the-pennsylvanian-rickmansworth"
"The Port Jackson","51.869167","0.1621040","Ground Floor Units D1/D2, Block D, Riverside Wharf, Riverside","Bishop’s Stortford","Hertfordshire","CM23 3GN","01279 714460","https://www.jdwetherspoon.com/pubs/all-pubs/england/hertfordshire/the-port-jackson-bishops-stortford"
"The Six Templars","51.796030","-0.079142","1 The Wash","Hertford","Hertfordshire","SG14 1PS","01992 517430","https://www.jdwetherspoon.com/pubs/all-pubs/england/hertfordshire/the-six-templars-hertford"
"The Standard Bearer","51.901175","-0.202702","1 The Plaza","Stevenage","Hertfordshire","SG1 1PF","01438 731450","https://www.jdwetherspoon.com/pubs/all-pubs/england/hertfordshire/the-standard-bearer-stevenage"
"The Standing Order","51.912074","-0.208075","33 High Street","Stevenage","Hertfordshire","SG1 3AU","01438 316972","https://www.jdwetherspoon.com/pubs/all-pubs/england/hertfordshire/the-standing-order-stevenage"
"The Star","51.761613","-0.011790","105 High Street","Hoddesdon","Hertfordshire","EN11 8TN","01992 448477","https://www.jdwetherspoon.com/pubs/all-pubs/england/hertfordshire/the-star-hoddesdon"
"The Three Magnets","51.979248","-0.226942","18–20 Leys Avenue","Letchworth","Hertfordshire","SG6 3EW","01462 681093","https://www.jdwetherspoon.com/pubs/all-pubs/england/hertfordshire/the-three-magnets-letchworth"
"Waterend Barn","51.752619","-0.337335","St Peters Street","St Albans","Hertfordshire","AL1 3LE","01727 814100","https://www.jdwetherspoon.com/pubs/all-pubs/england/hertfordshire/waterend-barn-st-albans"
"S. Fowler & Co.","50.730365","-1.162669","41–43 Union Street","Ryde","Isle of Wight","PO33 2LF","01983 812112","https://www.jdwetherspoon.com/pubs/all-pubs/england/isle-of-wight/s-fowler--co-ryde"
"The Man in the Moon","50.700145","-1.295876","16–17 St James Street","Newport","Isle of Wight","PO30 5HB","01983 530126","https://www.jdwetherspoon.com/pubs/all-pubs/england/isle-of-wight/the-man-in-the-moon-newport"
"Opera House","51.133718","0.2637850","88 Mount Pleasant Road","Royal Tunbridge Wells","Kent","TN1 1RT","01892 511770","https://www.jdwetherspoon.com/pubs/all-pubs/england/kent/opera-house-royal-tunbridge-wells"
"The Belle and Lion","51.440797","0.7602920","22–24 High Street","Sheerness","Kent","ME12 1NL","01795 665486","https://www.jdwetherspoon.com/pubs/all-pubs/england/kent/the-belle-and-lion-sheerness"
"The County Hotel","51.149034","0.8751480","10 High Street","Ashford","Kent","TN24 8TD","01233 646891","https://www.jdwetherspoon.com/pubs/all-pubs/england/kent/the-county-hotel-ashford"
"The Eight Bells","51.125805","1.3125920","19 Cannon Street","Dover","Kent","CT16 1BZ","01304 205030","https://www.jdwetherspoon.com/pubs/all-pubs/england/kent/the-eight-bells-dover"
"The Flying Boat","51.444745","0.2147930","36–42 Spital Street","Dartford","Kent","DA1 2DT","01322 421970","https://www.jdwetherspoon.com/pubs/all-pubs/england/kent/the-flying-boat-dartford"
"The Golden Hope","51.340422","0.7321640","1 Park Road","Sittingbourne","Kent","ME10 1DR","01795 476791","https://www.jdwetherspoon.com/pubs/all-pubs/england/kent/the-golden-hope-sittingbourne"
"The Golden Lion","51.386571","0.5067900","147–151 High Street","Rochester","Kent","ME1 1EL","01634 880521","https://www.jdwetherspoon.com/pubs/all-pubs/england/kent/the-golden-lion-rochester"
"The Humphrey Bean","51.195131","0.2745080","94 High Street","Tonbridge","Kent","TN9 1AP","01732 773850","https://www.jdwetherspoon.com/pubs/all-pubs/england/kent/the-humphrey-bean-tonbridge"
"The Leading Light","51.313756","0.8910830","20–22 Preston Street","Faversham","Kent","ME13 8NZ","01795 535075","https://www.jdwetherspoon.com/pubs/all-pubs/england/kent/the-leading-light-faversham"
"The Mechanical Elephant","51.386708","1.3778250","28–30 Marine Terrace","Margate","Kent","CT9 1XJ","01843 234100","https://www.jdwetherspoon.com/pubs/all-pubs/england/kent/the-mechanical-elephant-margate"
"The Muggleton Inn","51.273694","0.5222650","8–9 High Street","Maidstone","Kent","ME14 1HJ","01622 691527","https://www.jdwetherspoon.com/pubs/all-pubs/england/kent/the-muggleton-inn-maidstone"
"The Peter Cushing","51.356540","1.0242310","16–18 Oxford Street","Whitstable","Kent","CT5 1DD","01227 284100","https://www.jdwetherspoon.com/pubs/all-pubs/england/kent/the-peter-cushing-whitstable"
"The Railway","51.3657119","0.6117512","113 Station Road","Rainham","Kent","ME8 7SF","01634 365396","https://www.jdwetherspoon.com/pubs/all-pubs/england/kent/the-railway-rainham"
"The Robert Pocock","51.442330","0.3692270","181–183 Windmill Street","Gravesend","Kent","DA12 1AH","01474 352765","https://www.jdwetherspoon.com/pubs/all-pubs/england/kent/the-robert-pocock-gravesend"
"Royal Victoria Pavilion","51.3320363","1.423482","Royal Victoria Pavilion","Ramsgate","Kent","CT11 8LS","01843 854420","https://www.jdwetherspoon.com/pubs/all-pubs/england/kent/the-royal-victoria-pavilion-ramsgate"
"The Samuel Peto","51.080596","1.1814200","23 Rendezvous Street","Folkestone","Kent","CT20 1EY","01303 251154","https://www.jdwetherspoon.com/pubs/all-pubs/england/kent/the-samuel-peto-folkestone"
"The Saxon Shore","51.372729","1.1259890","78–80 Central Parade","Herne Bay","Kent","CT6 5JQ","01227 370316","https://www.jdwetherspoon.com/pubs/all-pubs/england/kent/the-saxon-shore-herne-bay"
"The Sennockian","51.272538","0.1925590","139–141 High Street","Sevenoaks","Kent","TN13 1UX","01732 469010","https://www.jdwetherspoon.com/pubs/all-pubs/england/kent/the-sennockian-sevenoaks"
"The Sir Norman Wisdom","51.223092","1.4017470","18–20 Queens Street","Deal","Kent","CT14 6ET","01304 382930","https://www.jdwetherspoon.com/pubs/all-pubs/england/kent/the-sir-norman-wisdom-deal"
"The Society Rooms","51.277600","0.5218070","Brenchley House","Maidstone","Kent","ME14 1RF","01622 350910","https://www.jdwetherspoon.com/pubs/all-pubs/england/kent/the-society-rooms-maidstone"
"The Thomas Ingoldsby","51.278429","1.0835040","5–9 Burgate","Canterbury","Kent","CT1 2HG","01227 463339","https://www.jdwetherspoon.com/pubs/all-pubs/england/kent/the-thomas-ingoldsby-canterbury"
"The Thomas Waghorn","51.382159","0.522704","14 Railway Street","Chatham","Kent","ME4 4JL","01634 405422","https://www.jdwetherspoon.com/pubs/all-pubs/england/kent/the-thomas-waghorn-chatham"
"The West Gate Inn","51.281969","1.0756650","1–3 North Lane","Canterbury","Kent","CT2 7EB","01227 464329","https://www.jdwetherspoon.com/pubs/all-pubs/england/kent/the-west-gate-inn-canterbury"
"The Albert and The Lion","53.816919","-3.055058","Bank Hey Street","Blackpool","Lancashire","FY1 4RU","01253 743690","https://www.jdwetherspoon.com/pubs/all-pubs/england/lancashire/the-albert-and-the-lion-blackpool"
"The Ash Tree","53.489888","-2.092356","9–11 Wellington Road","Ashton-under-Lyne","Lancashire","OL6 6DA","0161 339 9670","https://www.jdwetherspoon.com/pubs/all-pubs/england/lancashire/the-ash-tree-ashtonunderlyne"
"The Boot Inn","53.788985","-2.240758","18 St James’ Street","Burnley","Lancashire","BB11 1NG","01282 463720","https://www.jdwetherspoon.com/pubs/all-pubs/england/lancashire/the-boot-inn-burnley"
"The Commercial Hotel","53.752709","-2.363892","1 Church Street","Accrington","Lancashire","BB5 2EN","01254 300140","https://www.jdwetherspoon.com/pubs/all-pubs/england/lancashire/the-commercial-hotel-accrington"
"The Court Leet","53.568405","-2.885233","4 Wheatsheaf Walk","Ormskirk","Lancashire","L39 2XA","01695 579803","https://www.jdwetherspoon.com/pubs/all-pubs/england/lancashire/the-court-leet-ormskirk"
"The Eric Bartholomew","54.072496","-2.866207","10–18 Euston Road","Morecambe","Lancashire","LA4 5DD","01524 405860","https://www.jdwetherspoon.com/pubs/all-pubs/england/lancashire/the-eric-bartholomew-morecambe"
"The Grey Friar","53.760301","-2.702992","144 Friargate","Preston","Lancashire","PR1 2EJ","01772 558542","https://www.jdwetherspoon.com/pubs/all-pubs/england/lancashire/the-grey-friar-preston"
"The Jolly Tars","53.876358","-3.037271","154–158 Victoria Road West","Cleveleys","Lancashire","FY5 3NE","01253 856042","https://www.jdwetherspoon.com/pubs/all-pubs/england/lancashire/the-jolly-tars-cleveleys"
"The Layton Rakes","53.818256","-3.055122","17–25 Market Street","Blackpool","Lancashire","FY1 1ET","01253 743710","https://www.jdwetherspoon.com/pubs/all-pubs/england/lancashire/the-layton-rakes-blackpool"
"The Leyland Lion","53.695493","-2.692648","60 Hough Lane","Leyland","Lancashire","PR25 2SA","01772 643990","https://www.jdwetherspoon.com/pubs/all-pubs/england/lancashire/the-leyland-lion-leyland"
"The Old Chapel","53.696006","-2.465437","Railway Road","Darwen","Lancashire","BB3 2RJ","01254 778700","https://www.jdwetherspoon.com/pubs/all-pubs/england/lancashire/the-old-chapel-darwen"
"The Postal Order","53.746712","-2.482473","15–19 Darwen Street","Blackburn","Lancashire","BB2 2BY","01254 676400","https://www.jdwetherspoon.com/pubs/all-pubs/england/lancashire/the-postal-order-blackburn"
"The Poulton Elk","53.845362","-2.992392","22 Hardhorn Road","Poulton-le-Fylde","Lancashire","FY6 7SR","01253 895265","https://www.jdwetherspoon.com/pubs/all-pubs/england/lancashire/the-poulton-elk-poultonlefylde"
"The Railway Hotel","53.738048","-2.956792","Station Road","Lytham St Annes","Lancashire","FY8 5DH","01253 797250","https://www.jdwetherspoon.com/pubs/all-pubs/england/lancashire/the-railway-hotel-lytham-st-annes"
"The Regal Moon","53.617305","-2.156811","The Butts","Rochdale","Lancashire","OL16 1HB","01706 657434","https://www.jdwetherspoon.com/pubs/all-pubs/england/lancashire/the-regal-moon-rochdale"
"The Sir Henry Tate","53.653949","-2.630574","New Market Street","Chorley","Lancashire","PR7 1DB","01257 248470","https://www.jdwetherspoon.com/pubs/all-pubs/england/lancashire/the-sir-henry-tate-chorley"
"The Sir Richard Owen","54.046889","-2.800320","4 Spring Garden Street","Lancaster","Lancashire","LA1 1RQ","01524 541500","https://www.jdwetherspoon.com/pubs/all-pubs/england/lancashire/the-sir-richard-owen-lancaster"
"The Sir Thomas Gerard","53.486816","-2.637073","2 Gerard Street","Ashton-in-Makerfield","Lancashire","WN4 9AN","01942 713519","https://www.jdwetherspoon.com/pubs/all-pubs/england/lancashire/the-sir-thomas-gerard-ashtoninmakerfield"
"The Thomas Burke","53.499335","-2.518967","20a Leigh Road","Leigh","Lancashire","WN7 1QR","01942 685640","https://www.jdwetherspoon.com/pubs/all-pubs/england/lancashire/the-thomas-burke-leigh"
"The Thomas Drummond","53.921906","-3.011607","London Street","Fleetwood","Lancashire","FY7 6JE","01253 775020","https://www.jdwetherspoon.com/pubs/all-pubs/england/lancashire/the-thomas-drummond-fleetwood"
"The Trawl Boat Inn","53.750937","-3.029976","36–38 Wood Street","Lytham St Annes","Lancashire","FY8 1QR","01253 783080","https://www.jdwetherspoon.com/pubs/all-pubs/england/lancashire/the-trawl-boat-inn-lytham-st-annes"
"The Twelve Tellers","53.758722","-2.696868","14–15 Church Street","Preston","Lancashire","PR1 3BQ","01772 550910","https://www.jdwetherspoon.com/pubs/all-pubs/england/lancashire/the-twelve-tellers-preston"
"The Velvet Coaster","53.794853","-3.056067","501–507 Promenade","Blackpool","Lancashire","FY4 1BA","01253 362180","https://www.jdwetherspoon.com/pubs/all-pubs/england/lancashire/the-velvet-coaster-blackpool"
"The Wallace Hartley","53.856709","-2.170443","35–37 Church Street","Colne","Lancashire","BB8 0EB","01282 857990","https://www.jdwetherspoon.com/pubs/all-pubs/england/lancashire/the-wallace-hartley-colne"
"The Amber Rooms","52.773730","-1.209355","15 The Rushes","Loughborough","Leicestershire","LE11 5BE","01509 638570","https://www.jdwetherspoon.com/pubs/all-pubs/england/leicestershire/the-amber-rooms-loughborough"
"The Corn Exchange","52.634591","-1.133307","1 Corn Exchange","Leicester","Leicestershire","LE1 5GG","0116 253 8533","https://www.jdwetherspoon.com/pubs/all-pubs/england/leicestershire/the-corn-exchange-leicester"
"The High Cross","52.635339","-1.138583","103–105 High Street","Leicester","Leicestershire","LE1 4JB","0116 251 9218","https://www.jdwetherspoon.com/pubs/all-pubs/england/leicestershire/the-high-cross-leicester"
"The Kettleby Cross","52.765710","-0.889285","Wilton Road","Melton Mowbray","Leicestershire","LE13 0UJ","01664 485310","https://www.jdwetherspoon.com/pubs/all-pubs/england/leicestershire/the-kettleby-cross-melton-mowbray"
"The Lord Keeper of the Great Seal","52.600848","-1.084080","96–100 The Parade","Oadby","Leicestershire","LE2 5BF","0116 272 0957","https://www.jdwetherspoon.com/pubs/all-pubs/england/leicestershire/the-lord-keeper-of-the-great-seal-oadby"
"The Monkey Walk","52.723504","-1.374327","1 Marlborough Square","Coalville","Leicestershire","LE67 3WD","01530 278950","https://www.jdwetherspoon.com/pubs/all-pubs/england/leicestershire/the-monkey-walk-coalville"
"The Moon & Bell","52.769260","-1.207661","6 Wards End","Loughborough","Leicestershire","LE11 3HA","01509 241504","https://www.jdwetherspoon.com/pubs/all-pubs/england/leicestershire/the-moon--bell-loughborough"
"The Shoulder of Mutton","52.746712","-1.473575","2 Market Street","Ashby-de-la-Zouch","Leicestershire","LE65 1AF","01530 567480","https://www.jdwetherspoon.com/pubs/all-pubs/england/leicestershire/the-shoulder-of-mutton-ashbydelazouch"
"The Sugar Loaf","52.478993","-0.922402","18 High Street","Market Harborough","Leicestershire","LE16 7NJ","01858 469231","https://www.jdwetherspoon.com/pubs/all-pubs/england/leicestershire/the-sugar-loaf-market-harborough"
"The White House","52.642978","-1.046835","375 Scraptoft Lane","Leicester","Leicestershire","LE7 9SE","0116 241 1000","https://www.jdwetherspoon.com/pubs/all-pubs/england/leicestershire/the-white-house-leicester"
"The William Wygston","52.587736","-1.105556","84 Leicester Road","Wigston","Leicestershire","LE18 1DR","0116 288 8397","https://www.jdwetherspoon.com/pubs/all-pubs/england/leicestershire/the-william-wygston-wigston"
"Ritz","53.224370","-0.543243","143–147 High Street","Lincoln","Lincolnshire","LN5 7PJ","01522 512103","https://www.jdwetherspoon.com/pubs/all-pubs/england/lincolnshire/ritz-lincoln"
"The Coliseum Picture Theatre","53.560768","-0.031085","26–28 High Street","Cleethorpes","Lincolnshire","DN35 8JN","01472 694724","https://www.jdwetherspoon.com/pubs/all-pubs/england/lincolnshire/the-coliseum-picture-theatre-cleethorpes"
"The Ivy Wall","52.788547","-0.151381","18–19 New Road","Spalding","Lincolnshire","PE11 1DQ","01775 719770","https://www.jdwetherspoon.com/pubs/all-pubs/england/lincolnshire/the-ivy-wall-spalding"
"The Joseph Morton","53.365203","-0.005115","Pawnshop Passage","Louth","Lincolnshire","LN11 9EZ","01507 353700","https://www.jdwetherspoon.com/pubs/all-pubs/england/lincolnshire/the-joseph-morton-louth"
"The Moon Under Water","52.976692","-0.024404","6 High Street","Boston","Lincolnshire","PE21 8SH","01205 311911","https://www.jdwetherspoon.com/pubs/all-pubs/england/lincolnshire/the-moon-under-water-boston"
"The Packhorse Inn","52.999841","-0.410512","7 Northgate","Sleaford","Lincolnshire","NG34 7BH","01529 308730","https://www.jdwetherspoon.com/pubs/all-pubs/england/lincolnshire/the-packhorse-inn-sleaford"
"The Red Lion","53.143959","0.3363070","2–4 Roman Bank","Skegness","Lincolnshire","PE25 2RU","01754 612567","https://www.jdwetherspoon.com/pubs/all-pubs/england/lincolnshire/the-red-lion-skegness"
"The Square Sail","53.229820","-0.546572","Brayford Wharf North","Lincoln","Lincolnshire","LN1 1YW","01522 559920","https://www.jdwetherspoon.com/pubs/all-pubs/england/lincolnshire/the-square-sail-lincoln"
"The Stamford Post","52.651148","-0.480789","7 Sheep Market","Stamford","Lincolnshire","PE9 2QZ","01780 753832","https://www.jdwetherspoon.com/pubs/all-pubs/england/lincolnshire/the-stamford-post-stamford"
"The Sweyn Forkbeard","53.398454","-0.777033","22–24 Silver Street","Gainsborough","Lincolnshire","DN21 2DP","01427 675000","https://www.jdwetherspoon.com/pubs/all-pubs/england/lincolnshire/the-sweyn-forkbeard-gainsborough"
"The Tollemache Inn","52.909841","-0.639824","17 St Peter’s Hill","Grantham","Lincolnshire","NG31 6PY","01476 594696","https://www.jdwetherspoon.com/pubs/all-pubs/england/lincolnshire/the-tollemache-inn-grantham"
"The Yarborough Hotel","53.563934","-0.087395","29 Bethlehem Street","Grimsby","Lincolnshire","DN31 1JN","01472 268283","https://www.jdwetherspoon.com/pubs/all-pubs/england/lincolnshire/the-yarborough-hotel-grimsby"
"Baxter’s Court","51.545456","-0.055087","282–284 Mare Street","Hackney","London","E8 1HE","020 8525 9010","https://www.jdwetherspoon.com/pubs/all-pubs/england/london/baxters-court-hackney"
"Goldengrove","51.543751","0.0039980","146–148 The Grove","Stratford","London","E15 1NS","020 8519 0750","https://www.jdwetherspoon.com/pubs/all-pubs/england/london/goldengrove-stratford"
"Goodman’s Field","51.511494","-0.072858","87–91 Mansell Street","Tower Hamlets","London","E1 8AN","020 7680 2850","https://www.jdwetherspoon.com/pubs/all-pubs/england/london/goodmans-field-tower-hamlets"
"Hamilton Hall","51.517643","-0.080963","Street-level Concourse","City of London","London","EC2M 7PY","020 7247 3579","https://www.jdwetherspoon.com/pubs/all-pubs/england/london/hamilton-hall-city-of-london"
"J.J. Moon’s","51.584673","-0.279922","553 Kingsbury Road","Kingsbury","London","NW9 9EL","020 8204 9675","https://www.jdwetherspoon.com/pubs/all-pubs/england/london/jj-moons-kingsbury"
"J.J. Moon’s","51.573325","-0.413293","12 Victoria Road","Ruislip Manor","London","HA4 0AA","01895 622373","https://www.jdwetherspoon.com/pubs/all-pubs/england/london/jj-moons-ruislip-manor"
"J.J. Moon’s","51.427847","-0.168426","56a High Street","Tooting","London","SW17 0RN","020 8672 4726","https://www.jdwetherspoon.com/pubs/all-pubs/england/london/jj-moons-tooting"
"J.J. Moon’s","51.553589","-0.292811","397 High Road","Wembley","London","HA9 6AA","020 8903 4923","https://www.jdwetherspoon.com/pubs/all-pubs/england/london/jj-moons-wembley"
"Oyster Rooms","51.480414","-0.194437","Unit 3, First Floor","Fulham","London","SW6 1AA","020 7471 0310","https://www.jdwetherspoon.com/pubs/all-pubs/england/london/oyster-rooms-fulham"
"Penderel’s Oak","51.517967","-0.115481","283–288 High Holborn","Holborn","London","WC1V 7HP","020 7242 5669","https://www.jdwetherspoon.com/pubs/all-pubs/england/london/penderels-oak-holborn"
"Shakespeare's Head","51.516816","-0.119686","Africa House, 64–68 Kingsway","Holborn","London","WC2B 6BG","020 7404 8846","https://www.jdwetherspoon.com/pubs/all-pubs/england/london/shakespeares-head-holborn"
"Spouter’s Corner","51.596974","-0.108708","Unit 5, Spouter’s Corner","Wood Green","London","N22 6EJ","020 8881 3891","https://www.jdwetherspoon.com/pubs/all-pubs/england/london/spouters-corner-wood-green"
"The Alfred Herring","51.619343","-0.106970","316–322 Green Lanes","Palmers Green","London","N13 5TT","020 3232 1083","https://www.jdwetherspoon.com/pubs/all-pubs/england/london/the-alfred-herring-palmers-green"
"The Angel","51.532185","-0.106422","3–5 Islington High Street","Islington","London","N1 9LQ","020 7837 2218","https://www.jdwetherspoon.com/pubs/all-pubs/england/london/the-angel-islington"
"The Asparagus","51.469878","-0.171417","1–13 Falcon Road","Battersea","London","SW11 2PL","020 7801 0046","https://www.jdwetherspoon.com/pubs/all-pubs/england/london/the-asparagus-battersea"
"The Banker’s Draft","51.450679","0.0522720","80 High Street","Eltham","London","SE9 1BW","020 8294 2578","https://www.jdwetherspoon.com/pubs/all-pubs/england/london/the-bankers-draft-eltham"
"The Barrel Vault","51.5314278","-0.1266802","Unit 23, St Pancras International Station","London","London","N1C 4QP","020 7837 5151","https://www.jdwetherspoon.com/pubs/all-pubs/england/london/the-barrel-vault-st-pancras"
"The Beaten Docket","51.553529","-0.211525","50–56 Cricklewood Broadway","Cricklewood","London","NW2 3ET","020 8450 2972","https://www.jdwetherspoon.com/pubs/all-pubs/england/london/the-beaten-docket-cricklewood"
"The Beehive","51.463752","-0.114514","407–409 Brixton Road","Brixton","London","SW9 7DG","020 7738 3643","https://www.jdwetherspoon.com/pubs/all-pubs/england/london/the-beehive-brixton"
"The Botwell Inn","51.508134","-0.416617","25–29 Coldharbour Lane","Hayes","London","UB3 3EB","020 8848 3112","https://www.jdwetherspoon.com/pubs/all-pubs/england/london/the-botwell-inn-hayes"
"The Brockley Barge","51.464138","-0.036417","184 Brockley Road","Brockley","London","SE4 2RR","020 8694 7690","https://www.jdwetherspoon.com/pubs/all-pubs/england/london/the-brockley-barge-brockley"
"The Capitol","51.439147","-0.054792","11–21 London Road","Forest Hill","London","SE23 3TW","020 8291 8920","https://www.jdwetherspoon.com/pubs/all-pubs/england/london/the-capitol-forest-hill"
"The Central Bar","51.503871","-0.219395","Unit 1, West 12 Shopping Centre","Shepherds Bush","London","W12 8PH","020 8746 4290","https://www.jdwetherspoon.com/pubs/all-pubs/england/london/the-central-bar-shepherds-bush"
"The Coronation Hall","51.393521","-0.303705","St Mark’s Hill","Surbiton","London","KT6 4LQ","020 8390 6164","https://www.jdwetherspoon.com/pubs/all-pubs/england/london/the-coronation-hall-surbiton"
"The Coronet","51.555514","-0.115776","338–346 Holloway Road","Holloway","London","N7 6NJ","020 7609 5014","https://www.jdwetherspoon.com/pubs/all-pubs/england/london/the-coronet-holloway"
"The Crosse Keys","51.512724","-0.084657","9 Gracechurch Street","City of London","London","EC3V 0DR","020 7623 4824","https://www.jdwetherspoon.com/pubs/all-pubs/england/london/the-crosse-keys-city-of-london"
"The Drum","51.574922","-0.013721","557–559 Lea Bridge Road","Leyton","London","E10 7EQ","020 8539 9845","https://www.jdwetherspoon.com/pubs/all-pubs/england/london/the-drum-leyton"
"The Edmund Halley","51.455459","0.0117360","Lee Gate Centre","Lee Green","London","SE12 8RG","020 8318 7475","https://www.jdwetherspoon.com/pubs/all-pubs/england/london/the-edmund-halley-lee-green"
"The Edward Rayne","51.409750","-0.228750","8–12 Coombe Lane","Raynes Park","London","SW20 8ND","020 8971 0420","https://www.jdwetherspoon.com/pubs/all-pubs/england/london/the-edward-rayne-raynes-park"
"The Fox on the Hill","51.464865","-0.090020","149 Denmark Hill","Camberwell","London","SE5 8EH","020 7738 4756","https://www.jdwetherspoon.com/pubs/all-pubs/england/london/the-fox-on-the-hill-camberwell"
"The Foxley Hatch","51.339382","-0.117581","8–9 Russell Hill Parade","Purley","London","CR8 2LE","020 8763 9307","https://www.jdwetherspoon.com/pubs/all-pubs/england/london/the-foxley-hatch-purley"
"The Furze Wren","51.456605","0.1476730","Broadway Sq, 6 Market Place","Bexleyheath","London","DA6 7DY","020 8298 2590","https://www.jdwetherspoon.com/pubs/all-pubs/england/london/the-furze-wren-bexleyheath"
"The Gate Clock","51.481489","-0.011132","Cutty Sark Station","Greenwich","London","SE10 9RB","020 8269 2000","https://www.jdwetherspoon.com/pubs/all-pubs/england/london/the-gate-clock-greenwich"
"The George","51.374050","-0.098439","17–21 George Street","Croydon","London","CR0 1LA","020 8649 9077","https://www.jdwetherspoon.com/pubs/all-pubs/england/london/the-george-croydon"
"The George","51.575947","0.0281730","155–159 High Street","Wanstead","London","E11 2RL","020 8989 2921","https://www.jdwetherspoon.com/pubs/all-pubs/england/london/the-george-wanstead"
"The Good Yarn","51.547785","-0.480843","132 High Street","Uxbridge","London","UB8 1JX","01895 239852","https://www.jdwetherspoon.com/pubs/all-pubs/england/london/the-good-yarn-uxbridge"
"The Great Harry","51.489975","0.0669170","7–9 Wellington Street","Woolwich","London","SE18 6PQ","020 8853 9460","https://www.jdwetherspoon.com/pubs/all-pubs/england/london/the-great-harry-woolwich"
"The Greenwood Hotel","51.5530199","-0.3514265","674 Whitton Avenue West","Northolt","London","UB5 4LA","020 8423 6169","https://www.jdwetherspoon.com/pubs/all-pubs/england/london/the-greenwood-hotel-northolt"
"The Greyhound","51.406371","0.0132330","205 High Street","Bromley","London","BR1 1NY","020 8315 0250","https://www.jdwetherspoon.com/pubs/all-pubs/england/london/the-greyhound-bromley"
"The Half Moon","51.522195","-0.045316","213–223 Mile End Road","Mile End","London","E1 4AA","020 7790 6810","https://www.jdwetherspoon.com/pubs/all-pubs/england/london/the-half-moon-mile-end"
"The Harvest Moon","51.377844","0.1011170","141–143 High Street","Orpington","London","BR6 0LQ","01689 876931","https://www.jdwetherspoon.com/pubs/all-pubs/england/london/the-harvest-moon-orpington"
"The Holland Tringham","51.430174","-0.129823","107–109 Streatham High Road","Streatham","London","SW16 1HJ","020 8769 3062","https://www.jdwetherspoon.com/pubs/all-pubs/england/london/the-holland-tringham-streatham"
"The Hudson Bay","51.545812","0.0260250","1–5 Upton Lane","Forest Gate","London","E7 9PA","020 8471 7702","https://www.jdwetherspoon.com/pubs/all-pubs/england/london/the-hudson-bay-forest-gate"
"The Ice Wharf","51.540874","-0.145664","Units 1–2, Suffolk Wharf","Camden","London","NW1 7BY","020 7428 3770","https://www.jdwetherspoon.com/pubs/all-pubs/england/london/the-ice-wharf-camden"
"The Kentish Drovers","51.473549","-0.070012","71–79 Peckham High Street","Peckham","London","SE15 5RS","020 7277 4283","https://www.jdwetherspoon.com/pubs/all-pubs/england/london/the-kentish-drovers-peckham"
"The King’s Ford","51.616348","-0.017282","250–252 Chingford Mount Road","Chingford","London","E4 8JL","020 8523 9365","https://www.jdwetherspoon.com/pubs/all-pubs/england/london/the-kings-ford-chingford"
"The Kings Tun","51.411467","-0.300592","153–157 Clarence Street","Kingston upon Thames","London","KT1 1QT","020 8547 3827","https://www.jdwetherspoon.com/pubs/all-pubs/england/london/the-kings-tun-kingston-upon-thames"
"The Knights Templar","51.515259","-0.111949","95 Chancery Lane","Near Fleet Street","London","WC2A 1DT","020 7831 2660","https://www.jdwetherspoon.com/pubs/all-pubs/england/london/the-knights-templar-near-fleet-street"
"The Ledger Building","51.507563","-0.024544","4 Hertsmere Road","Docklands","London","E14 4AL","020 7536 7770","https://www.jdwetherspoon.com/pubs/all-pubs/england/london/the-ledger-building-docklands"
"The Liberty Bounds","51.509695","-0.078563","15 Trinity Square","Tower of London","London","EC3N 4AA","020 7481 0513","https://www.jdwetherspoon.com/pubs/all-pubs/england/london/the-liberty-bounds-tower-of-london"
"The London & Rye","51.447015","-0.018347","109 Rushey Green","Catford","London","SE6 4AF","020 8697 5028","https://www.jdwetherspoon.com/pubs/all-pubs/england/london/the-london--rye-catford"
"The Lord Moon of the Mall","51.506494","-0.127400","16–18 Whitehall","West End","London","SW1A 2DY","020 7839 7701","https://www.jdwetherspoon.com/pubs/all-pubs/england/london/the-lord-moon-of-the-mall-west-end"
"The Masque Haunt","51.525198","-0.090642","168–172 Old Street","Old Street","London","EC1V 9BP","020 7251 4195","https://www.jdwetherspoon.com/pubs/all-pubs/england/london/the-masque-haunt-old-street"
"The Metropolitan Bar","51.522517","-0.156875","7 Station Approach","Marylebone","London","NW1 5LA","020 7486 3489","https://www.jdwetherspoon.com/pubs/all-pubs/england/london/the-metropolitan-bar-marylebone"
"The Milan Bar","51.373056","-0.100647","Ground Floor, Grants Department Store","Croydon","London","CR0 1YA","020 8603 0870","https://www.jdwetherspoon.com/pubs/all-pubs/england/london/the-milan-bar-croydon"
"The Miller’s Well","51.533437","0.0563490","419–421 Barking Road","East Ham","London","E6 2JX","020 8471 8404","https://www.jdwetherspoon.com/pubs/all-pubs/england/london/the-millers-well-east-ham"
"The Montagu Pyke","51.514053","-0.129740","105–107 Charing Cross Road","West End","London","WC2H 0BP","020 7287 6039","https://www.jdwetherspoon.com/pubs/all-pubs/england/london/the-montagu-pyke-west-end"
"The Moon & Stars","51.412746","-0.050885","164–166 High Street","Penge","London","SE20 7QS","020 8776 5680","https://www.jdwetherspoon.com/pubs/all-pubs/england/london/the-moon--stars-penge"
"The Moon and Sixpence","51.608306","-0.372714","250 Uxbridge Road","Hatch End","London","HA5 4HS","020 8420 1074","https://www.jdwetherspoon.com/pubs/all-pubs/england/london/the-moon-and-sixpence-hatch-end"
"The Moon and Stars","51.575719","0.1831460","99–103 South Street","Romford","London","RM1 1NX","01708 730117","https://www.jdwetherspoon.com/pubs/all-pubs/england/london/the-moon-and-stars-romford"
"The Moon on the Hill","51.579376","-0.334160","373–375 Station Road","Harrow","London","HA1 2AW","020 8863 3670","https://www.jdwetherspoon.com/pubs/all-pubs/england/london/the-moon-on-the-hill-harrow"
"The Moon on the Hill","51.361894","-0.193255","5–9 Hill Road","Sutton","London","SM1 1DZ","020 8643 1202","https://www.jdwetherspoon.com/pubs/all-pubs/england/london/the-moon-on-the-hill-sutton"
"The Moon on the Square","51.446360","-0.410089","Unit 30, The Centre","Feltham","London","TW13 4AU","020 8893 1293","https://www.jdwetherspoon.com/pubs/all-pubs/england/london/the-moon-on-the-square-feltham"
"The Moon Under Water","51.587353","-0.251046","10 Varley Parade","Colindale","London","NW9 6RR","020 8200 7611","https://www.jdwetherspoon.com/pubs/all-pubs/england/london/the-moon-under-water-colindale"
"The Moon Under Water","51.467084","-0.369405","84–86 Staines Road","Hounslow","London","TW3 3LF","020 8572 7506","https://www.jdwetherspoon.com/pubs/all-pubs/england/london/the-moon-under-water-hounslow"
"The Moon Under Water","51.407097","-0.121380","1327 London Road","Norbury","London","SW16 4AU","020 8765 1235","https://www.jdwetherspoon.com/pubs/all-pubs/england/london/the-moon-under-water-norbury"
"The Moon Under Water","51.510266","-0.129424","28 Leicester Square","West End","London","WC2H 7LE","020 7839 2837","https://www.jdwetherspoon.com/pubs/all-pubs/england/london/the-moon-under-water-west-end"
"The Mossy Well","51.590873","-0.141640","258 Muswell Hill Broadway","Muswell Hill","London","N10 3SH","020 8444 2914","https://www.jdwetherspoon.com/pubs/all-pubs/england/london/the-mossy-well-muswell-hill"
"The New Cross Turnpike","51.462947","0.1039090","55 Bellegrove Road","Welling","London","DA16 3PB","020 8304 1600","https://www.jdwetherspoon.com/pubs/all-pubs/england/london/the-new-cross-turnpike-welling"
"The New Crown","51.633315","-0.130591","80–84 Chase Side","Southgate","London","N14 5PH","020 8882 8758","https://www.jdwetherspoon.com/pubs/all-pubs/england/london/the-new-crown-southgate"
"The New Moon","51.587241","-0.304294","25–26 Kenton Park Parade","Harrow","London","HA3 8DN","020 8909 1103","https://www.jdwetherspoon.com/pubs/all-pubs/england/london/the-new-moon-harrow"
"The Nonsuch Inn","51.372466","-0.226121","552–556 London Road","North Cheam","London","SM3 9AA","020 8644 1808","https://www.jdwetherspoon.com/pubs/all-pubs/england/london/the-nonsuch-inn-north-cheam"
"The Plough & Harrow","51.492665","-0.231469","120–124 King Street","Hammersmith","London","W6 0QU","020 8735 6020","https://www.jdwetherspoon.com/pubs/all-pubs/england/london/the-plough--harrow-hammersmith"
"The Pommelers Rest","51.502366","-0.077334","196–198 Tower Bridge Road","Tower Bridge (South)","London","SE1 2UN","020 7378 1399","https://www.jdwetherspoon.com/pubs/all-pubs/england/london/the-pommelers-rest-tower-bridge-south"
"The Postal Order","51.418388","-0.082318","32–33 Westow Street","Crystal Palace","London","SE19 3RW","020 8771 3003","https://www.jdwetherspoon.com/pubs/all-pubs/england/london/the-postal-order-crystal-palace"
"The Railway Bell","51.650381","-0.173009","13 East Barnet Road","Barnet","London","EN4 8RR","020 8449 1369","https://www.jdwetherspoon.com/pubs/all-pubs/england/london/the-railway-bell-barnet"
"The Red Lion & Pineapple","51.508265","-0.276566","281 High Street","Acton","London","W3 9BP","020 8896 2248","https://www.jdwetherspoon.com/pubs/all-pubs/england/london/the-red-lion--pineapple-acton"
"The Richmal Crompton","51.399671","0.0167440","23 Westmoreland Place","Bromley","London","BR1 1DS","020 8464 1586","https://www.jdwetherspoon.com/pubs/all-pubs/england/london/the-richmal-crompton-bromley"
"The Rochester Castle","51.560960","-0.073976","143–145 Stoke Newington High Street","Stoke Newington","London","N16 0NY","020 7249 6016","https://www.jdwetherspoon.com/pubs/all-pubs/england/london/the-rochester-castle-stoke-newington"
"The Rocket","51.465604","-0.212939","Putney Wharf Tower, Brewhouse Lane","Putney","London","SW15 2JQ","020 8780 8970","https://www.jdwetherspoon.com/pubs/all-pubs/england/london/the-rocket-putney"
"The Rockingham Arms","51.496082","-0.099727","Metro Central Heights","Elephant & Castle","London","SE1 6BN","020 7940 0890","https://www.jdwetherspoon.com/pubs/all-pubs/england/london/the-rockingham-arms-elephant--castle"
"The Sir John Hawkshaw","51.511362","-0.090251","Cannon Street Station, Cannon Street","London","London","EC4N 6AP","020 3206 1004","https://www.jdwetherspoon.com/pubs/all-pubs/england/london/the-sir-john-hawkshaw-london"
"The Sir John Oldcastle","51.519816","-0.105882","29–35 Farringdon Road","Farringdon","London","EC1M 3JF","020 7242 1013","https://www.jdwetherspoon.com/pubs/all-pubs/england/london/the-sir-john-oldcastle-farringdon"
"The Sir Julian Huxley","51.343446","-0.062519","152–154 Addington Road","Selsdon","London","CR2 8LB","020 8657 9457","https://www.jdwetherspoon.com/pubs/all-pubs/england/london/the-sir-julian-huxley-selsdon"
"The Sir Michael Balcon","51.513603","-0.298768","46–47 The Mall","Ealing","London","W5 3TJ","020 8799 2850","https://www.jdwetherspoon.com/pubs/all-pubs/england/london/the-sir-michael-balcon-ealing"
"The Skylark","51.366156","-0.099199","34–36 South End","Croydon","London","CR0 1DP","020 8649 9909","https://www.jdwetherspoon.com/pubs/all-pubs/england/london/the-skylark-croydon"
"The Sovereign of the Seas","51.389326","0.0721380","109–111 Queensway","Petts Wood","London","BR5 1DG","01689 891606","https://www.jdwetherspoon.com/pubs/all-pubs/england/london/the-sovereign-of-the-seas-petts-wood"
"The Surrey Docks","51.493054","-0.046590","185 Lower Road","Rotherhithe","London","SE16 2LW","020 7394 2832","https://www.jdwetherspoon.com/pubs/all-pubs/england/london/the-surrey-docks-rotherhithe"
"The Tailor’s Chalk","51.426161","0.1035130","47–49 Sidcup High Street","Sidcup","London","DA14 6ED","020 8308 6880","https://www.jdwetherspoon.com/pubs/all-pubs/england/london/the-tailors-chalk-sidcup"
"The Tichenham Inn","51.564449","-0.444724","11 Swakeleys Road","Ickenham","London","UB10 8DF","01895 678916","https://www.jdwetherspoon.com/pubs/all-pubs/england/london/the-tichenham-inn-ickenham"
"The Toll Gate","51.589952","-0.105232","26–30 Turnpike Lane","Harringay","London","N8 0PS","020 8889 9085","https://www.jdwetherspoon.com/pubs/all-pubs/england/london/the-toll-gate-harringay"
"The Village Inn","51.576899","-0.370988","402–408 Rayners Lane","Rayners Lane","London","HA5 5DY","020 8868 8551","https://www.jdwetherspoon.com/pubs/all-pubs/england/london/the-village-inn-rayners-lane"
"The Walnut Tree","51.569790","0.0128790","857–861 High Road","Leytonstone","London","E11 1HH","020 8539 2526","https://www.jdwetherspoon.com/pubs/all-pubs/england/london/the-walnut-tree-leytonstone"
"The Watch House","51.459945","-0.011640","198–204 High Street","Lewisham","London","SE13 6JP","020 8318 3136","https://www.jdwetherspoon.com/pubs/all-pubs/england/london/the-watch-house-lewisham"
"The Watchman","51.398867","-0.255329","184 High Street","New Malden","London","KT3 4ES","020 8329 0450","https://www.jdwetherspoon.com/pubs/all-pubs/england/london/the-watchman-new-malden"
"The Whispering Moon","51.360066","-0.149607","25 Ross Parade","Wallington","London","SM6 8QF","020 8647 7020","https://www.jdwetherspoon.com/pubs/all-pubs/england/london/the-whispering-moon-wallington"
"The White Swan","51.545739","-0.103411","255–256 Upper Street","Islington","London","N1 1RY","020 7288 9050","https://www.jdwetherspoon.com/pubs/all-pubs/england/london/the-white-swan-islington"
"The Wibbas Down Inn","51.419166","-0.202661","6–12 Gladstone Road","Wimbledon","London","SW19 1QT","020 8540 6788","https://www.jdwetherspoon.com/pubs/all-pubs/england/london/the-wibbas-down-inn-wimbledon"
"The William Morris","51.493014","-0.225152","Swan Island","Hammersmith","London","W6 0QA","020 8741 7175","https://www.jdwetherspoon.com/pubs/all-pubs/england/london/the-william-morris-hammersmith"
"The William Webb Ellis","51.447591","-0.328530","24 London Road","Twickenham","London","TW1 3RR","020 8744 4300","https://www.jdwetherspoon.com/pubs/all-pubs/england/london/the-william-webb-ellis-twickenham"
"The Willow Walk","51.495025","-0.142530","25 Wilton Road","Victoria","London","SW1V 1LW","020 7828 2953","https://www.jdwetherspoon.com/pubs/all-pubs/england/london/the-willow-walk-victoria"
"The World’s Inn","51.575901","0.1825440","113–117 South Street","Romford","London","RM1 1NX","01708 333120","https://www.jdwetherspoon.com/pubs/all-pubs/england/london/the-worlds-inn-romford"
"The Wrong ’Un","51.457745","0.1374470","234–236 The Broadway","Bexleyheath","London","DA6 8AS","020 8298 0439","https://www.jdwetherspoon.com/pubs/all-pubs/england/london/the-wrong-un-bexleyheath"
"Wetherspoons","51.495295","-0.144408","Unit 5 (1st Floor above WHSmith)","Victoria Station Concourse","London","SW1V 1JT","020 7931 0445","https://www.jdwetherspoon.com/pubs/all-pubs/england/london/wetherspoons-victoria-station-concourse"
"Castle in the Air","53.468675","-2.361100","Chill Factore","Manchester","Manchester","M17 8DD","0161 746 3930","https://www.jdwetherspoon.com/pubs/all-pubs/england/manchester/castle-in-the-air-manchester"
"The Mardi Gras","53.466179","-2.349005","Units 108–111, The Orient","Manchester","Manchester","M17 8EH","0161 629 2130","https://www.jdwetherspoon.com/pubs/all-pubs/england/manchester/mardi-gras-manchester"
"The Eccles Cross","53.483229","-2.334663","13 Regent Street","Eccles","Manchester","M30 0BP","0161 788 0414","https://www.jdwetherspoon.com/pubs/all-pubs/england/manchester/the-eccles-cross-eccles"
"The Edwin Waugh","53.593732","-2.221360","10–12 Market Street","Heywood","Manchester","OL10 4LY","01706 621480","https://www.jdwetherspoon.com/pubs/all-pubs/england/manchester/the-edwin-waugh-heywood"
"The Ford Madox Brown","53.458084","-2.226697","Wilmslow Park","Manchester","Manchester","M13 9NG","0161 256 6660","https://www.jdwetherspoon.com/pubs/all-pubs/england/manchester/the-ford-madox-brown-manchester"
"The Great Central","53.441010","-2.219303","Wilmslow Road","Manchester","Manchester","M14 6NL","0161 248 1740","https://www.jdwetherspoon.com/pubs/all-pubs/england/manchester/the-great-central-manchester"
"The Harbord Harbord","53.550159","-2.198051","17–21 Long Street","Middleton","Manchester","M24 6TE","0161 654 6226","https://www.jdwetherspoon.com/pubs/all-pubs/england/manchester/the-harbord-harbord-middleton"
"The J. P. Joule","53.424075","-2.317552","2a Northenden Road","Sale","Manchester","M33 3BR","0161 962 9889","https://www.jdwetherspoon.com/pubs/all-pubs/england/manchester/the-j-p-joule-sale"
"The Moon Under Water","53.482745","-2.246910","68–74 Deansgate","Manchester","Manchester","M3 2FN","0161 834 5882","https://www.jdwetherspoon.com/pubs/all-pubs/england/manchester/the-moon-under-water-manchester"
"The Paramount","53.476453","-2.242548","33–35 Oxford Street","Manchester","Manchester","M1 4BH","0161 233 1820","https://www.jdwetherspoon.com/pubs/all-pubs/england/manchester/the-paramount-manchester"
"The Robert Peel","53.593776","-2.297915","5–10 Market Place","Bury","Manchester","BL9 0LD","0161 764 7287","https://www.jdwetherspoon.com/pubs/all-pubs/england/manchester/the-robert-peel-bury"
"The Sedge Lynn","53.444237","-2.278640","21a Manchester Road","Chorlton-cum-Hardy","Manchester","M21 9PN","0161 860 0141","https://www.jdwetherspoon.com/pubs/all-pubs/england/manchester/the-sedge-lynn-chorltoncumhardy"
"The Seven Stars","53.485030","-2.240040","6–8 Dantzic Street","Manchester","Manchester","M4 2BS","0161 817 2980","https://www.jdwetherspoon.com/pubs/all-pubs/england/manchester/the-seven-stars-manchester"
"The Tim Bobbin","53.448212","-2.357196","41 Flixton Road","Urmston","Manchester","M41 5AN","0161 749 8239","https://www.jdwetherspoon.com/pubs/all-pubs/england/manchester/the-tim-bobbin-urmston"
"The Up Steps Inn","53.542231","-2.112833","17–23 High Street","Oldham","Manchester","OL1 3AJ","0161 627 5001","https://www.jdwetherspoon.com/pubs/all-pubs/england/manchester/the-up-steps-inn-oldham"
"The Waterhouse","53.479171","-2.243099","67–71 Princess Street","Manchester","Manchester","M2 4EG","0161 200 5380","https://www.jdwetherspoon.com/pubs/all-pubs/england/manchester/the-waterhouse-manchester"
"Wetherspoons","53.481224","-2.235089","49 Piccadilly","Manchester","Manchester","M1 2AP","0161 236 9206","https://www.jdwetherspoon.com/pubs/all-pubs/england/manchester/wetherspoons-manchester"
"Hoylake Lights","53.392477","-3.177064","52–54 Market Street","Hoylake","Merseyside","CH47 3BB","0151 632 1209","https://www.jdwetherspoon.com/pubs/all-pubs/england/merseyside/hoylake-lights-hoylake"
"The Barker’s Brewery","53.413375","-2.840059","Archway Road","Liverpool","Merseyside","L36 9UJ","0151 482 4500","https://www.jdwetherspoon.com/pubs/all-pubs/england/merseyside/the-barkers-brewery-liverpool"
"The Brass Balance","53.392383","-3.018088","39–47 Argyle Street","Birkenhead","Merseyside","CH41 6AB","0151 650 8950","https://www.jdwetherspoon.com/pubs/all-pubs/england/merseyside/the-brass-balance-birkenhead"
"The Captain Alexander","53.4048621","-2.9914214","The Captain Alexander","Liverpool","Merseyside","L2 7NX","0151 227 4197","https://www.jdwetherspoon.com/pubs/all-pubs/england/merseyside/the-captain-alexander-liverpool"
"The Childwall Fiveways Hotel","53.396820","-2.896656","179 Queens Drive","Liverpool","Merseyside","L15 6XS","0151 738 2100","https://www.jdwetherspoon.com/pubs/all-pubs/england/merseyside/the-childwall-fiveways-hotel-liverpool"
"The Clairville","53.419728","-3.047125","48 Wallasey Road","Wallasey","Merseyside","CH45 4NW","0151 346 8960","https://www.jdwetherspoon.com/pubs/all-pubs/england/merseyside/the-clairville-wallasey"
"The Dee Hotel","53.372818","-3.182447","44 Grange Road","West Kirby","Merseyside","CH48 4EF","0151 929 6300","https://www.jdwetherspoon.com/pubs/all-pubs/england/merseyside/the-dee-hotel-west-kirby"
"The Fall Well","53.406642","-2.980048","St John’s Way","Liverpool","Merseyside","L1 1LS","0151 705 2050","https://www.jdwetherspoon.com/pubs/all-pubs/england/merseyside/the-fall-well-liverpool"
"The Frank Hornby","53.515307","-2.936744","38 Eastway","Liverpool","Merseyside","L31 6BR","0151 520 4010","https://www.jdwetherspoon.com/pubs/all-pubs/england/merseyside/the-frank-hornby-liverpool"
"The Glass House","53.451334","-2.735861","5 Market Street","St Helens","Merseyside","WA10 1NE","01744 762310","https://www.jdwetherspoon.com/pubs/all-pubs/england/merseyside/the-glass-house-st-helens"
"The John Masefield","53.361337","-2.997835","70–72 New Chester Road","New Ferry","Merseyside","CH62 5AD","0151 644 4250","https://www.jdwetherspoon.com/pubs/all-pubs/england/merseyside/the-john-masefield-new-ferry"
"The Lifeboat","53.556263","-3.059737","41 Three Tuns Lane","Formby","Merseyside","L37 4AQ","01704 830839","https://www.jdwetherspoon.com/pubs/all-pubs/england/merseyside/the-lifeboat-formby"
"The Lime Kiln","53.402970","-2.980277","Fleet Street/Concert Square","Liverpool","Merseyside","L1 4NR","0151 702 6810","https://www.jdwetherspoon.com/pubs/all-pubs/england/merseyside/the-lime-kiln-liverpool"
"The Master Mariner","53.439922","-3.044100","3–5 Union Terrace","New Brighton","Merseyside","CH45 2JT","0151 346 8950","https://www.jdwetherspoon.com/pubs/all-pubs/england/merseyside/the-master-mariner-new-brighton"
"The Mockbeggar Hall","53.400773","-3.113316","239–241 Hoylake Road","Moreton","Merseyside","CH46 0SL","0151 678 5659","https://www.jdwetherspoon.com/pubs/all-pubs/england/merseyside/the-mockbeggar-hall-moreton"
"The Navigator","53.415130","-2.905678","694 Queen’s Drive","Stoneycroft","Merseyside","L13 5UH","0151 220 2713","https://www.jdwetherspoon.com/pubs/all-pubs/england/merseyside/the-navigator-stoneycroft"
"The Nine Arches","53.452255","-2.643989","3 Legh Street","Newton-le-Willows","Merseyside","WA12 9NE","01925 224409","https://www.jdwetherspoon.com/pubs/all-pubs/england/merseyside/the-nine-arches-newton-le-willows"
"The North Western","53.407259","-2.977003","7 Lime Street","Liverpool","Merseyside","L1 1RJ","01517 096825","https://www.jdwetherspoon.com/pubs/all-pubs/england/merseyside/the-north-western-liverpool"
"The Queen’s Picture House","53.474184","-3.027309","47–49 South Road","Liverpool","Merseyside","L22 5PE","0151 949 2070","https://www.jdwetherspoon.com/pubs/all-pubs/england/merseyside/the-queens-picture-house-liverpool"
"The Raven","53.463796","-2.958666","72–74 Walton Vale","Liverpool","Merseyside","L9 2BU","0151 524 1255","https://www.jdwetherspoon.com/pubs/all-pubs/england/merseyside/the-raven-liverpool"
"The Richard John Blackler","53.406077","-2.979932","Units 1 & 2, Charlotte Row","Liverpool","Merseyside","L1 1HU","0151 709 4802","https://www.jdwetherspoon.com/pubs/all-pubs/england/merseyside/the-richard-john-blackler-liverpool"
"The Running Horses","53.451804","-2.739707","Water Street/Chalon Way","St Helens","Merseyside","WA10 1PY","01744 743400","https://www.jdwetherspoon.com/pubs/all-pubs/england/merseyside/the-running-horses-st-helens"
"The Sir Henry Segrave","53.645861","-3.010488","93–97 Lord Street","Southport","Merseyside","PR8 1RH","01704 530217","https://www.jdwetherspoon.com/pubs/all-pubs/england/merseyside/the-sir-henry-segrave-southport"
"The Thomas Frost","53.435863","-2.972670","177–187 Walton Road","Liverpool","Merseyside","L4 4AJ","0151 207 8210","https://www.jdwetherspoon.com/pubs/all-pubs/england/merseyside/the-thomas-frost-liverpool"
"The Watch Maker","53.429627","-2.802256","60–62 Eccleston Street","Prescot","Merseyside","L34 5QL","0151 432 7030","https://www.jdwetherspoon.com/pubs/all-pubs/england/merseyside/the-watch-maker-prescot"
"The Welkin","53.405776","-2.985820","7 Whitechapel","Liverpool","Merseyside","L1 6DS","0151 243 1080","https://www.jdwetherspoon.com/pubs/all-pubs/england/merseyside/the-welkin-liverpool"
"The Wild Rose","53.452867","-2.990955","2a & 1b The Triad Centre","Bootle","Merseyside","L20 3ET","0151 922 0828","https://www.jdwetherspoon.com/pubs/all-pubs/england/merseyside/the-wild-rose-bootle"
"The Willow Grove","53.649100","-3.004511","387–389 Lord Street","Southport","Merseyside","PR9 0AG","01704 517830","https://www.jdwetherspoon.com/pubs/all-pubs/england/merseyside/the-willow-grove-southport"
"The Crown Rivers","51.47381864","-0.487401","After Security, Terminal 5, Heathrow Airport","Hounslow","Middlesex","TW6 2GA","020 8283 6208","https://www.jdwetherspoon.com/pubs/all-pubs/england/middlesex/the-crown-rivers-after-security-terminal-5"
"The Flying Chariot","51.4689223","-0.4513389","Before Security, Terminal 2, Heathrow Airport","Hounslow","Middlesex","TW6 1EW","020 8976 7540","https://www.jdwetherspoon.com/pubs/all-pubs/england/middlesex/the-flying-chariot-before-security-terminal-2"
"The Moon Under Water","51.658782","-0.087759","115–117 Chase Side","Enfield","Middlesex","EN2 6NN","020 8366 9855","https://www.jdwetherspoon.com/pubs/all-pubs/england/middlesex/the-moon-under-water-enfield"
"Wetherspoon Express","51.471301","-0.487826","B Gates, After Security, Terminal 5, Heathrow Airport","Hounslow","Middlesex","TW6 2GA","020 8283 5091","https://www.jdwetherspoon.com/pubs/all-pubs/england/middlesex/wetherspoon-express-b-gates-after-security-terminal-5"
"Globe Hotel","52.755780","0.3936920","Tuesday Market Place","King’s Lynn","Norfolk","PE30 1EZ","01553 668000","https://www.jdwetherspoon.com/pubs/all-pubs/england/norfolk/globe-hotel-kings-lynn"
"The Bell Hotel","52.627349","1.2954770","5 Orford Hill","Norwich","Norfolk","NR1 3QB","01603 630017","https://www.jdwetherspoon.com/pubs/all-pubs/england/norfolk/the-bell-hotel-norwich"
"The Glass House","52.632297","1.2978220","11–13 Wensum Street","Norwich","Norfolk","NR3 1LA","01603 877650","https://www.jdwetherspoon.com/pubs/all-pubs/england/norfolk/the-glass-house-norwich"
"The Limes","52.828667","0.8485250","30 Bridge Street","Fakenham","Norfolk","NR21 9AZ","01328 850050","https://www.jdwetherspoon.com/pubs/all-pubs/england/norfolk/the-limes-fakenham"
"The Queen of Iceni","52.625048","1.3036050","Unit 6, Riverside Development","Norwich","Norfolk","NR1 1ED","01603 877690","https://www.jdwetherspoon.com/pubs/all-pubs/england/norfolk/the-queen-of-iceni-norwich"
"The Red Lion","52.413429","0.7504890","Market Place","Thetford","Norfolk","IP24 2AL","01842 757210","https://www.jdwetherspoon.com/pubs/all-pubs/england/norfolk/the-red-lion-thetford"
"The Romany Rye","52.680983","0.9393540","Church Street","Dereham","Norfolk","NR19 1DL","01362 654160","https://www.jdwetherspoon.com/pubs/all-pubs/england/norfolk/the-romany-rye-dereham"
"The Troll Cart","52.607216","1.7294460","7–9 Regent Road","Great Yarmouth","Norfolk","NR30 2AF","01493 332932","https://www.jdwetherspoon.com/pubs/all-pubs/england/norfolk/the-troll-cart-great-yarmouth"
"The Whalebone","52.6028694","0.3760511","58–64 Bridge Street","Downham Market","Norfolk","PE38 9DJ","01366 381600","https://www.jdwetherspoon.com/pubs/all-pubs/england/norfolk/the-whalebone-downham-market"
"The Whiffler","52.654318","1.2685630","Boundary Road","Norwich","Norfolk","NR6 5JB","01603 424042","https://www.jdwetherspoon.com/pubs/all-pubs/england/norfolk/the-whiffler-norwich"
"The William Adams","52.5803956","1.7283005","176 High Street","Great Yarmouth","Norfolk","NR31 6RG","01493 600295","https://www.jdwetherspoon.com/pubs/all-pubs/england/norfolk/the-william-adams-gorleston-on-sea"
"The Blue Bell Inn","53.590434","-0.654238","1–7 Oswald Road","Scunthorpe","North Lincolnshire","DN15 7PU","01724 863921","https://www.jdwetherspoon.com/pubs/all-pubs/england/north-lincolnshire/the-blue-bell-inn-scunthorpe"
"The White Horse","53.552400","-0.488763","Wrawby Street","Brigg","North Lincolnshire","DN20 8JR","01652 659344","https://www.jdwetherspoon.com/pubs/all-pubs/england/north-lincolnshire/the-white-horse-brigg"
"The Angel Hotel","54.486015","-0.613778","1 New Quay Road","Whitby","North Yorkshire","YO21 1DH","01947 824730","https://www.jdwetherspoon.com/pubs/all-pubs/england/north-yorkshire/the-angel-hotel-whitby"
"The Crown Inn","54.009126","-1.468513","71–75 High Street","Knaresborough","North Yorkshire","HG5 0HB","01423 867376","https://www.jdwetherspoon.com/pubs/all-pubs/england/north-yorkshire/the-crown-inn-knaresborough"
"The Devonshire","53.960359","-2.015596","22 Newmarket Street","Skipton","North Yorkshire","BD23 2HR","01756 692590","https://www.jdwetherspoon.com/pubs/all-pubs/england/north-yorkshire/the-devonshire-skipton"
"The Giant Bellflower","53.783565","-1.072167","47a Gowthorpe","Selby","North Yorkshire","YO8 4HF","01757 293020","https://www.jdwetherspoon.com/pubs/all-pubs/england/north-yorkshire/the-giant-bellflower-selby"
"The Ironstone Miner","54.5344678","-1.0565422","The Ironstone Miner","Guisborough","North Yorkshire","TS14 6AP","01287 611350","https://www.jdwetherspoon.com/pubs/all-pubs/england/north-yorkshire/the-ironstone-miner-guisborough"
"The Lord Rosebery","54.280924","-0.404235","85–87 Westborough","Scarborough","North Yorkshire","YO11 1JW","01723 361191","https://www.jdwetherspoon.com/pubs/all-pubs/england/north-yorkshire/the-lord-rosebery-scarborough"
"The Plimsoll Line","54.617258","-1.060479","138–142 High Street East","Redcar","North Yorkshire","TS10 3DH","01642 495250","https://www.jdwetherspoon.com/pubs/all-pubs/england/north-yorkshire/the-plimsoll-line-redcar"
"The Postern Gate","53.954488","-1.077186","90 Piccadilly","York","North Yorkshire","YO1 9NX","01904 526220","https://www.jdwetherspoon.com/pubs/all-pubs/england/north-yorkshire/the-postern-gate-york"
"The Punch Bowl","53.955620","-1.091004","5–9 Blossom Street","York","North Yorkshire","YO24 1AU","01904 666740","https://www.jdwetherspoon.com/pubs/all-pubs/england/north-yorkshire/the-punch-bowl-york"
"The Ralph Fitz Randal","54.404675","-1.736716","6 Queens Road","Richmond","North Yorkshire","DL10 4AE","01748 828080","https://www.jdwetherspoon.com/pubs/all-pubs/england/north-yorkshire/the-ralph-fitz-randal-richmond"
"The Resolution","54.575963","-1.238042","19 Newport Crescent","Middlesbrough","North Yorkshire","TS1 5UA","01642 260650","https://www.jdwetherspoon.com/pubs/all-pubs/england/north-yorkshire/the-resolution-middlesbrough"
"The Swatters Carr","54.569864","-1.238653","228 Linthorpe Road","Middlesbrough","North Yorkshire","TS1 3QW","01642 239060","https://www.jdwetherspoon.com/pubs/all-pubs/england/north-yorkshire/the-swatters-carr-middlesbrough"
"The Three Tuns","54.232583","-1.341393","54 Market Place","Thirsk","North Yorkshire","YO7 1LH","01845 521370","https://www.jdwetherspoon.com/pubs/all-pubs/england/north-yorkshire/the-three-tuns-thirsk"
"The Unicorn Hotel","54.136018","-1.523206","Market Place East","Ripon","North Yorkshire","HG4 1BP","01765 643410","https://www.jdwetherspoon.com/pubs/all-pubs/england/north-yorkshire/the-unicorn-hotel-ripon"
"The Winter Gardens","53.994265","-1.543775","Unit 4, Royal Baths","Harrogate","North Yorkshire","HG1 2RR","01423 877010","https://www.jdwetherspoon.com/pubs/all-pubs/england/north-yorkshire/the-winter-gardens-harrogate"
"The Cordwainer","52.237947","-0.892703","The Ridings","Northampton","Northamptonshire","NN1 2AQ","01604 609000","https://www.jdwetherspoon.com/pubs/all-pubs/england/northamptonshire/the-cordwainer-northampton"
"The Earl of Dalkeith","52.399386","-0.725818","13–15 Dalkeith Place","Kettering","Northamptonshire","NN16 0BS","01536 312589","https://www.jdwetherspoon.com/pubs/all-pubs/england/northamptonshire/the-earl-of-dalkeith-kettering"
"The Railway Inn","52.293072","-0.599042","143 High Street","Rushden","Northamptonshire","NN10 0PA","01933 414990","https://www.jdwetherspoon.com/pubs/all-pubs/england/northamptonshire/the-railway-inn-rushden"
"The Red Well","52.301673","-0.695287","16 Silver Street","Wellingborough","Northamptonshire","NN8 1BD","01933 440845","https://www.jdwetherspoon.com/pubs/all-pubs/england/northamptonshire/the-red-well-wellingborough"
"The Samuel Lloyd","52.507544","-0.706020","Rockingham Park","Corby","Northamptonshire","NN8 1BD","01536 447910","https://www.jdwetherspoon.com/pubs/all-pubs/england/northamptonshire/the-samuel-lloyd-corby"
"The Saracens Head Inn","52.257668","-1.164515","1 Brook Street","Daventry","Northamptonshire","NN11 4GG","01327 314800","https://www.jdwetherspoon.com/pubs/all-pubs/england/northamptonshire/the-saracens-head-inn-daventry"
"The Saxon Crown","52.487058","-0.699317","100 Elizabeth Street","Corby","Northamptonshire","NN17 1FN","01536 203672","https://www.jdwetherspoon.com/pubs/all-pubs/england/northamptonshire/the-saxon-crown-corby"
"John The Clerk of Cramlington","55.0865379","-1.5852313","Low Main Place","Cramlington","Northumberland","NE23 1DN","01670 707060","https://www.jdwetherspoon.com/pubs/all-pubs/england/northumberland/john-the-clerk-of-cramlington-cramlington"
"The Electrical Wizard","55.166767","-1.690830","11 New Market","Morpeth","Northumberland","NE61 1PS","01670 500640","https://www.jdwetherspoon.com/pubs/all-pubs/england/northumberland/the-electrical-wizard-morpeth"
"The Forum","54.971866","-2.101042","Market Place","Hexham","Northumberland","NE46 3PB","01434 609190","https://www.jdwetherspoon.com/pubs/all-pubs/england/northumberland/the-forum-hexham"
"The Red Lion","55.131345","-1.600477","Front Street West","Bedlington","Northumberland","NE22 5TZ","01670 536160","https://www.jdwetherspoon.com/pubs/all-pubs/england/northumberland/the-red-lion-bedlington"
"The Rohan Kanhai","55.183414","-1.567594","1–4 Woodhorn Road","Ashington","Northumberland","NE63 9UX","01670 857692","https://www.jdwetherspoon.com/pubs/all-pubs/england/northumberland/the-rohan-kanhai-ashington"
"The Wallaw","55.126572","-1.508041","14 Union Street","Blyth","Northumberland","NE24 2DX","01670 356830","https://www.jdwetherspoon.com/pubs/all-pubs/england/northumberland/the-wallaw-blyth"
"Lloyds No.1 Bar","52.953599","-1.145190","1 Carlton Street","Nottingham","Nottingham","NG1 1NL","0115 988 1660","https://www.jdwetherspoon.com/pubs/all-pubs/england/nottingham/lloyds-no1-bar-nottingham"
"The Admiral Sir John Borlase Warren","52.927625","-1.278252","97 Derby Road","Nottingham","Nottingham","NG9 7AA","0115 949 6780","https://www.jdwetherspoon.com/pubs/all-pubs/england/nottingham/the-admiral-sir-john-borlase-warren-nottingham"
"The Company Inn","52.948061","-1.150575","Castle Wharf","Nottingham","Nottingham","NG1 7EH","0115 934 9020","https://www.jdwetherspoon.com/pubs/all-pubs/england/nottingham/the-company-inn-nottingham"
"The Free Man","52.966067","-1.109232","334–336 Carlton Hill","Nottingham","Nottingham","NG4 1JD","0115 853 1030","https://www.jdwetherspoon.com/pubs/all-pubs/england/nottingham/the-free-man-nottingham"
"The Gooseberry Bush","52.959685","-1.155780","Peel Street","Nottingham","Nottingham","NG1 4GL","0115 852 3000","https://www.jdwetherspoon.com/pubs/all-pubs/england/nottingham/the-gooseberry-bush-nottingham"
"The Joseph Else","52.953040","-1.149721","11–12 South Parade","Nottingham","Nottingham","NG1 2JS","0115 947 5034","https://www.jdwetherspoon.com/pubs/all-pubs/england/nottingham/the-joseph-else-nottingham"
"The Lady Chatterley","53.017956","-1.304965","59 Nottingham Road","Nottingham","Nottingham","NG16 3AL","01773 531102","https://www.jdwetherspoon.com/pubs/all-pubs/england/nottingham/the-lady-chatterley-nottingham"
"The Roebuck Inn","52.953001","-1.152287","9–11 St James’s Street","Nottingham","Nottingham","NG1 6FH","0115 979 3400","https://www.jdwetherspoon.com/pubs/all-pubs/england/nottingham/the-roebuck-inn-nottingham"
"The Samuel Hall","52.981368","-1.146399","The Old Bus Depot, Mansfield Road","Nottingham","Nottingham","NG5 2JN","0115 924 6230","https://www.jdwetherspoon.com/pubs/all-pubs/england/nottingham/the-samuel-hall-nottingham"
"The Trent Bridge Inn","52.937184","-1.134167","2 Radcliffe Road","Nottingham","Nottingham","NG2 6AA","0115 977 8940","https://www.jdwetherspoon.com/pubs/all-pubs/england/nottingham/the-trent-bridge-inn-nottingham"
"The William Peverel","53.002567","-1.196372","259 Main Street","Nottingham","Nottingham","NG6 8EZ","0115 977 7380","https://www.jdwetherspoon.com/pubs/all-pubs/england/nottingham/the-william-peverel-nottingham"
"The Woodthorpe Top","52.983651","-1.123279","151A Woodthorpe Drive","Nottingham","Nottingham","NG3 5JL","0115 962 9700","https://www.jdwetherspoon.com/pubs/all-pubs/england/nottingham/the-woodthorpe-top-nottingham"
"The Butter Cross","52.952653","-0.951655","Market Place","Bingham","Nottinghamshire","NG13 8AP","01949 863100","https://www.jdwetherspoon.com/pubs/all-pubs/england/nottinghamshire/the-butter-cross-bingham"
"The Dominie Cross","53.322392","-0.939932","38 Grove Street","Retford","Nottinghamshire","DN22 6JR","01777 861150","https://www.jdwetherspoon.com/pubs/all-pubs/england/nottinghamshire/the-dominie-cross-retford"
"The Ernehale","53.001748","-1.130417","149–151 Nottingham Road","Arnold","Nottinghamshire","NG5 6JN","0115 967 4945","https://www.jdwetherspoon.com/pubs/all-pubs/england/nottinghamshire/the-ernehale-arnold"
"The Last Post","52.926352","-1.216820","Chilwell Road","Beeston","Nottinghamshire","NG9 1AA","0115 968 3100","https://www.jdwetherspoon.com/pubs/all-pubs/england/nottinghamshire/the-last-post-beeston"
"The Liquorice Gardens","53.304274","-1.123609","1a Newcastle Street","Worksop","Nottinghamshire","S80 2AS","01909 512220","https://www.jdwetherspoon.com/pubs/all-pubs/england/nottinghamshire/the-liquorice-gardens-worksop"
"The Picture House","53.126174","-1.261325","Fox Street","Sutton in Ashfield","Nottinghamshire","NG17 1DA","01623 554627","https://www.jdwetherspoon.com/pubs/all-pubs/england/nottinghamshire/the-picture-house-sutton-in-ashfield"
"The Pilgrim Oak","53.038053","-1.202491","44–46 High Street","Hucknall","Nottinghamshire","NG15 7AX","0115 963 2539","https://www.jdwetherspoon.com/pubs/all-pubs/england/nottinghamshire/the-pilgrim-oak-hucknall"
"The Regent","53.099422","-1.243889","Kingsway, Diamond Avenue","Kirkby-in-Ashfield","Nottinghamshire","NG17 7BQ","01623 687630","https://www.jdwetherspoon.com/pubs/all-pubs/england/nottinghamshire/the-regent-kirkbyinashfield"
"The Sir John Arderne","53.076629","-0.809152","1–3 Church Street","Newark-on-Trent","Nottinghamshire","NG24 1DT","01636 671334","https://www.jdwetherspoon.com/pubs/all-pubs/england/nottinghamshire/the-sir-john-arderne-newarkontrent"
"The Stag & Pheasant","53.145772","-1.195501","Unit 4, Clumber Street","Mansfield","Nottinghamshire","NG18 1NU","01623 412890","https://www.jdwetherspoon.com/pubs/all-pubs/england/nottinghamshire/the-stag--pheasant-mansfield"
"The Widow Frost","53.145842","-1.194904","Leeming Street","Mansfield","Nottinghamshire","NG18 1NB","01623 666790","https://www.jdwetherspoon.com/pubs/all-pubs/england/nottinghamshire/the-widow-frost-mansfield"
"The Catherine Wheel","51.537712","-0.904076","7–15 Hart Street","Henley-on-Thames","Oxfordshire","RG9 2AR","01491 848488","https://www.jdwetherspoon.com/pubs/all-pubs/england/oxfordshire/the-catherine-wheel-henleyonthames"
"The Company of Weavers","51.783603","-1.484908","31 Market Square","Witney","Oxfordshire","OX28 6AD","01993 777930","https://www.jdwetherspoon.com/pubs/all-pubs/england/oxfordshire/the-company-of-weavers-witney"
"The Exchange","52.060556","-1.338770","49–50 High Street","Banbury","Oxfordshire","OX16 5LA","</p>","https://www.jdwetherspoon.com/pubs/all-pubs/england/oxfordshire/the-exchange-banbury"
"The Four Candles","51.753444","-1.262114","51–53 George Street","Oxford","Oxfordshire","OX1 2BE","01865 263110","https://www.jdwetherspoon.com/pubs/all-pubs/england/oxfordshire/the-four-candles-oxford"
"The Narrows","51.670176","-1.283443","25 High Street","Abingdon-on-Thames","Oxfordshire","OX14 5AA","01235 467680","https://www.jdwetherspoon.com/pubs/all-pubs/england/oxfordshire/the-narrows-abingdononthames"
"The Penny Black","51.898817","-1.151713","58 Sheep Street","Bicester","Oxfordshire","OX26 6JW","01869 321535","https://www.jdwetherspoon.com/pubs/all-pubs/england/oxfordshire/the-penny-black-bicester"
"The Swan & Castle","51.751100","-1.261570","Castle Street","Oxford","Oxfordshire","OX1 1AY","01865 260690","https://www.jdwetherspoon.com/pubs/all-pubs/england/oxfordshire/the-swan--castle-oxford"
"The William Morris","51.732347","-1.217602","59a Between Towns Road","Oxford","Oxfordshire","OX4 3LR","01865 335950","https://www.jdwetherspoon.com/pubs/all-pubs/england/oxfordshire/the-william-morris-oxford"
"The Captain Noel Newton","52.670094","-0.731175","55 High Street","Oakham","Rutland","LE15 6AJ","01572 725490","https://www.jdwetherspoon.com/pubs/all-pubs/england/rutland/the-captain-noel-newton-oakham"
"Jewel of the Severn","52.536721","-2.420223","80–81 High Street","Bridgnorth","Shropshire","WV16 4DS","01746 711980","https://www.jdwetherspoon.com/pubs/all-pubs/england/shropshire/jewel-of-the-severn-bridgnorth"
"Montgomery’s Tower","52.709256","-2.758646","Lower Claremont Bank","Shrewsbury","Shropshire","SY1 1RT","01743 239080","https://www.jdwetherspoon.com/pubs/all-pubs/england/shropshire/montgomerys-tower-shrewsbury"
"The Hippodrome","52.906125","-2.485833","Queen Street","Market Drayton","Shropshire","TF9 1PS","01630 650820","https://www.jdwetherspoon.com/pubs/all-pubs/england/shropshire/the-hippodrome-market-drayton"
"The Shrewsbury Hotel","52.709482","-2.757119","Bridge Place","Shrewsbury","Shropshire","SY1 1PU","01743 236203","https://www.jdwetherspoon.com/pubs/all-pubs/england/shropshire/the-shrewsbury-hotel-shrewsbury"
"The Wilfred Owen","52.859546","-3.056445","17 Willow Street","Oswestry","Shropshire","SY11 1AJ","01691 684910","https://www.jdwetherspoon.com/pubs/all-pubs/england/shropshire/the-wilfred-owen-oswestry"
"The William Withering","52.700595","-2.517038","43–45 New Street","Wellington","Shropshire","TF1 1LU","01952 642800","https://www.jdwetherspoon.com/pubs/all-pubs/england/shropshire/the-william-withering-wellington"
"Cabot Court Hotel","51.350518","-2.982553","Knightstone Road","Weston-super-Mare","Somerset","BS23 2AH","01934 427930","https://www.jdwetherspoon.com/pubs/all-pubs/england/somerset/cabot-court-hotel-westonsupermare"
"The Iron Duke","50.978756","-3.227553","The Iron Duke","Wellington","Somerset","TA21 8LS","01823 667899","https://www.jdwetherspoon.com/pubs/all-pubs/england/somerset/iron-duke-wellington"
"The Carnival Inn","51.127462","-3.004078","37 St Mary Street","Bridgwater","Somerset","TA6 3LY","01278 726180","https://www.jdwetherspoon.com/pubs/all-pubs/england/somerset/the-carnival-inn-bridgwater"
"The Cerdic","50.873112","-2.962610","49–51 Fore Street","Chard","Somerset","TA20 1QA","01460 260070","https://www.jdwetherspoon.com/pubs/all-pubs/england/somerset/the-cerdic-chard"
"The Coal Orchard","51.018339","-3.104680","30–32 Bridge Street","Taunton","Somerset","TA1 1UD","01823 447330","https://www.jdwetherspoon.com/pubs/all-pubs/england/somerset/the-coal-orchard-taunton"
"The Dragon Inn","51.347909","-2.977903","15 Meadow Street","Weston-super-Mare","Somerset","BS23 1QG","01934 621304","https://www.jdwetherspoon.com/pubs/all-pubs/england/somerset/the-dragon-inn-westonsupermare"
"The Duke of Wellington","51.205300","-3.479339","Wellington Square","Minehead","Somerset","TA24 5NH","01643 701910","https://www.jdwetherspoon.com/pubs/all-pubs/england/somerset/the-duke-of-wellington-minehead"
"The Glassmaker","51.432151","-2.758405","12 Crown Glass Place","Nailsea","Somerset","BS48 1RD","01275 850230","https://www.jdwetherspoon.com/pubs/all-pubs/england/somerset/the-glassmaker-nailsea"
"The King of Wessex","51.380979","-2.364582","5–10 James Street West","Bath","Somerset","BA1 2BX","01225 303380","https://www.jdwetherspoon.com/pubs/all-pubs/england/somerset/the-king-of-wessex-bath"
"The Lantokay","51.125835","-2.741460","111–113 High Street","Street","Somerset","BA16 0EY","01458 444940","https://www.jdwetherspoon.com/pubs/all-pubs/england/somerset/the-lantokay-street"
"The Palladium Electric","51.2860806","-2.4815218","110 High Street","Midsomer Norton","Somerset","BA3 2DA","01761 404230","https://www.jdwetherspoon.com/pubs/all-pubs/england/somerset/the-palladium-electric-midsomer-norton"
"The Perkin Warbeck","51.014715","-3.099492","22–23 East Street","Taunton","Somerset","TA1 3LP","01823 335830","https://www.jdwetherspoon.com/pubs/all-pubs/england/somerset/the-perkin-warbeck-taunton"
"The Posset Cup","51.485909","-2.765912","Unit 3, Mustad Way","Portishead","Somerset","BS20 7QZ","01275 848008","https://www.jdwetherspoon.com/pubs/all-pubs/england/somerset/the-posset-cup-portishead"
"The Quarter Jack","51.207049","-2.649105","18 Priory Road","Wells","Somerset","BA5 1SY","01749 836930","https://www.jdwetherspoon.com/pubs/all-pubs/england/somerset/the-quarter-jack-wells"
"The Reeds Arms","51.234290","-2.998761","1 Pier Street","Burnham-on-Sea","Somerset","TA8 1BT","01278 764060","https://www.jdwetherspoon.com/pubs/all-pubs/england/somerset/the-reeds-arms-burnhamonsea"
"The William Dampier","50.941616","-2.626269","97 Middle Street","Yeovil","Somerset","BA20 1LN","01935 412533","https://www.jdwetherspoon.com/pubs/all-pubs/england/somerset/the-william-dampier-yeovil"
"Thorn’s Farm","51.539258","-2.413260","11–17 South Parade","Yate","South Gloucestershire","BS37 4BB","01454 272500","https://www.jdwetherspoon.com/pubs/all-pubs/england/south-gloucestershire/thorns-farm-yate"
"Sheffield Water Works Company","53.380267","-1.472973","Cambridge House","Sheffield","South Yorkshire","S1 4GF","0114 276 5076","https://www.jdwetherspoon.com/pubs/all-pubs/england/south-yorkshire/sheffield-water-works-company-sheffield"
"The Bankers Draft","53.383182","-1.466473","1–3 Market Place","Sheffield","South Yorkshire","S1 2GH","0114 275 6609","https://www.jdwetherspoon.com/pubs/all-pubs/england/south-yorkshire/the-bankers-draft-sheffield"
"The Benjamin Huntsman","53.379970","-1.472380","12–18 Cambridge Street","Sheffield","South Yorkshire","S1 4HP","0114 263 9500","https://www.jdwetherspoon.com/pubs/all-pubs/england/south-yorkshire/the-benjamin-huntsman-sheffield"
"The Bluecoat","53.428856","-1.354911","The Crofts","Rotherham","South Yorkshire","S60 2DJ","01709 539500","https://www.jdwetherspoon.com/pubs/all-pubs/england/south-yorkshire/the-bluecoat-rotherham"
"The Church House","53.502186","-1.345412","Montgomery Square","Wath-upon-Dearne","South Yorkshire","S63 7RZ","01709 879518","https://www.jdwetherspoon.com/pubs/all-pubs/england/south-yorkshire/the-church-house-wathupondearne"
"The Francis Newton","53.376826","-1.492159","Clarkehouse Road","Sheffield","South Yorkshire","S10 2LA","0114 267 3660","https://www.jdwetherspoon.com/pubs/all-pubs/england/south-yorkshire/the-francis-newton-sheffield"
"The Gate House","53.522466","-1.134002","Priory Walk","Doncaster","South Yorkshire","DN1 1TS","01302 554540","https://www.jdwetherspoon.com/pubs/all-pubs/england/south-yorkshire/the-gate-house-doncaster"
"The Horseshoe","53.522573","-1.398634","30 High Street","Wombwell","South Yorkshire","S73 0AA","01226 273820","https://www.jdwetherspoon.com/pubs/all-pubs/england/south-yorkshire/the-horseshoe-wombwell"
"The Joseph Bramah","53.552901","-1.481735","15 Market Hill","Barnsley","South Yorkshire","S70 2PX","01226 320890","https://www.jdwetherspoon.com/pubs/all-pubs/england/south-yorkshire/the-joseph-bramah-barnsley"
"The Old Market Hall","53.492769","-1.287533","Market Street","Mexborough","South Yorkshire","S64 9QA","01709 599820","https://www.jdwetherspoon.com/pubs/all-pubs/england/south-yorkshire/the-old-market-hall-mexborough"
"The Queens Hotel","53.423301","-1.196687","Tickhill Road","Rotherham","South Yorkshire","S66 7NQ","01709 797120","https://www.jdwetherspoon.com/pubs/all-pubs/england/south-yorkshire/the-queens-hotel-rotherham"
"The Rawson Spring","53.402014","-1.500166","Langsett Road","Sheffield","South Yorkshire","S6 2LN","0114 285 6200","https://www.jdwetherspoon.com/pubs/all-pubs/england/south-yorkshire/the-rawson-spring-sheffield"
"The Red Lion","53.523957","-1.132554","37–38 Market Place","Doncaster","South Yorkshire","DN1 1NH","01302 732120","https://www.jdwetherspoon.com/pubs/all-pubs/england/south-yorkshire/the-red-lion-doncaster"
"The Running Horse","53.480428","-1.010799","After Security, Robin Hood Airport","Doncaster","South Yorkshire","DN9 3GA","01302 625557","https://www.jdwetherspoon.com/pubs/all-pubs/england/south-yorkshire/the-running-horse-after-security"
"The Sheaf Island","53.372833","-1.481984","Wards Brewery, Ecclesall Road","Sheffield","South Yorkshire","S11 8HW","0114 267 7700","https://www.jdwetherspoon.com/pubs/all-pubs/england/south-yorkshire/the-sheaf-island-sheffield"
"The Silkstone Inn","53.551168","-1.480524","64 Market Street","Barnsley","South Yorkshire","S70 1SN","01226 320860","https://www.jdwetherspoon.com/pubs/all-pubs/england/south-yorkshire/the-silkstone-inn-barnsley"
"The Steel Foundry","53.413040","-1.412461","Unit 12, The Oasis, Meadowhall Centre","Sheffield","South Yorkshire","S9 1EP","0114 235 4480","https://www.jdwetherspoon.com/pubs/all-pubs/england/south-yorkshire/the-steel-foundry-sheffield"
"The Wagon & Horses","53.461684","-1.465563","2 Market Place","Sheffield","South Yorkshire","S35 2UU","0114 232 9980","https://www.jdwetherspoon.com/pubs/all-pubs/england/south-yorkshire/the-wagon--horses-sheffield"
"The Woodseats Palace","53.344149","-1.478358","692 Chesterfield Road","Sheffield","South Yorkshire","S8 0SD","01142556360","https://www.jdwetherspoon.com/pubs/all-pubs/england/south-yorkshire/the-woodseats-palace-sheffield"
"Parsons’ Barn","51.540773","0.7823130","Frobisher Way","Shoeburyness","Southend-on-Sea","SS3 8UT","01702 382000","https://www.jdwetherspoon.com/pubs/all-pubs/england/southendonsea/parsons-barn-shoeburyness"
"The Last Post","51.536483","0.7130050","Weston Road","Southend-on-Sea","Southend-on-Sea","SS1 1AS","01702 431682","https://www.jdwetherspoon.com/pubs/all-pubs/england/southendonsea/the-last-post-southend-on-sea"
"The Hedgeford Lodge","52.709197","-2.000375","Anglesey Lodge, Anglesey Street","Hednesford","Staffordshire","WS12 1DL","01543 878370","https://www.jdwetherspoon.com/pubs/all-pubs/england/staffordshire/hedgeford-lodge-hednesford"
"The Acorn Inn","52.683733","-1.825945","16–18 Tamworth Street","Lichfield","Staffordshire","WS13 6JJ","01543 263400","https://www.jdwetherspoon.com/pubs/all-pubs/england/staffordshire/the-acorn-inn-lichfield"
"The Arnold Machin","53.012193","-2.225344","37 Ironmarket","Newcastle-under-Lyme","Staffordshire","ST5 1PB","01782 557840","https://www.jdwetherspoon.com/pubs/all-pubs/england/staffordshire/the-arnold-machin-newcastleunderlyme"
"The Bole Bridge","52.633140","-1.691544","8 Bolebridge Street","Tamworth","Staffordshire","B79 7PA","01827 317510","https://www.jdwetherspoon.com/pubs/all-pubs/england/staffordshire/the-bole-bridge-tamworth"
"The Bradley Green","53.115715","-2.176331","68 High Street","Biddulph","Staffordshire","ST8 6AS","01782 375500","https://www.jdwetherspoon.com/pubs/all-pubs/england/staffordshire/the-bradley-green-biddulph"
"The Butler’s Bell","52.808706","-2.118298","25–27 Gaolgate Street","Stafford","Staffordshire","ST16 2NT","01785 785290","https://www.jdwetherspoon.com/pubs/all-pubs/england/staffordshire/the-butlers-bell-stafford"
"The Green Dragon","53.106534","-2.026960","2 St Edward Street","Leek","Staffordshire","ST13 5DS","01538 392540","https://www.jdwetherspoon.com/pubs/all-pubs/england/staffordshire/the-green-dragon-leek"
"The Linford Arms","52.689474","-2.032219","79 Market Place","Cannock","Staffordshire","WS11 1BN","01543 469360","https://www.jdwetherspoon.com/pubs/all-pubs/england/staffordshire/the-linford-arms-cannock"
"The Lord Burton","52.802992","-1.629501","154 High Street","Burton upon Trent","Staffordshire","DE14 1JE","01283 517587","https://www.jdwetherspoon.com/pubs/all-pubs/england/staffordshire/the-lord-burton-burton-upon-trent"
"The Old Swan","52.897960","-1.863266","Market Place","Uttoxeter","Staffordshire","ST14 8HN","01889 598650","https://www.jdwetherspoon.com/pubs/all-pubs/england/staffordshire/the-old-swan-uttoxeter"
"The Picture House","52.804441","-2.115915","Bridge Street","Stafford","Staffordshire","ST16 2HL","01785 222941","https://www.jdwetherspoon.com/pubs/all-pubs/england/staffordshire/the-picture-house-stafford"
"The Plaza","52.757438","-1.934890","Horsefair","Rugeley","Staffordshire","WS15 2EH","01889 586831","https://www.jdwetherspoon.com/pubs/all-pubs/england/staffordshire/the-plaza-rugeley"
"The Poste of Stone","52.903487","-2.148554","1 Granville Square","Stone","Staffordshire","ST15 8AB","01785 827920","https://www.jdwetherspoon.com/pubs/all-pubs/england/staffordshire/the-poste-of-stone-stone"
"The Reginald Mitchell","53.025320","-2.174163","The Tontine","Hanley","Staffordshire","ST1 1NQ","01782 281082","https://www.jdwetherspoon.com/pubs/all-pubs/england/staffordshire/the-reginald-mitchell-hanley"
"The Wheatsheaf","52.986782","-1.989753","53 High Street","Cheadle","Staffordshire","ST10 1AR","01538 758310","https://www.jdwetherspoon.com/pubs/all-pubs/england/staffordshire/the-wheatsheaf-cheadle"
"The Wheatsheaf","53.004065","-2.185283","84–92 Church Street","Stoke-on-Trent","Staffordshire","ST4 1BU","01782 747462","https://www.jdwetherspoon.com/pubs/all-pubs/england/staffordshire/the-wheatsheaf-stokeontrent"
"The Half Moon Inn","54.607379","-1.294102","Unit 1, 11–21 West Precinct","Billingham","Stockton-on-Tees","TS23 2NW","01642 555629","https://www.jdwetherspoon.com/pubs/all-pubs/england/stocktonontees/the-half-moon-inn-billingham"
"The Highland Laddie","54.587781","-1.310721","59 High Street","Norton","Stockton-on-Tees","TS20 1AQ","01642 539570","https://www.jdwetherspoon.com/pubs/all-pubs/england/stocktonontees/the-highland-laddie-norton"
"Grover & Allen","52.040777","0.7301540","68–69 North Street","Sudbury","Suffolk","CO10 1RF","01787 467660","https://www.jdwetherspoon.com/pubs/all-pubs/england/suffolk/grover--allen-sudbury"
"The Corn Exchange","52.244723","0.7122760","Abbeygate Street","Bury St Edmunds","Suffolk","IP33 1UL","01284 727300","https://www.jdwetherspoon.com/pubs/all-pubs/england/suffolk/the-corn-exchange-bury-st-edmunds"
"The Cricketers","52.059520","1.1546410","51 Crown Street","Ipswich","Suffolk","IP1 3JA","01473 225910","https://www.jdwetherspoon.com/pubs/all-pubs/england/suffolk/the-cricketers-ipswich"
"The Drabbet Smock","52.082715","0.4375270","5–6 Peas Hill","Haverhill","Suffolk","CB9 8BB","01440 713070","https://www.jdwetherspoon.com/pubs/all-pubs/england/suffolk/the-drabbet-smock-haverhill"
"The Golden Lion","52.244779","0.4073900","44 High Street","Newmarket","Suffolk","CB8 8LB","01638 672040","https://www.jdwetherspoon.com/pubs/all-pubs/england/suffolk/the-golden-lion-newmarket"
"The Joseph Conrad","52.474293","1.7509850","18–32 Station Square","Lowestoft","Suffolk","NR32 1BA","01502 533270","https://www.jdwetherspoon.com/pubs/all-pubs/england/suffolk/the-joseph-conrad-lowestoft"
"The Kings Head Hotel","52.457558","1.5631520","4–6 New Market","Beccles","Suffolk","NR34 9HA","01502 718730","https://www.jdwetherspoon.com/pubs/all-pubs/england/suffolk/the-kings-head-hotel-beccles"
"The Willow Tree","52.185492","0.9990270","101 Ipswich Street","Stowmarket","Suffolk","IP14 1BB","01449 618090","https://www.jdwetherspoon.com/pubs/all-pubs/england/suffolk/the-willow-tree-stowmarket"
"The Assembly Rooms","51.332762","-0.270009","147–153 High Street","Epsom","Surrey","KT19 8EH","01372 737290","https://www.jdwetherspoon.com/pubs/all-pubs/england/surrey/the-assembly-rooms-epsom"
"The Claude du Vall","51.337192","-0.743687","77–81 High Street","Camberley","Surrey","GU15 3RB","01276 672910","https://www.jdwetherspoon.com/pubs/all-pubs/england/surrey/the-claude-du-vall-camberley"
"The Edmund Tylney","51.295354","-0.327456","30–34 High Street","Leatherhead","Surrey","KT22 8AW","01372 362715","https://www.jdwetherspoon.com/pubs/all-pubs/england/surrey/the-edmund-tylney-leatherhead"
"The George","51.433656","-0.513366","2–8 High Street","Staines","Surrey","TW18 4EE","01784 462181","https://www.jdwetherspoon.com/pubs/all-pubs/england/surrey/the-george-staines"
"The Herbert Wells","51.320567","-0.555470","51–57 Chertsey Road","Woking","Surrey","GU21 5AJ","01483 722818","https://www.jdwetherspoon.com/pubs/all-pubs/england/surrey/the-herbert-wells-woking"
"The Jack Fairman","51.170349","-0.161764","30 Victoria Road","Horley","Surrey","RH6 7PZ","01293 827910","https://www.jdwetherspoon.com/pubs/all-pubs/england/surrey/the-jack-fairman-horley"
"The Jack Phillips","51.185709","-0.612217","48–56 High Street","Godalming","Surrey","GU7 1DY","01483 521750","https://www.jdwetherspoon.com/pubs/all-pubs/england/surrey/the-jack-phillips-godalming"
"The Oxted Inn","51.257473","-0.004753","Units 1–4, Hoskins Walk","Oxted","Surrey","RH8 9HR","01883 723440","https://www.jdwetherspoon.com/pubs/all-pubs/england/surrey/the-oxted-inn-oxted"
"The Rodboro Buildings","51.236732","-0.577610","1–10 Bridge Street","Guildford","Surrey","GU1 4RY","01483 306366","https://www.jdwetherspoon.com/pubs/all-pubs/england/surrey/the-rodboro-buildings-guildford"
"The Sun","51.241219","-0.167925","17–21 London Road","Redhill","Surrey","RH1 1LY","01737 766886","https://www.jdwetherspoon.com/pubs/all-pubs/england/surrey/the-sun-redhill"
"The Thomas Botfield","52.675617","-2.445659","Central Square","Telford","Telford & Wrekin","TF3 4BW","01952 292672","https://www.jdwetherspoon.com/pubs/all-pubs/england/telford--wrekin/the-thomas-botfield-telford"
"The Cooper Rose","54.903408","-1.387901","2–4 Albion Place","Sunderland","Tyne and Wear","SR1 3NG","0191 514 8530","https://www.jdwetherspoon.com/pubs/all-pubs/england/tyne-and-wear/the-cooper-rose-sunderland"
"The Fire Station","55.042515","-1.445076","18 York Road","Whitley Bay","Tyne and Wear","NE26 1AB","0191 293 9030","https://www.jdwetherspoon.com/pubs/all-pubs/england/tyne-and-wear/the-fire-station-whitley-bay"
"The Five Swans","54.977800","-1.611770","14 St Marys Place","Newcastle upon Tyne","Tyne and Wear","NE1 7PG","0191 211 1140","https://www.jdwetherspoon.com/pubs/all-pubs/england/tyne-and-wear/the-five-swans-newcastle-upon-tyne"
"The Harry Clasper","54.945865","-1.673357","Front Street","Whickham","Tyne and Wear","NE16 4HF","0191 488 3418","https://www.jdwetherspoon.com/pubs/all-pubs/england/tyne-and-wear/the-harry-clasper-whickham"
"The High Main","54.976740","-1.584256","63 Shields Road","Newcastle upon Tyne","Tyne and Wear","NE6 1DL","0191 228 4900","https://www.jdwetherspoon.com/pubs/all-pubs/england/tyne-and-wear/the-high-main-newcastle-upon-tyne"
"The Job Bulman","55.004768","-1.619370","St Nicholas Avenue","Newcastle upon Tyne","Tyne and Wear","NE3 1AA","0191 223 6320","https://www.jdwetherspoon.com/pubs/all-pubs/england/tyne-and-wear/the-job-bulman-newcastle-upon-tyne"
"The Keel Row","54.972519","-1.617607","Unit G3, Ground Floor, The Gate Cinema Complex","Newcastle upon Tyne","Tyne and Wear","NE1 5RF","0191 229 9430","https://www.jdwetherspoon.com/pubs/all-pubs/england/tyne-and-wear/the-keel-row-newcastle-upon-tyne"
"The Mile Castle","54.970068","-1.616518","19–25 Westgate Road & Grainger Street","Newcastle upon Tyne","Tyne and Wear","NE1 5XU","0191 211 1160","https://www.jdwetherspoon.com/pubs/all-pubs/england/tyne-and-wear/the-mile-castle-newcastle-upon-tyne"
"The Quayside","54.967660","-1.610529","35–37 The Close","Newcastle upon Tyne","Tyne and Wear","NE1 3RN","0191 211 1050","https://www.jdwetherspoon.com/pubs/all-pubs/england/tyne-and-wear/the-quayside-newcastle-upon-tyne"
"The Ritz","54.990500","-1.536996","87–93 High Street West","Wallsend","Tyne and Wear","NE28 8JD","0191 296 9600","https://www.jdwetherspoon.com/pubs/all-pubs/england/tyne-and-wear/the-ritz-wallsend"
"The Sir William de Wessyngton","54.912658","-1.522992","2–3 Victoria Road","Washington","Tyne and Wear","NE37 2SY","0191 418 0100","https://www.jdwetherspoon.com/pubs/all-pubs/england/tyne-and-wear/the-sir-william-de-wessyngton-washington"
"The Tilley Stone","54.961737","-1.602189","Unit 9–10 Jackson Street","Gateshead","Tyne and Wear","NE8 1EE","0191 478 0060","https://www.jdwetherspoon.com/pubs/all-pubs/england/tyne-and-wear/the-tilley-stone-gateshead"
"The Wild Boar","54.843412","-1.469199","Frederick Place","Houghton-le-Spring","Tyne and Wear","DH4 4BN","0191 512 8050","https://www.jdwetherspoon.com/pubs/all-pubs/england/tyne-and-wear/the-wild-boar-houghtonlespring"
"The William Jameson","54.904626","-1.381052","30–32 Fawcett Street","Sunderland","Tyne and Wear","SR1 1RH","0191 514 5016","https://www.jdwetherspoon.com/pubs/all-pubs/england/tyne-and-wear/the-william-jameson-sunderland"
"The Wouldhave","54.999935","-1.433382","16 Mile End Road","South Shields","Tyne and Wear","NE33 1TA","0191 427 6014","https://www.jdwetherspoon.com/pubs/all-pubs/england/tyne-and-wear/the-wouldhave-south-shields"
"Wetherspoons","54.957641","-1.668555","85 Russell Way","Gateshead","Tyne and Wear","NE11 9YP","0191 460 5073","https://www.jdwetherspoon.com/pubs/all-pubs/england/tyne-and-wear/wetherspoons-gateshead"
"Rupert Brooke","52.373030","-1.259349","8–10 Castle Street","Rugby","Warwickshire","CV21 2TP","01788 576759","https://www.jdwetherspoon.com/pubs/all-pubs/england/warwickshire/rupert-brooke-rugby"
"The Bear and Ragged Staff","52.479607","-1.471069","50 King Street","Bedworth","Warwickshire","CV12 8JA","024 7649 4340","https://www.jdwetherspoon.com/pubs/all-pubs/england/warwickshire/the-bear-and-ragged-staff-bedworth"
"The Benjamin Satchwell","52.289716","-1.535581","112–114 The Parade","Royal Leamington Spa","Warwickshire","CV32 4AQ","01926 883733","https://www.jdwetherspoon.com/pubs/all-pubs/england/warwickshire/the-benjamin-satchwell-royal-leamington-spa"
"The Felix Holt","52.523007","-1.469525","3 Stratford Street","Nuneaton","Warwickshire","CV11 5BS","024 7634 7785","https://www.jdwetherspoon.com/pubs/all-pubs/england/warwickshire/the-felix-holt-nuneaton"
"The Golden Bee","52.191596","-1.705680","41–42 Sheep Street","Stratford-upon-Avon","Warwickshire","CV37 6EE","01789 203860","https://www.jdwetherspoon.com/pubs/all-pubs/england/warwickshire/the-golden-bee-stratforduponavon"
"The Thomas Lloyd","52.282280","-1.590252","3–7 Market Place","Warwick","Warwickshire","CV34 4SA","01926 475690","https://www.jdwetherspoon.com/pubs/all-pubs/england/warwickshire/the-thomas-lloyd-warwick"
"Abraham Darby","52.479426","-2.111407","Merry Hill Centre","Brierley Hill","West Midlands","DY5 1SX","01384 472850","https://www.jdwetherspoon.com/pubs/all-pubs/england/west-midlands/abraham-darby-brierley-hill"
"St. Matthew’s Hall","52.585188","-1.979812","Lichfield Street","Walsall","West Midlands","WS1 1SX","01922 700820","https://www.jdwetherspoon.com/pubs/all-pubs/england/west-midlands/st-matthews-hall-walsall"
"The Arthur Robertson","52.516921","-1.902602","Walsall Road","Birmingham","West Midlands","B42 1AA","0121 332 5910","https://www.jdwetherspoon.com/pubs/all-pubs/england/west-midlands/the-arthur-robertson-birmingham"
"The Atrium","52.454597","-1.717906","Birmingham NEC","Birmingham","West Midlands","B40 1NT","0121 782 7757","https://www.jdwetherspoon.com/pubs/all-pubs/england/west-midlands/the-atrium-birmingham"
"The Avion","52.603429","-1.919698","19 Anchor Road","Aldridge","West Midlands","WS9 8PT","01922 749810","https://www.jdwetherspoon.com/pubs/all-pubs/england/west-midlands/the-avion-aldridge"
"The Bellwether","52.553248","-2.018997","3–4 Walsall Street","Wednesbury","West Midlands","WS10 9BZ","0121 502 6404","https://www.jdwetherspoon.com/pubs/all-pubs/england/west-midlands/the-bellwether-wednesbury"
"The Billiard Hall","52.518473","-1.995236","St Michael’s Street","West Bromwich","West Midlands","B70 7AB","0121 580 2892","https://www.jdwetherspoon.com/pubs/all-pubs/england/west-midlands/the-billiard-hall-west-bromwich"
"The Bishop Vesey","52.548528","-1.841088","63 Boldmere Road","Sutton Coldfield","West Midlands","B73 5XA","0121 355 5077","https://www.jdwetherspoon.com/pubs/all-pubs/england/west-midlands/the-bishop-vesey-sutton-coldfield"
"The Black Horse","52.411922","-1.973423","Bristol Road South","Birmingham","West Midlands","B31 2QT","0121 477 1800","https://www.jdwetherspoon.com/pubs/all-pubs/england/west-midlands/the-black-horse-birmingham"
"The Bloxwich Showman","52.614780","-2.004171","156A High Street","Bloxwich","West Midlands","WS3 3JT","01922 495366","https://www.jdwetherspoon.com/pubs/all-pubs/england/west-midlands/the-bloxwich-showman-bloxwich"
"The Bottle of Sack","52.560252","-1.825511","2 Birmingham Road","Sutton Coldfield","West Midlands","B72 1QG","0121 362 8870","https://www.jdwetherspoon.com/pubs/all-pubs/england/west-midlands/the-bottle-of-sack-sutton-coldfield"
"The Briar Rose","52.479918","-1.900193","25 Bennetts Hill","Birmingham","West Midlands","B2 5RE","0121 634 8100","https://www.jdwetherspoon.com/pubs/all-pubs/england/west-midlands/the-briar-rose-birmingham"
"The Britannia","52.473732","-2.041796","124 Halesowen Street","Rowley Regis","West Midlands","B65 0ES","0121 559 0010","https://www.jdwetherspoon.com/pubs/all-pubs/england/west-midlands/the-britannia-rowley-regis"
"The Charlie Hall","52.524249","-1.839970","49 Barnabas Road","Birmingham","West Midlands","B23 6SH","0121 384 2716","https://www.jdwetherspoon.com/pubs/all-pubs/england/west-midlands/the-charlie-hall-birmingham"
"The Chequers Inn","52.454977","-2.143758","96 High Street","Stourbridge","West Midlands","DY8 1EQ","01384 398670","https://www.jdwetherspoon.com/pubs/all-pubs/england/west-midlands/the-chequers-inn-stourbridge"
"The City Arms","52.399650","-1.530717","1 Earlsdon Street","Coventry","West Midlands","CV5 6EP","024 7671 8170","https://www.jdwetherspoon.com/pubs/all-pubs/england/west-midlands/the-city-arms-coventry"
"The Clifton","52.541402","-2.122461","Bull Ring","Sedgley","West Midlands","DY3 1RX","01902 677448","https://www.jdwetherspoon.com/pubs/all-pubs/england/west-midlands/the-clifton-sedgley"
"The Court of Requests","52.504695","-2.015851","Church Street","Oldbury","West Midlands","B69 3AF","0121 543 6970","https://www.jdwetherspoon.com/pubs/all-pubs/england/west-midlands/the-court-of-requests-oldbury"
"The Dragon Inn","52.474271","-1.896646","Hurst Street","Birmingham","West Midlands","B5 4TD","0121 622 7850","https://www.jdwetherspoon.com/pubs/all-pubs/england/west-midlands/the-dragon-inn-birmingham"
"The Earl of Mercia","52.407130","-1.508567","18 High Street","Coventry","West Midlands","CV1 5RE","024 7643 3990","https://www.jdwetherspoon.com/pubs/all-pubs/england/west-midlands/the-earl-of-mercia-coventry"
"The Elizabeth of York","52.446314","-1.887532","12a St Mary’s Row","Moseley","West Midlands","B13 8JG","0121 442 5250","https://www.jdwetherspoon.com/pubs/all-pubs/england/west-midlands/the-elizabeth-of-york-moseley"
"The Figure of Eight","52.476565","-1.912312","236–239 Broad Street","Birmingham","West Midlands","B1 2HG","0121 633 0917","https://www.jdwetherspoon.com/pubs/all-pubs/england/west-midlands/the-figure-of-eight-birmingham"
"The Flying Standard","52.409068","-1.509486","2–10  Trinity Street","Coventry","West Midlands","CV1 1FL","024 7655 5723","https://www.jdwetherspoon.com/pubs/all-pubs/england/west-midlands/the-flying-standard-coventry"
"The Full Moon","52.509425","-2.084455","58–60 High Street","Dudley","West Midlands","DY1 1PY","01384 212294","https://www.jdwetherspoon.com/pubs/all-pubs/england/west-midlands/the-full-moon-dudley"
"The Hornet","52.492716","-1.819487","991 Alum Rock Road","Birmingham","West Midlands","B8 2LY","0121 789 5920","https://www.jdwetherspoon.com/pubs/all-pubs/england/west-midlands/the-hornet-birmingham"
"The Malthouse","52.582960","-2.055027","The Dale","Willenhall","West Midlands","WV13 2BG","01902 635273","https://www.jdwetherspoon.com/pubs/all-pubs/england/west-midlands/the-malthouse-willenhall"
"The Mare Pool","52.586540","-1.828419","294 Lichfield Road","Mere Green","West Midlands","B74 2UG","0121 323 1070","https://www.jdwetherspoon.com/pubs/all-pubs/england/west-midlands/the-mare-pool-mere-green"
"The Moon Under Water","52.472103","-2.082466","164–166 High Street","Cradley Heath","West Midlands","B64 5HJ","01384 565419","https://www.jdwetherspoon.com/pubs/all-pubs/england/west-midlands/the-moon-under-water-cradley-heath"
"The Moon Under Water","52.586747","-2.124171","53–55 Lichfield Street","Wolverhampton","West Midlands","WV1 1EQ","01902 422447","https://www.jdwetherspoon.com/pubs/all-pubs/england/west-midlands/the-moon-under-water-wolverhampton"
"The Pear Tree","52.431936","-1.892767","25–27 Alcester Road South","Birmingham","West Midlands","B14 7JQ","0121 441 6710","https://www.jdwetherspoon.com/pubs/all-pubs/england/west-midlands/the-pear-tree-birmingham"
"The Pump House","52.412863","-1.827759","Unit 1 Parkgate Development, Stratford Road","Solihull","West Midlands","B90 3AQ","0121 701 5460","https://www.jdwetherspoon.com/pubs/all-pubs/england/west-midlands/the-pump-house-solihull"
"The Royal Tiger","52.600292","-2.081891","41–43 The High Street","Wednesfield","West Midlands","WV11 1ST","01902 307816","https://www.jdwetherspoon.com/pubs/all-pubs/england/west-midlands/the-royal-tiger-wednesfield"
"The Sir Henry Newbolt","52.564048","-2.080305","45–47 High Street","Bilston","West Midlands","WV14 0EP","01902 404636","https://www.jdwetherspoon.com/pubs/all-pubs/england/west-midlands/the-sir-henry-newbolt-bilston"
"The Soloman Cutler","52.478124","-1.910082","Regency Wharf","Birmingham","West Midlands","B1 2DS","0121 631 8930","https://www.jdwetherspoon.com/pubs/all-pubs/england/west-midlands/the-soloman-cutler-birmingham"
"The Spon Gate","52.407202","-1.517802","Unit 2M, The Skydome, Croft Road","Coventry","West Midlands","CV1 3AZ","024 7662 7300","https://www.jdwetherspoon.com/pubs/all-pubs/england/west-midlands/the-spon-gate-coventry"
"The Spread Eagle","52.446730","-1.819665","1146a  Warwick Road","Birmingham","West Midlands","B27 6BL","0121 708 0194","https://www.jdwetherspoon.com/pubs/all-pubs/england/west-midlands/the-spread-eagle-birmingham"
"The Square Peg","52.481874","-1.894953","115 Corporation Street","Birmingham","West Midlands","B4 6PH","0121 236 6530","https://www.jdwetherspoon.com/pubs/all-pubs/england/west-midlands/the-square-peg-birmingham"
"The Waterfront Inn","52.485688","-2.114407","6–7 The Waterfront","Brierley Hill","West Midlands","DY5 1XE","01384 262096","https://www.jdwetherspoon.com/pubs/all-pubs/england/west-midlands/the-waterfront-inn-brierley-hill"
"The White Swan","52.414457","-1.781063","32–34 Station Road","Solihull","West Midlands","B91 3SB","0121 711 5180","https://www.jdwetherspoon.com/pubs/all-pubs/england/west-midlands/the-white-swan-solihull"
"The William Shenstone","52.449699","-2.050818","1–5 Queensway","Halesowen","West Midlands","B63 4AB","0121 585 6246","https://www.jdwetherspoon.com/pubs/all-pubs/england/west-midlands/the-william-shenstone-halesowen"
"The William Tyler","52.467438","-1.808551","140 Church Road","Birmingham","West Midlands","B25 8UT","0121 789 5860","https://www.jdwetherspoon.com/pubs/all-pubs/england/west-midlands/the-william-tyler-birmingham"
"Airport Wetherspoons","52.453344","-1.732618","After Security, Terminal 1, Birmingham International Airport","Birmingham","West Midlands","B26 3QJ","0121 782 8823","https://www.jdwetherspoon.com/pubs/all-pubs/england/west-midlands/wetherspoons-birmingham-airport"
"NEC Wetherspoons","52.453891","-1.717070","Birmingham NEC","Birmingham","West Midlands","B40 1NT","0121 767 9140","https://www.jdwetherspoon.com/pubs/all-pubs/england/west-midlands/wetherspoons-birmingham-nec-exhibition-centre"
"The Beehive","51.155990","-0.163049","Before Security, South Terminal, Gatwick Airport","Crawley","West Sussex","RH6 0NQ","01293 505802","https://www.jdwetherspoon.com/pubs/all-pubs/england/west-sussex/the-beehive-before-security-south-terminal"
"The Dolphin & Anchor","50.836676","-0.779968","West Street","Chichester","West Sussex","PO19 1QD","01243 790280","https://www.jdwetherspoon.com/pubs/all-pubs/england/west-sussex/the-dolphin--anchor-chichester"
"The Flying Horse","51.155990","-0.163049","After Security, South Terminal, Gatwick Airport","Crawley","West Sussex","RH6 0NN","01293 503151","https://www.jdwetherspoon.com/pubs/all-pubs/england/west-sussex/the-flying-horse-after-security-south-terminal"
"The George Inn","50.809132","-0.543730","14–18 Surrey Street","Littlehampton","West Sussex","BN17 5BG","01903 739863","https://www.jdwetherspoon.com/pubs/all-pubs/england/west-sussex/the-george-inn-littlehampton"
"The Hatter’s Inn","50.783175","-0.675540","2–10 Queensway","Bognor Regis","West Sussex","PO21 1QT","01243 840206","https://www.jdwetherspoon.com/pubs/all-pubs/england/west-sussex/the-hatters-inn-bognor-regis"
"The Jubilee Oak","51.115383","-0.190369","6 Grand Parade","Crawley","West Sussex","RH10 1BU","01293 565335","https://www.jdwetherspoon.com/pubs/all-pubs/england/west-sussex/the-jubilee-oak-crawley"
"The Lynd Cross","51.063625","-0.332293","St John’s House","Horsham","West Sussex","RH12 2PG","01403 272393","https://www.jdwetherspoon.com/pubs/all-pubs/england/west-sussex/the-lynd-cross-horsham"
"The Ounce & Ivy Bush","51.126476","-0.008773","The Atrium","East Grinstead","West Sussex","RH19 3DJ","01342 335130","https://www.jdwetherspoon.com/pubs/all-pubs/england/west-sussex/the-ounce--ivy-bush-east-grinstead"
"The Red Lion","51.161299","-0.179121","After Security, North Terminal, Gatwick Airport","Crawley","West Sussex","RH6 0PJ","01293 569874","https://www.jdwetherspoon.com/pubs/all-pubs/england/west-sussex/the-red-lion-after-security-north-terminal"
"The Six Gold Martlets","50.956203","-0.131755","49–51 Church Walk","Burgess Hill","West Sussex","RH15 9BQ","01444 231250","https://www.jdwetherspoon.com/pubs/all-pubs/england/west-sussex/the-six-gold-martlets-burgess-hill"
"The Three Fishes","50.813290","-0.370706","56 Chapel Road","Worthing","West Sussex","BN11 1BE","01903 288640","https://www.jdwetherspoon.com/pubs/all-pubs/england/west-sussex/the-three-fishes-worthing"
"Becketts Bank","53.798580","-1.547285","28–30 Park Row","Leeds","West Yorkshire","LS1 5HU","0113 394 5900","https://www.jdwetherspoon.com/pubs/all-pubs/england/west-yorkshire/becketts-bank-leeds"
"The Barum Top Inn","53.721678","-1.862741","17 Rawson Street","Halifax","West Yorkshire","HX1 1NX","01422 300488","https://www.jdwetherspoon.com/pubs/all-pubs/england/west-yorkshire/the-barum-top-inn-halifax"
"The Blue Bell","53.613552","-1.354261","8 Cross Hill","Pontefract","West Yorkshire","WF9 4LQ","01977 624930","https://www.jdwetherspoon.com/pubs/all-pubs/england/west-yorkshire/the-blue-bell-pontefract"
"The Bowling Green","53.904207","-1.692899","18 Bondgate","Otley","West Yorkshire","LS21 3AB","01943 858980","https://www.jdwetherspoon.com/pubs/all-pubs/england/west-yorkshire/the-bowling-green-otley"
"The Briggate","53.7935237","-1.3883341","37 Main Street","Leeds","West Yorkshire","LS25 1DS","01133 854500","https://www.jdwetherspoon.com/pubs/all-pubs/england/west-yorkshire/the-briggate-leeds"
"The Broken Bridge","53.692556","-1.309399","5 Horsefair","Pontefract","West Yorkshire","WF8 1PD","01977 781640","https://www.jdwetherspoon.com/pubs/all-pubs/england/west-yorkshire/the-broken-bridge-pontefract"
"The Cherry Tree","53.647402","-1.782398","Pearl Assurance House","Huddersfield","West Yorkshire","HD1 1BA","01484 448190","https://www.jdwetherspoon.com/pubs/all-pubs/england/west-yorkshire/the-cherry-tree-huddersfield"
"The Clothier’s Arms","53.866113","-1.681586","56 High Street","Leeds","West Yorkshire","LS19 7PP","0113 238 6970","https://www.jdwetherspoon.com/pubs/all-pubs/england/west-yorkshire/the-clothiers-arms-leeds"
"The Commercial Inn","53.709538","-1.907801","The Wharf, 31 Wharf Street","Sowerby Bridge","West Yorkshire","HX6 2LA","01422 317350","https://www.jdwetherspoon.com/pubs/all-pubs/england/west-yorkshire/the-commercial-inn-sowerby-bridge"
"The Crossed Shuttle","53.796504","-1.661856","11 Manor House Street","Leeds","West Yorkshire","LS28 7BJ","0113 205 8190","https://www.jdwetherspoon.com/pubs/all-pubs/england/west-yorkshire/the-crossed-shuttle-leeds"
"The Cuthbert Brodrick","53.801747","-1.547888","99 Portland Crescent","Leeds","West Yorkshire","LS2 3AD","0113 204 8570","https://www.jdwetherspoon.com/pubs/all-pubs/england/west-yorkshire/the-cuthbert-brodrick-leeds"
"The Glass Blower","53.726941","-1.353853","15 Bank Street","Castleford","West Yorkshire","WF10 1JD","01977 520390","https://www.jdwetherspoon.com/pubs/all-pubs/england/west-yorkshire/the-glass-blower-castleford"
"The Hedley Verity","53.802007","-1.545685","43a Woodhouse Lane","Leeds","West Yorkshire","LS1 3HQ","0113 390 7590","https://www.jdwetherspoon.com/pubs/all-pubs/england/west-yorkshire/the-hedley-verity-leeds"
"The Lister Arms","53.925738","-1.825689","14 The Moors Shopping Centre","Ilkley","West Yorkshire","LS29 9LB","01943 811240","https://www.jdwetherspoon.com/pubs/all-pubs/england/west-yorkshire/the-lister-arms-ilkley"
"The Livery Rooms","53.868726","-1.909999","89–97 North Street","Keighley","West Yorkshire","BD21 3AA","01535 682950","https://www.jdwetherspoon.com/pubs/all-pubs/england/west-yorkshire/the-livery-rooms-keighley"
"The Lord Wilson","53.645647","-1.779138","Unit 27, Kingsgate Centre","Huddersfield","West Yorkshire","HD1 2PZ","01484 411020","https://www.jdwetherspoon.com/pubs/all-pubs/england/west-yorkshire/the-lord-wilson-huddersfield"
"The Myrtle Grove","53.847262","-1.837362","141 Main Street","Bingley","West Yorkshire","BD16 1AJ","01274 568637","https://www.jdwetherspoon.com/pubs/all-pubs/england/west-yorkshire/the-myrtle-grove-bingley"
"The Obediah Brooke","53.724622","-1.712401","19 Bradford Road","Cleckheaton","West Yorkshire","BD19 3JH","01274 860700","https://www.jdwetherspoon.com/pubs/all-pubs/england/west-yorkshire/the-obediah-brooke-cleckheaton"
"The Old Unicorn","53.810925","-1.627304","165 Town Street","Leeds","West Yorkshire","LS13 3NA","0113 255 5001","https://www.jdwetherspoon.com/pubs/all-pubs/england/west-yorkshire/the-old-unicorn-leeds"
"The Percy Shaw","53.725100","-1.859882","Broad Street","Halifax","West Yorkshire","HX1 1YA","01422 339500","https://www.jdwetherspoon.com/pubs/all-pubs/england/west-yorkshire/the-percy-shaw-halifax"
"The Picture House","53.744171","-1.600059","117/117a Queen Street","Leeds","West Yorkshire","LS27 8HE","0113 252 8681","https://www.jdwetherspoon.com/pubs/all-pubs/england/west-yorkshire/the-picture-house-leeds"
"The Richard Oastler","53.701401","-1.779926","Bethel Street","Brighouse","West Yorkshire","HD6 1JN","01484 401756","https://www.jdwetherspoon.com/pubs/all-pubs/england/west-yorkshire/the-richard-oastler-brighouse"
"The Sir Norman Rae","53.833938","-1.776932","Victoria House","Shipley","West Yorkshire","BD18 3QB","01274 535290","https://www.jdwetherspoon.com/pubs/all-pubs/england/west-yorkshire/the-sir-norman-rae-shipley"
"The Six Chimneys","53.682919","-1.494346","41–43 Kirkgate","Wakefield","West Yorkshire","WF1 1HX","01924 239449","https://www.jdwetherspoon.com/pubs/all-pubs/england/west-yorkshire/the-six-chimneys-wakefield"
"The Three Hulats","53.826077","-1.535324","13 Harrogate Road","Leeds","West Yorkshire","LS7 3NB","0113 262 0524","https://www.jdwetherspoon.com/pubs/all-pubs/england/west-yorkshire/the-three-hulats-leeds"
"The Turls Green","53.793032","-1.754838","Unit D, Centenary Square","Bradford","West Yorkshire","BD1 1HY","01274 718330","https://www.jdwetherspoon.com/pubs/all-pubs/england/west-yorkshire/the-turls-green-bradford"
"The Union Rooms","53.712637","-1.628588","4 Hick Lane","Batley","West Yorkshire","WF17 5HW","01924 448990","https://www.jdwetherspoon.com/pubs/all-pubs/england/west-yorkshire/the-union-rooms-batley"
"The White Hart","53.714243","-2.098004","Station Approach","Todmorden","West Yorkshire","OL14 7BD","01706 811760","https://www.jdwetherspoon.com/pubs/all-pubs/england/west-yorkshire/the-white-hart-todmorden"
"The Winter Seam","53.710173","-1.341896","Xscape","Castleford","West Yorkshire","WF10 4TA","01977 664610","https://www.jdwetherspoon.com/pubs/all-pubs/england/west-yorkshire/the-winter-seam-castleford"
"Wetherspoons","53.794167","-1.547586","North Concourse","Leeds","West Yorkshire","LS1 4DY","0113 247 1676","https://www.jdwetherspoon.com/pubs/all-pubs/england/west-yorkshire/wetherspoons-leeds"
"The Albany Palace","51.320004","-2.206405","1 Park Road","Trowbridge","Wiltshire","BA14 8AQ","01225 781980","https://www.jdwetherspoon.com/pubs/all-pubs/england/wiltshire/the-albany-palace-trowbridge"
"The Bath Arms","51.204758","-2.180071","41 Market Place","Warminster","Wiltshire","BA12 9AZ","01985 853920","https://www.jdwetherspoon.com/pubs/all-pubs/england/wiltshire/the-bath-arms-warminster"
"The Bear","51.374932","-2.138620","3 Bath Road","Melksham","Wiltshire","SN12 6LL","01225 792690","https://www.jdwetherspoon.com/pubs/all-pubs/england/wiltshire/the-bear-melksham"
"The Bell","51.172115","-1.780965","13–15 Salisbury Street","Amesbury","Wiltshire","SP4 7AW","01980 677700","https://www.jdwetherspoon.com/pubs/all-pubs/england/wiltshire/the-bell-amesbury"
"The Bridge House","51.458390","-2.117888","Borough Parade","Chippenham","Wiltshire","SN15 3WL","01249 450980","https://www.jdwetherspoon.com/pubs/all-pubs/england/wiltshire/the-bridge-house-chippenham"
"The Dockle Farmhouse","51.574860","-1.754279","2 Bridge End Road","Swindon","Wiltshire","SN3 4PD","01793 838910","https://www.jdwetherspoon.com/pubs/all-pubs/england/wiltshire/the-dockle-farmhouse-swindon"
"The King’s Head Inn","51.068624","-1.798179","1 Bridge Street","Salisbury","Wiltshire","SP1 2ND","01722 342050","https://www.jdwetherspoon.com/pubs/all-pubs/england/wiltshire/the-kings-head-inn-salisbury"
"The Savoy","51.560010","-1.782671","38–40 Regent Street","Swindon","Wiltshire","SN1 1JL","01793 533970","https://www.jdwetherspoon.com/pubs/all-pubs/england/wiltshire/the-savoy-swindon"
"The Silk Mercer","51.351756","-1.995355","St Johns Street","Devizes","Wiltshire","SN10 1BL","01380 736760","https://www.jdwetherspoon.com/pubs/all-pubs/england/wiltshire/the-silk-mercer-devizes"
"The Sir Daniel Arms","51.562324","-1.787637","Fleet Street","Swindon","Wiltshire","SN1 1RQ","01793 509270","https://www.jdwetherspoon.com/pubs/all-pubs/england/wiltshire/the-sir-daniel-arms-swindon"
"George Hotel","52.375770","-2.315428","Load Street","Bewdley","Worcestershire","DY12 2AW","01299 406970","https://www.jdwetherspoon.com/pubs/all-pubs/england/worcestershire/george-hotel-bewdley"
"Golden Cross Hotel","52.333918","-2.061787","20 High Street","Bromsgrove","Worcestershire","B61 8HH","01527 870005","https://www.jdwetherspoon.com/pubs/all-pubs/england/worcestershire/golden-cross-hotel-bromsgrove"
"The Crown","52.192865","-2.222120","Crown Passage","Worcester","Worcestershire","WR1 3LL","01905 721870","https://www.jdwetherspoon.com/pubs/all-pubs/england/worcestershire/the-crown-worcester"
"The Foley Arms Hotel","52.112482","-2.330037","14 Worcester Road","Great Malvern","Worcestershire","WR14 4QS","01684 580350","https://www.jdwetherspoon.com/pubs/all-pubs/england/worcestershire/the-foley-arms-hotel-great-malvern"
"The Old Swanne Inne","52.094272","-1.946456","66 High Street","Evesham","Worcestershire","WR11 4HG","01386 442650","https://www.jdwetherspoon.com/pubs/all-pubs/england/worcestershire/the-old-swanne-inne-evesham"
"The Postal Order","52.195499","-2.221875","18 Foregate Street","Worcester","Worcestershire","WR1 1DN","</p>","https://www.jdwetherspoon.com/pubs/all-pubs/england/worcestershire/the-postal-order-worcester"
"The Rising Sun","52.305898","-1.938611","Unit 4, Alcester Street","Redditch","Worcestershire","B98 8AE","01527 62452","https://www.jdwetherspoon.com/pubs/all-pubs/england/worcestershire/the-rising-sun-redditch"
"The Royal Enfield","52.307042","-1.943181","The Old Cinema, Unicorn Hill","Redditch","Worcestershire","B97 4QR","01527 590970","https://www.jdwetherspoon.com/pubs/all-pubs/england/worcestershire/the-royal-enfield-redditch"
"The Bridge House","54.593013","-5.931808","35–43 Bedford Street","Belfast","County Antrim","BT2 7EJ","028 9072 7890","https://www.jdwetherspoon.com/pubs/all-pubs/n-ireland/county-antrim/the-bridge-house-belfast"
"The Central Bar","54.714593","-5.806399","13–15 High Street","Carrickfergus","County Antrim","BT38 7AN","028 9335 7840","https://www.jdwetherspoon.com/pubs/all-pubs/n-ireland/county-antrim/the-central-bar-carrickfergus"
"The Tuesday Bell","54.510224","-6.046636","4 Lisburn Square","Lisburn","County Antrim","BT28 1TS","028 9262 7390","https://www.jdwetherspoon.com/pubs/all-pubs/n-ireland/county-antrim/the-tuesday-bell-lisburn"
"The Spirit Merchant","54.594336","-5.701269","54–56 Regent Street","Newtownards","County Down","BT23 4LP","028 9182 4270","https://www.jdwetherspoon.com/pubs/all-pubs/n-ireland/county-down/the-spirit-merchant-newtownards"
"The Tullow Gate","52.8363355","-6.9313622","7 Tullow Street","Carlow","County Carlow","BT23 4LP","+353 59 914 2432","https://www.jdwetherspoon.com/pubs/all-pubs/republic-of-ireland/county-carlow/the-tullow-gate-carlow"
"The Linen Weaver","51.899285","-8.474509","Paul Street, Plaza","Cork","County Cork","BT23 4LP","+353 21 422 2970","https://www.jdwetherspoon.com/pubs/all-pubs/republic-of-ireland/county-cork/the-linen-weaver-cork"
"The Forty Foot","53.294142","-6.133645","The Pavilion Centre, Marine Road","Dún Laoghaire","County Dublin","BT23 4LP","+353 1 231 1926","https://www.jdwetherspoon.com/pubs/all-pubs/republic-of-ireland/county-dublin/the-forty-foot-d%C3%BAn-laoghaire"
"The Great Wood","53.389167","-6.388942","Westend Shopping Park","Dublin","County Dublin","BT23 4LP","+353 1 826 2496","https://www.jdwetherspoon.com/pubs/all-pubs/republic-of-ireland/county-dublin/the-great-wood-dublin"
"The Old Borough","53.456392","-6.222072","72 Main Street","Swords","County Dublin","BT23 4LP","+353 1 808 4103","https://www.jdwetherspoon.com/pubs/all-pubs/republic-of-ireland/county-dublin/the-old-borough-swords"
"The Silver Penny","53.349067","-6.256171","12A/12C Abbey Street Lower","Dublin","County Dublin","BT23 4LP","+353 1 874 6884","https://www.jdwetherspoon.com/pubs/all-pubs/republic-of-ireland/county-dublin/the-silver-penny-dublin"
"The Three Tun Tavern","53.300811","-6.177065","1–5 Temple Road, Carysfort Avenue","Dublin","County Dublin","BT23 4LP","+353 1 212 3644","https://www.jdwetherspoon.com/pubs/all-pubs/republic-of-ireland/county-dublin/the-three-tun-tavern-dublin"
"Cross Keys","57.505782","-1.779061","Back Street","Peterhead","Aberdeen","AB42 1TH","01779 483500","https://www.jdwetherspoon.com/pubs/all-pubs/scotland/aberdeen/cross-keys-peterhead"
"The Archibald Simpson","57.148118","-2.093642","5 Castle Street","Aberdeen","Aberdeen","AB11 5BQ","01224 621365","https://www.jdwetherspoon.com/pubs/all-pubs/scotland/aberdeen/the-archibald-simpson-aberdeen"
"The Gordon Highlander","57.284820","-2.379670","West High Street","Inverurie","Aberdeen","AB51 3QQ","01467 626780","https://www.jdwetherspoon.com/pubs/all-pubs/scotland/aberdeen/the-gordon-highlander-inverurie"
"The Justice Mill","57.143368","-2.109670","423–425 Union Street","Aberdeen","Aberdeen","AB11 6DA","01224 252410","https://www.jdwetherspoon.com/pubs/all-pubs/scotland/aberdeen/the-justice-mill-aberdeen"
"The Saltoun Inn","57.693860","-2.005463","Saltoun Square","Fraserburgh","Aberdeenshire","AB43 9DA","01346 519548","https://www.jdwetherspoon.com/pubs/all-pubs/scotland/aberdeenshire/the-saltoun-inn-fraserburgh"
"The Corn Exchange","56.558840","-2.582331","Market Place","Arbroath","Angus","DD11 1HR","01241 432430","https://www.jdwetherspoon.com/pubs/all-pubs/scotland/angus/the-corn-exchange-arbroath"
"The Corryvreckan","56.412796","-5.474628","Unit 1, The Waterfront Centre, Railway Pier","Oban","Argyll and Bute","PA34 4LW","01631 568910","https://www.jdwetherspoon.com/pubs/all-pubs/scotland/argyll-and-bute/the-corryvreckan-oban"
"The Henry Bell","56.004058","-4.737553","19–29 James Street","Helensburgh","Argyll and Bute","G84 8AS","01436 863060","https://www.jdwetherspoon.com/pubs/all-pubs/scotland/argyll-and-bute/the-henry-bell-helensburgh"
"The Bobbing John","56.115870","-3.791251","46 Drysdale Street","Alloa","Clackmannanshire","FK10 1JL","01259 222590","https://www.jdwetherspoon.com/pubs/all-pubs/scotland/clackmannanshire/the-bobbing-john-alloa"
"The Robert the Bruce","55.070304","-3.613408","81–83 Buccleuch Street","Dumfries","Dumfries and Galloway","DG1 1DJ","01387 270320","https://www.jdwetherspoon.com/pubs/all-pubs/scotland/dumfries-and-galloway/the-robert-the-bruce-dumfries"
"Jolly’s Hotel","56.466195","-2.873623","43a Gray Street","Broughty Ferry","Dundee City","DD5 2BJ","01382 734910","https://www.jdwetherspoon.com/pubs/all-pubs/scotland/dundee-city/jollys-hotel-broughty-ferry"
"The Counting House","56.462066","-2.971839","67–71 Reform Street","Dundee","Dundee City","DD1 1SP","01382 225251","https://www.jdwetherspoon.com/pubs/all-pubs/scotland/dundee-city/the-counting-house-dundee"
"The Wheatsheaf Inn","55.611143","-4.497014","70 Portland Street","Kilmarnock","East Ayrshire","KA1 1JG","01563 572483","https://www.jdwetherspoon.com/pubs/all-pubs/scotland/east-ayrshire/the-wheatsheaf-inn-kilmarnock"
"The David Macbeth Moir","55.943611","-3.057992","Bridge Street","Musselburgh","East Lothian","EH21 6AG","0131 653 1060","https://www.jdwetherspoon.com/pubs/all-pubs/scotland/east-lothian/the-david-macbeth-moir-musselburgh"
"The Booking Office","55.951915","-3.190502","17 Waverley Bridge","Edinburgh","Edinburgh","EH1 1BQ","0131 558 1003","https://www.jdwetherspoon.com/pubs/all-pubs/scotland/edinburgh/booking-office-edinburgh"
"The Alexander Graham Bell","55.951995","-3.205333","128 George Street","Edinburgh","Edinburgh","EH2 4JZ","</p>","https://www.jdwetherspoon.com/pubs/all-pubs/scotland/edinburgh/the-alexander-graham-bell-edinburgh"
"The Caley Picture House","55.9482351","-3.2062561","31 Lothian Road","Edinburgh","Edinburgh","EH1 2DJ","0131 656 0752","https://www.jdwetherspoon.com/pubs/all-pubs/scotland/edinburgh/the-caley-picture-house"
"The Foot of the Walk","55.970788","-3.171012","183 Constitution Street","Leith","Edinburgh","EH6 7AA","0131 553 0120","https://www.jdwetherspoon.com/pubs/all-pubs/scotland/edinburgh/the-foot-of-the-walk-leith"
"The Playfair","55.956463","-3.185870","Omni Centre","Edinburgh","Edinburgh","EH1 3AJ","0131 524 7760","https://www.jdwetherspoon.com/pubs/all-pubs/scotland/edinburgh/the-playfair-edinburgh"
"The Sir Walter Scott","55.948862","-3.362945","Unit C170 After Security","Edinburgh","Edinburgh","EH12 9DN","0131 348 4243","https://www.jdwetherspoon.com/pubs/all-pubs/scotland/edinburgh/the-sir-walter-scott-unit-c170-after-security"
"The Standing Order","55.952978","-3.199702","62–66 George Street","Edinburgh","Edinburgh","EH2 2LR","0131 225 4460","https://www.jdwetherspoon.com/pubs/all-pubs/scotland/edinburgh/the-standing-order-edinburgh"
"The Turnhouse","55.948862","-3.362945","Before Security, Edinburgh Airport","Edinburgh","Edinburgh","EH12 9DN","0131 344 3030","https://www.jdwetherspoon.com/pubs/all-pubs/scotland/edinburgh/the-turnhouse-before-security"
"The White Lady","55.942903","-3.282521","98 St John’s Road","Edinburgh","Edinburgh","EH12 8AT","0131 314 0680","https://www.jdwetherspoon.com/pubs/all-pubs/scotland/edinburgh/the-white-lady-edinburgh"
"The Golden Acorn","56.195863","-3.167625","1 North Street","Glenrothes","Fife","KY7 5NA","01592 755252","https://www.jdwetherspoon.com/pubs/all-pubs/scotland/fife/the-golden-acorn-glenrothes"
"The Guildhall & Linen Exchange","56.071339","-3.461366","79–83 High Street","Dunfermline","Fife","KY12 7DR","01383 625960","https://www.jdwetherspoon.com/pubs/all-pubs/scotland/fife/the-guildhall--linen-exchange-dunfermline"
"The Robert Nairn","56.111982","-3.158047","6 Kirk Wynd","Kirkcaldy","Fife","KY1 1EH","01592 205049","https://www.jdwetherspoon.com/pubs/all-pubs/scotland/fife/the-robert-nairn-kirkcaldy"
"Sir John Stirling Maxwell","55.827699","-4.284509","140 Kilmarnock Road","Glasgow","Glasgow","G41 3NN","0141 636 9024","https://www.jdwetherspoon.com/pubs/all-pubs/scotland/glasgow/sir-john-stirling-maxwell-glasgow"
"The Counting House","55.861023","-4.251800","2 St Vincent Place","Glasgow","Glasgow","G1 2DH","0141 225 0160","https://www.jdwetherspoon.com/pubs/all-pubs/scotland/glasgow/the-counting-house-glasgow"
"The Crystal Palace","55.857518","-4.257313","36 Jamaica Street","Glasgow","Glasgow","G1 4QD","0141 221 2624","https://www.jdwetherspoon.com/pubs/all-pubs/scotland/glasgow/the-crystal-palace-glasgow"
"The Esquire House","55.888472","-4.321724","Esquire House","Glasgow","Glasgow","G12 0AU","0141 341 1130","https://www.jdwetherspoon.com/pubs/all-pubs/scotland/glasgow/the-esquire-house-glasgow"
"The Hengler’s Circus","55.865690","-4.266700","351–363 Sauchiehall Street","Glasgow","Glasgow","G2 3HU","0141 331 9810","https://www.jdwetherspoon.com/pubs/all-pubs/scotland/glasgow/the-henglers-circus-glasgow"
"The Kirky Puffer","55.938177","-4.154589","1–11 Townhead","Glasgow","Glasgow","G66 1NG","0141 775 4140","https://www.jdwetherspoon.com/pubs/all-pubs/scotland/glasgow/the-kirky-puffer-glasgow"
"The Lord of the Isles","55.875941","-4.364801","Unit 21, Xscape, King’s Inch Road","Glasgow","Glasgow","PA4 8XQ","0141 886 8930","https://www.jdwetherspoon.com/pubs/all-pubs/scotland/glasgow/the-lord-of-the-isles-glasgow"
"The Sir John Moore","55.858751","-4.259879","260–292 Argyle Street","Glasgow","Glasgow","G2 8QW","0141 222 1780","https://www.jdwetherspoon.com/pubs/all-pubs/scotland/glasgow/the-sir-john-moore-glasgow"
"The Society Room","55.862294","-4.257089","151 West George Street","Glasgow","Glasgow","G2 2JJ","0141 229 7560","https://www.jdwetherspoon.com/pubs/all-pubs/scotland/glasgow/the-society-room-glasgow"
"The Alexander Bain","58.442343","-3.090616","Market Place","Wick","Highland","KW1 4LP","01955 609920","https://www.jdwetherspoon.com/pubs/all-pubs/scotland/highland/the-alexander-bain-wick"
"The Great Glen","56.816444","-5.113810","104 High Street","Fort William","Highland","PH33 6AD","01397 709910","https://www.jdwetherspoon.com/pubs/all-pubs/scotland/highland/the-great-glen-fort-william"
"The King’s Highway","57.479581","-4.227476","72–74 Church Street","Inverness","Highland","IV1 1EN","01463 251830","https://www.jdwetherspoon.com/pubs/all-pubs/scotland/highland/the-kings-highway-inverness"
"The James Watt","55.946808","-4.753627","80–92 Cathcart Street","Greenock","Inverclyde","PA15 1DD","01475 722640","https://www.jdwetherspoon.com/pubs/all-pubs/scotland/inverclyde/the-james-watt-greenock"
"The Blacksmith’s Forge","55.893080","-3.068934","5 Newmills Road","Dalkeith","Midlothian","EH22 1DU","0131 561 5100","https://www.jdwetherspoon.com/pubs/all-pubs/scotland/midlothian/the-blacksmiths-forge-dalkeith"
"The Muckle Cross","57.648905","-3.312467","34 High Street","Elgin","Moray","IV30 1BU","01343 559030","https://www.jdwetherspoon.com/pubs/all-pubs/scotland/moray/the-muckle-cross-elgin"
"The Auld Brig","55.612441","-4.672991","Units 13–15 Rivergate Shopping Centre","Irvine","North Ayrshire","KA12 8EH","01294 277818","https://www.jdwetherspoon.com/pubs/all-pubs/scotland/north-ayrshire/the-auld-brig-irvine"
"The Paddle Steamer","55.795095","-4.869604","The Promenade","Largs","North Ayrshire","KA30 8LX","01475 686441","https://www.jdwetherspoon.com/pubs/all-pubs/scotland/north-ayrshire/the-paddle-steamer-largs"
"The Salt Cot","55.633765","-4.789511","7 Hamilton Street","Saltcoats","North Ayrshire","KA21 5DS","01294 465924","https://www.jdwetherspoon.com/pubs/all-pubs/scotland/north-ayrshire/the-salt-cot-saltcoats"
"The Brandon Works","55.791623","-3.990256","45–61 Merry Street","Motherwell","North Lanarkshire","ML1 1JJ","01698 210280","https://www.jdwetherspoon.com/pubs/all-pubs/scotland/north-lanarkshire/the-brandon-works-motherwell"
"The Carrick Stone","55.948697","-3.987541","52 Teviot Walk","Glasgow","North Lanarkshire","G67 1NG","01236 850260","https://www.jdwetherspoon.com/pubs/all-pubs/scotland/north-lanarkshire/the-carrick-stone-glasgow"
"The Vulcan","55.861571","-4.022426","181 Main Street","Coatbridge","North Lanarkshire","ML5 3HH","01236 437972","https://www.jdwetherspoon.com/pubs/all-pubs/scotland/north-lanarkshire/the-vulcan-coatbridge"
"The Wishaw Malt","55.774170","-3.918060","62–66 Kirk Road","Wishaw","North Lanarkshire","ML2 7BL","01698 358806","https://www.jdwetherspoon.com/pubs/all-pubs/scotland/north-lanarkshire/the-wishaw-malt-wishaw"
"The Capital Asset","56.396318","-3.425895","26 Tay Street","Perth","Perth and Kinross","PH1 5LQ","01738 580457","https://www.jdwetherspoon.com/pubs/all-pubs/scotland/perth-and-kinross/the-capital-asset-perth"
"The Fair O’Blair","56.592614","-3.338402","25–29 Allan Street","Blairgowrie","Perth and Kinross","PH10 6AB","01250 871890","https://www.jdwetherspoon.com/pubs/all-pubs/scotland/perth-and-kinross/the-fair-oblair-blairgowrie"
"The Last Post","55.846603","-4.424535","County Square","Paisley","Renfrewshire","PA1 1BN","0141 849 6911","https://www.jdwetherspoon.com/pubs/all-pubs/scotland/renfrewshire/the-last-post-paisley"
"The Sanderling","55.864281","-4.4331799","After Security, Glasgow Airport","Paisley","Renfrewshire","PA3 2ST","0141 848 4877","https://www.jdwetherspoon.com/pubs/all-pubs/scotland/renfrewshire/the-sanderling-after-security"
"The Sandpiper","55.864653","-4.432090","Before Security, Glasgow Airport","Paisley","Renfrewshire","PA3 2SW","0141 842 7858","https://www.jdwetherspoon.com/pubs/all-pubs/scotland/renfrewshire/the-sandpiper-before-security"
"Hunters Hall","55.617890","-2.811066","56–58 High Street","Galashiels","Scottish Borders","TD1 1SE","01896 759795","https://www.jdwetherspoon.com/pubs/all-pubs/scotland/scottish-borders/hunters-hall-galashiels"
"The Bourtree","55.425266","-2.783623","22 Bourtree Place","Hawick","Scottish Borders","TD9 9HL","01450 360450","https://www.jdwetherspoon.com/pubs/all-pubs/scotland/scottish-borders/the-bourtree-hawick"
"The Cross Keys","55.652703","-3.188605","24 Northgate","Peebles","Scottish Borders","EH45 8RS","01721 723467","https://www.jdwetherspoon.com/pubs/all-pubs/scotland/scottish-borders/the-cross-keys-peebles"
"The Prestwick Pioneer","55.499539","-4.610786","87 Main Street","Prestwick","South Ayrshire","KA9 1JS","01292 473210","https://www.jdwetherspoon.com/pubs/all-pubs/scotland/south-ayrshire/the-prestwick-pioneer-prestwick"
"The West Kirk","55.462916","-4.633937","58a Sandgate","Ayr","South Ayrshire","KA7 1BX","01292 880416","https://www.jdwetherspoon.com/pubs/all-pubs/scotland/south-ayrshire/the-west-kirk-ayr"
"An Ruadh-Ghleann","55.828222","-4.217484","40–44 Main Street","Rutherglen","South Lanarkshire","G73 2HY","0141 613 2370","https://www.jdwetherspoon.com/pubs/all-pubs/scotland/south-lanarkshire/an-ruadhghleann-rutherglen"
"The Hay Stook","55.760817","-4.177595","26-36 Princes Avenue","East Kilbride","South Lanarkshire","G74 1JU","01355 244323","https://www.jdwetherspoon.com/pubs/all-pubs/scotland/south-lanarkshire/the-hay-stook"
"The John Fairweather","55.818727","-4.165774","52–58 Main Street","Cambuslang","South Lanarkshire","G72 7EP","0141 646 2411","https://www.jdwetherspoon.com/pubs/all-pubs/scotland/south-lanarkshire/the-john-fairweather-cambuslang"
"The Carron Works","56.000127","-3.783067","Bank Street","Falkirk","Stirling and Falkirk","FK1 1NB","01324 673020","https://www.jdwetherspoon.com/pubs/all-pubs/scotland/stirling-and-falkirk/the-carron-works-falkirk"
"The Crossed Peels","56.118532","-3.939151","8 Spittal Street","Stirling","Stirling","FK8 1AT","01786 460317","https://www.jdwetherspoon.com/pubs/all-pubs/scotland/stirling/the-crossed-peels-stirling"
"The Captain James Lang","55.943228","-4.571429","97–99 High Street","Dumbarton","West Dunbartonshire","G82 1LF","01389 742112","https://www.jdwetherspoon.com/pubs/all-pubs/scotland/west-dunbartonshire/the-captain-james-lang-dumbarton"
"The Newyearfield","55.882537","-3.517758","Unit 1, Livingston Designer Outlet","Livingston","West Lothian","EH54 6QX","01506 420770","https://www.jdwetherspoon.com/pubs/all-pubs/scotland/west-lothian/the-newyearfield-livingston"
"The Olympia","51.771165","-3.245151","Morgan Street","Tredegar","Blaenau Gwent","NP22 3ND","01495 712910","https://www.jdwetherspoon.com/pubs/all-pubs/wales/blaenau-gwent/the-olympia-tredegar"
"The Picture House","51.779650","-3.207618","Market Street","Ebbw Vale","Blaenau Gwent","NP23 6HP","01495 352382","https://www.jdwetherspoon.com/pubs/all-pubs/wales/blaenau-gwent/the-picture-house-ebbw-vale"
"The Pontlottyn","51.729839","-3.134537","Somerset Street","Abertillery","Blaenau Gwent","NP13 1DJ","01495 322930","https://www.jdwetherspoon.com/pubs/all-pubs/wales/blaenau-gwent/the-pontlottyn-abertillery"
"The Sawyer’s Arms","51.608429","-3.659949","3–6 Commercial Street","Maesteg","Bridgend","CF34 9DF","01656 810115","https://www.jdwetherspoon.com/pubs/all-pubs/wales/bridgend/the-sawyers-arms-maesteg"
"The Wyndham Arms","51.506639","-3.579270","Dunraven Place","Bridgend","Bridgend","CF31 1JE","01656 673571","https://www.jdwetherspoon.com/pubs/all-pubs/wales/bridgend/the-wyndham-arms-bridgend"
"The Malcolm Uphill","51.572210","-3.219794","87–91 Cardiff Road","Caerphilly","Caerphilly","CF83 1FQ","029 2076 0720","https://www.jdwetherspoon.com/pubs/all-pubs/wales/caerphilly/the-malcolm-uphill-caerphilly"
"The Sirhowy","51.669323","-3.195527","61–63 High Street","Blackwood","Caerphilly","NP12 1BA","01495 226374","https://www.jdwetherspoon.com/pubs/all-pubs/wales/caerphilly/the-sirhowy-blackwood"
"The Aneurin Bevan","51.507614","-3.199854","Caerphilly Road","Cardiff","Cardiff","CF14 4AD","029 2054 4280","https://www.jdwetherspoon.com/pubs/all-pubs/wales/cardiff/the-aneurin-bevan-cardiff"
"The Central Bar","51.483341","-3.172948","39 Windsor Place","Cardiff","Cardiff","CF10 3BW","029 2078 0260","https://www.jdwetherspoon.com/pubs/all-pubs/wales/cardiff/the-central-bar-cardiff"
"The Ernest Willows","51.485684","-3.165617","2–12 City Road","Cardiff","Cardiff","CF24 3DL","029 2048 6235","https://www.jdwetherspoon.com/pubs/all-pubs/wales/cardiff/the-ernest-willows-cardiff"
"The Gatekeeper","51.480148","-3.181925","9–10 Westgate Street","Cardiff","Cardiff","CF10 1DD","029 2064 6020","https://www.jdwetherspoon.com/pubs/all-pubs/wales/cardiff/the-gatekeeper-cardiff"
"The Great Western","51.476596","-3.176890","64 St Mary Street","Cardiff","Cardiff","CF10 1FA","029 2035 3990","https://www.jdwetherspoon.com/pubs/all-pubs/wales/cardiff/the-great-western-cardiff"
"The Ivor Davies","51.481330","-3.200316","243–249 Cowbridge Road East","Cardiff","Cardiff","CF11 9AN","029 2066 7615","https://www.jdwetherspoon.com/pubs/all-pubs/wales/cardiff/the-ivor-davies-cardiff"
"The Mount Stuart","51.462724","-3.166651","Landsea House, Stuart Place","Cardiff","Cardiff","CF10 5BU","029 2044 8000","https://www.jdwetherspoon.com/pubs/all-pubs/wales/cardiff/the-mount-stuart-cardiff"
"The Prince of Wales","51.477658","-3.177898","81–83 St Mary Street","Cardiff","Cardiff","CF10 1FA","029 2064 4449","https://www.jdwetherspoon.com/pubs/all-pubs/wales/cardiff/the-prince-of-wales-cardiff"
"The York Palace","51.680907","-4.163244","51 Stepney Street","Llanelli","Carmarthenshire","SA15 3YA","01554 758609","https://www.jdwetherspoon.com/pubs/all-pubs/wales/carmarthenshire/the-york-palace-llanelli"
"Yr Hen Dderwen","51.857052","-4.304996","47–48 King Street","Carmarthen","Carmarthenshire","SA31 1BH","01267 242050","https://www.jdwetherspoon.com/pubs/all-pubs/wales/carmarthenshire/yr-hen-dderwen-carmarthen"
"Yr Hen Orsaf","52.414089","-4.081825","Alexandra Road","Aberystwyth","Ceredigion","SY23 1LN","01970 636080","https://www.jdwetherspoon.com/pubs/all-pubs/wales/ceredigion/yr-hen-orsaf-aberystwyth"
"The Palladium","53.325173","-3.832359","7 Gloddaeth Street","Llandudno","Conwy","LL30 2DD","01492 863920","https://www.jdwetherspoon.com/pubs/all-pubs/wales/conwy/the-palladium-llandudno"
"The Picture House","53.296712","-3.727801","24–26 Prince’s Drive","Colwyn Bay","Conwy","LL29 8LA","01492 535286","https://www.jdwetherspoon.com/pubs/all-pubs/wales/conwy/the-picture-house-colwyn-bay"
"The Castle Hotel","53.114594","-3.310398","St Peters Square","Ruthin","Denbighshire","LL15 1AA","01824 708950","https://www.jdwetherspoon.com/pubs/all-pubs/wales/denbighshire/the-castle-hotel-ruthin"
"The Sussex","53.321051","-3.491623","20–26 Sussex Street","Rhyl","Denbighshire","LL18 1SG","01745 362910","https://www.jdwetherspoon.com/pubs/all-pubs/wales/denbighshire/the-sussex-rhyl"
"The Central Hotel","53.212225","-3.039094","2–4 Chester Road West","Shotton","Flintshire","CH5 1BX","01244 845510","https://www.jdwetherspoon.com/pubs/all-pubs/wales/flintshire/the-central-hotel-shotton"
"The Gold Cape","53.166431","-3.141215","8–8a Wrexham Street","Mold","Flintshire","CH7 1ES","01352 705920","https://www.jdwetherspoon.com/pubs/all-pubs/wales/flintshire/the-gold-cape-mold"
"The Market Cross","53.274202","-3.222796","9–11 High Street","Holywell","Flintshire","CH8 7LA","01352 717800","https://www.jdwetherspoon.com/pubs/all-pubs/wales/flintshire/the-market-cross-holywell"
"Pen Cob","52.887857","-4.417534","Station Square","Pwllheli","Gwynedd","LL53 5HG","01758 704970","https://www.jdwetherspoon.com/pubs/all-pubs/wales/gwynedd/pen-cob-pwllheli"
"Tafarn Y Porth","53.140706","-4.274801","5–9 Eastgate Street","Caernarfon","Gwynedd","LL55 1AG","01286 662920","https://www.jdwetherspoon.com/pubs/all-pubs/wales/gwynedd/tafarn-y-porth-caernarfon"
"The Black Bull Inn","53.224370","-4.129060","107 High Street","Bangor","Gwynedd","LL57 1NS","01248 387900","https://www.jdwetherspoon.com/pubs/all-pubs/wales/gwynedd/the-black-bull-inn-bangor"
"Y Dic Penderyn","51.747381","-3.378139","102–103 High Street","Merthyr Tydfil","Merthyr Tydfil","CF47 8AP","01685 385786","https://www.jdwetherspoon.com/pubs/all-pubs/wales/merthyr-tydfil/y-dic-penderyn-merthyr-tydfil"
"The Bell Hanger","51.642586","-2.673660","9–10 St Mary Street","Chepstow","Monmouthshire","NP16 5EW","01291 637360","https://www.jdwetherspoon.com/pubs/all-pubs/wales/monmouthshire/the-bell-hanger-chepstow"
"The Coliseum","51.823226","-3.019214","Lion Street","Abergavenny","Monmouthshire","NP7 5PE","01873 736960","https://www.jdwetherspoon.com/pubs/all-pubs/wales/monmouthshire/the-coliseum-abergavenny"
"The King’s Head","51.811804","-2.715684","8 Agincourt Square","Monmouth","Monmouthshire","NP25 3DY","01600 710530","https://www.jdwetherspoon.com/pubs/all-pubs/wales/monmouthshire/the-kings-head-monmouth"
"The David Protheroe","51.661907","-3.806338","7 Windsor Road","Neath","Neath Port Talbot","SA11 1LS","01639 622130","https://www.jdwetherspoon.com/pubs/all-pubs/wales/neath-port-talbot/the-david-protheroe-neath"
"The Lord Caradoc","51.594380","-3.782071","69–73 Station Road","Port Talbot","Neath Port Talbot","SA13 1NW","01639 896007","https://www.jdwetherspoon.com/pubs/all-pubs/wales/neath-port-talbot/the-lord-caradoc-port-talbot"
"The Godfrey Morgan","51.589783","-2.978427","158 Chepstow Road","Newport","Newport","NP19 8EG","01633 221928","https://www.jdwetherspoon.com/pubs/all-pubs/wales/newport/the-godfrey-morgan-newport"
"The John Wallace Linton","51.588957","-2.998056","Units 10–12, The Cambrian Centre","Newport","Newport","NP20 4AD","01633 251752","https://www.jdwetherspoon.com/pubs/all-pubs/wales/newport/the-john-wallace-linton-newport"
"The Queen’s Hotel","51.587676","-2.998456","19 Bridge Street","Newport","Newport","NP20 4AN","01633 844900","https://www.jdwetherspoon.com/pubs/all-pubs/wales/newport/the-queens-hotel-newport"
"The William Owen","51.801554","-4.968229","6 Quay Street","Haverfordwest","Pembrokeshire","SA61 1BG","01437 771900","https://www.jdwetherspoon.com/pubs/all-pubs/wales/pembrokeshire/the-william-owen-haverfordwest"
"The Black Boy","52.516404","-3.316007","31/32 Broad Street","Newtown","Powys","SY16 2BQ","01686 624369","https://www.jdwetherspoon.com/pubs/all-pubs/wales/powys/the-black-boy-newtown"
"The George Hotel","51.948723","-3.3911728","1 George Street","Brecon","Powys","LD3 7LD","01874 620250","https://www.jdwetherspoon.com/pubs/all-pubs/wales/powys/the-george-hotel-brecon"
"The Tumble Inn","51.599484","-3.340818","4–9 Broadway/Sardis Road","Pontypridd","Rhondda Cynon Taff","CF37 1BA","01443 484390","https://www.jdwetherspoon.com/pubs/all-pubs/wales/rhondda-cynon-taff/the-tumble-inn-pontypridd"
"Yr Ieuan Ap Iago","51.712742","-3.446322","6 High Street","Aberdare","Rhondda Cynon Taff","CF44 7AA","01685 880080","https://www.jdwetherspoon.com/pubs/all-pubs/wales/rhondda-cynon-taff/yr-ieuan-ap-iago-aberdare"
"The Bank Statement","51.619375","-3.940487","57–58 Wind Street","Swansea","Swansea","SA1 1EP","01792 455477","https://www.jdwetherspoon.com/pubs/all-pubs/wales/swansea/the-bank-statement-swansea"
"The Mardy Inn","51.669000","-4.037645","117 High Street","Swansea","Swansea","SA4 4BR","01792 890600","https://www.jdwetherspoon.com/pubs/all-pubs/wales/swansea/the-mardy-inn-swansea"
"The Potters Wheel","51.619245","-3.949492","85–86 The Kingsway","Swansea","Swansea","SA1 5JE","01792 465113","https://www.jdwetherspoon.com/pubs/all-pubs/wales/swansea/the-potters-wheel-swansea"
"The Red Lion Inn","51.668635","-3.922654","49 Sway Road","Swansea","Swansea","SA6 6JA","01792 761870","https://www.jdwetherspoon.com/pubs/all-pubs/wales/swansea/the-red-lion-inn-swansea"
"The John Fielding","51.655404","-3.020568","1 Caradoc Road","Cwmbran","Torfaen","NP44 1PP","01633 833760","https://www.jdwetherspoon.com/pubs/all-pubs/wales/torfaen/the-john-fielding-cwmbran"
"The Bears Head","51.439440","-3.175713","37–39 Windsor Road","Penarth","Vale of Glamorgan","CF64 1JD","029 2070 6424","https://www.jdwetherspoon.com/pubs/all-pubs/wales/vale-of-glamorgan/the-bears-head-penarth"
"The Sir Samuel Romilly","51.398496","-3.284393","Romilly Buildings","Barry","Vale of Glamorgan","CF62 7AU","01446 724900","https://www.jdwetherspoon.com/pubs/all-pubs/wales/vale-of-glamorgan/the-sir-samuel-romilly-barry"
"The Elihu Yale","53.047074","-2.997051","44–46 Regent Street","Wrexham","Wrexham","LL11 1RR","01978 366646","https://www.jdwetherspoon.com/pubs/all-pubs/wales/wrexham/the-elihu-yale-wrexham"
"The North and South Wales Bank","53.045207","-2.991848","14 High Street","Wrexham","Wrexham","LL13 8HP","01978 367940","https://www.jdwetherspoon.com/pubs/all-pubs/wales/wrexham/the-north-and-south-wales-bank-wrexham"
